{"version": 0.6, "generator": "Overpass API 0.7.59 e21c39fe", "osm3s": {"timestamp_osm_base": "2022-11-28T21:07:24Z", "copyright": "The data included in this document is from www.openstreetmap.org. The data is made available under ODbL."}, "elements": [{"type": "node", "id": 287734143, "lat": 53.8585675, "lon": 8.6973537, "tags": {"addr:city": "Cuxhaven", "addr:country": "DE", "addr:housenumber": "76", "addr:postcode": "27472", "addr:street": "S\u00fcdersteinstra\u00dfe", "amenity": "restaurant", "contact:website": "https://www.zumpark.de/", "cuisine": "german;international", "email": "info@zumpark.de", "fax": "+49 4721 3950917", "name": "Zum Park", "opening_hours": "Mo 11:30-14:30,17:30-22:00; We-Sa 11:30-14:30,17:30-23:00; Su 11:30-14:30,17:30-22:00", "operator": "Sa\u0161a Bogdanovic", "outdoor_seating": "yes", "payment:cash": "yes", "phone": "+49 4721 64461", "toilets:wheelchair": "no", "wheelchair": "limited"}}, {"type": "node", "id": 315250145, "lat": 53.8897081, "lon": 8.6618774, "tags": {"wheelchair": "limited", "website": "https://www.strandgaststaette-behrens.de/", "toilets": "yes", "phone": "+49 4721 48572", "payment:cash": "yes", "addr:city": "Cuxhaven", "addr:housenumber": "35", "addr:postcode": "27476", "addr:street": "Steinmarner Trift", "amenity": "restaurant", "name": "Strandgastst\u00e4tte Behrens", "opening_hours": "\"Bei sch\u00f6nem Wetter bis 19:00 Uhr ge\u00f6ffnet. K\u00fcche bis 18:45 Uhr.\""}}, {"type": "node", "id": 373416083, "lat": 53.8361813, "lon": 8.7700843, "tags": {"addr:city": "Cuxhaven", "addr:country": "DE", "addr:housenumber": "1", "addr:postcode": "27478", "addr:street": "D\u00f6schers Trift", "addr:suburb": "Altenbruch", "amenity": "restaurant", "cuisine": "german", "name": "Gasthaus zur Schleuse", "opening_hours": "Tu-Sa 11:30-20:00; Su 11:00-20:00", "wheelchair": "no"}}, {"type": "node", "id": 383776583, "lat": 53.8597066, "lon": 8.6983697, "tags": {"amenity": "restaurant", "name": "City-St\u00fcbchen", "payment:cash": "yes", "wheelchair": "limited"}}, {"type": "node", "id": 383776627, "lat": 53.8690865, "lon": 8.7155929, "tags": {"amenity": "restaurant", "name": "Restaurant Seestern", "opening_hours": "Tu-Sa 11:30-21:00, Su 11:30-18:00", "payment:cash": "yes", "wheelchair": "yes"}}, {"type": "node", "id": 383776631, "lat": 53.8654277, "lon": 8.7079393, "tags": {"addr:city": "Cuxhaven", "addr:country": "DE", "addr:postcode": "27472", "addr:street": "Pr\u00e4sident-Herwig-Stra\u00dfe", "amenity": "restaurant", "contact:email": "info@seeteufel-cuxhaven.de", "name": "R\u00e4ucherei u. Restaurant", "phone": "+49 4721 - 20 19 50", "toilets:wheelchair": "yes", "website": "http://www.seeteufel-cuxhaven.de/", "wheelchair": "yes"}}, {"type": "node", "id": 383776633, "lat": 53.8634405, "lon": 8.7052541, "tags": {"addr:city": "Cuxhaven", "addr:country": "DE", "addr:postcode": "27472", "addr:street": "Pr\u00e4sident-Herwig-Stra\u00dfe", "alt_name": "Altes Fischkontor", "amenity": "restaurant", "cuisine": "german;seafood", "name": "Altes Kontor", "wheelchair": "yes"}}, {"type": "node", "id": 383776635, "lat": 53.8638337, "lon": 8.7057932, "tags": {"addr:city": "Cuxhaven", "addr:housenumber": "54", "addr:postcode": "27472", "addr:street": "Pr\u00e4sident-Herwig-Stra\u00dfe", "amenity": "restaurant", "capacity": "100", "cuisine": "seafood", "name": "Cux-Pack Fischb\u00f6rse GmbH", "opening_hours": "Mo-Su 11:00-21:00", "outdoor_seating": "yes", "phone": "+49 4721 - 2 66 01", "website": "http://www.fischboerse-cuxhaven.de/", "wheelchair": "yes"}}, {"type": "node", "id": 415595558, "lat": 53.9199737, "lon": 8.4909767}, {"type": "node", "id": 415595597, "lat": 53.9217979, "lon": 8.4938472, "tags": {"amenity": "restaurant", "cuisine": "regional", "name": "Hus achtern Diek", "opening_hours": "Mo-Su 11:00-19:30", "outdoor_seating": "yes", "website": "http://www.husachterndiek.de/nordsee-urlaub/gastronomie/restaurant-insel-neuwerk.php"}}, {"type": "node", "id": 415907324, "lat": 53.9209054, "lon": 8.4957168, "tags": {"name": "Zum Anker", "cuisine": "regional", "amenity": "restaurant", "website": "http://www.inselneuwerk.de/gastronomie/restaurant-zum-anker"}}, {"type": "node", "id": 415913431, "lat": 53.9141394, "lon": 8.4895024, "tags": {"website": "https://www.wattfahrten.de/index.php/restaurant.html", "wheelchair": "yes", "toilets:wheelchair": "yes", "name": "Das alte Fischerhaus", "cuisine": "regional", "amenity": "restaurant"}}, {"type": "node", "id": 426675845, "lat": 53.8698826, "lon": 8.7058101, "tags": {"wheelchair:description": "Die s\u00fcdliche Seitent\u00fcr f\u00fchrt in einen gro\u00dfen rollstuhlgeeigneten Gastraum.", "amenity": "restaurant", "contact:email": "info@husopndiek.de", "contact:fax": "+49 4721 38008", "contact:phone": "+49 472 138008", "contact:website": "https://www.husopndiek.de/", "cuisine": "german;fish", "diet:vegetarian": "yes", "name": "Hus op'n Diek", "opening_hours": "Mo-Su 12:00-21:30", "opening_hours:kitchen": "Mo-Su 11:00-21:00", "operator": "Andreas Vogel", "outdoor_seating": "yes", "payment:cash": "yes", "payment:girocard": "yes", "wheelchair": "limited"}}, {"type": "node", "id": 426675847, "lat": 53.8685195, "lon": 8.7028377, "tags": {"wheelchair": "yes", "amenity": "restaurant", "cuisine": "italian", "name": "Il Borgo", "payment:cash": "yes", "toilets:wheelchair": "no"}}, {"type": "node", "id": 435395986, "lat": 53.8716158, "lon": 8.7090689, "tags": {"wheelchair:description:de": "Zugang ist barrierefrei, aber keine Toilette vorhanden.", "amenity": "restaurant", "changing_table": "yes", "changing_table:count": "1", "cuisine": "regional", "email": "info@am-pier.de", "name": "Am Pier", "opening_hours": "Mo-Su 09:00-21:00", "outdoor_seating": "yes", "payment:cash": "yes", "phone": "+49 47 21500827", "toilets": "yes", "toilets:wheelchair": "no", "website": "https://www.ampier.de/", "wheelchair": "yes"}}, {"type": "node", "id": 459980482, "lat": 53.8336393, "lon": 8.7818303, "tags": {"amenity": "restaurant", "cuisine": "regional", "name": "Strandhaus Altenbruch", "website": "https://www.panorama-cuxhaven.de/", "wheelchair": "yes"}}, {"type": "node", "id": 459980511, "lat": 53.7995149, "lon": 8.7572142, "tags": {"addr:city": "Cuxhaven", "addr:country": "DE", "addr:housenumber": "21", "addr:postcode": "27478", "addr:street": "Jacobistra\u00dfe", "addr:suburb": "L\u00fcdingworth", "amenity": "restaurant", "cuisine": "regional", "name": "Norddeutscher Hof", "phone": "+49 4724 81330", "toilets:wheelchair": "yes", "tourism": "hotel", "website": "https://landhotel-norddeutscherhof.de/", "wheelchair": "yes"}}, {"type": "node", "id": 470630412, "lat": 53.774357, "lon": 8.8011834, "tags": {"addr:city": "Nordleda", "addr:country": "DE", "addr:housenumber": "81", "addr:postcode": "21765", "addr:street": "Cuxhavener Stra\u00dfe", "amenity": "restaurant", "cuisine": "regional", "name": "G\u00e4stehaus & Gasthaus Petersen", "phone": "+49 4758 485", "tourism": "guest_house"}}, {"type": "node", "id": 513799621, "lat": 53.8686382, "lon": 8.7053973, "tags": {"amenity": "restaurant", "cuisine": "fish", "name": "Austernperle", "phone": "+49 4721 665231", "wheelchair": "limited"}}, {"type": "node", "id": 706419618, "lat": 53.8620439, "lon": 8.6998651, "tags": {"amenity": "restaurant", "cuisine": "regional", "level": "0", "name": "Spechtmeyer's Grillimbiss", "opening_hours": "Mo-Fr 11:00-20:00; Sa 11:00-17:00; PH off", "website": "http://www.am-wasserturm-cuxhaven.de/", "wheelchair": "yes"}}, {"type": "node", "id": 761643351, "lat": 53.8915571, "lon": 8.6766629, "tags": {"addr:city": "Cuxhaven", "addr:housenumber": "95", "addr:postcode": "27476", "addr:street": "Strandstra\u00dfe", "addr:suburb": "D\u00f6se", "amenity": "restaurant", "contact:email": "info@strandbar-cuxhaven.de", "name": "Strandbar", "outdoor_seating": "yes", "payment:cash": "yes", "payment:credit_cards": "no", "payment:debit_cards": "no", "payment:electronic_purses": "no", "phone": "+49 4721 666056", "website": "https://www.strandbar-cuxhaven.de/", "wheelchair": "limited"}}, {"type": "node", "id": 762608572, "lat": 53.9214138, "lon": 8.4960127}, {"type": "node", "id": 762608573, "lat": 53.9214131, "lon": 8.4961213}, {"type": "node", "id": 762608574, "lat": 53.9215078, "lon": 8.4961229}, {"type": "node", "id": 762608575, "lat": 53.9215084, "lon": 8.4960143}, {"type": "node", "id": 765952137, "lat": 53.9214134, "lon": 8.4960839}, {"type": "node", "id": 774057818, "lat": 53.9199177, "lon": 8.4906729}, {"type": "node", "id": 774057821, "lat": 53.9200248, "lon": 8.4908553}, {"type": "node", "id": 774057825, "lat": 53.9199237, "lon": 8.4913715}, {"type": "node", "id": 774057828, "lat": 53.9198324, "lon": 8.4912159}, {"type": "node", "id": 774057835, "lat": 53.9198469, "lon": 8.4907929}, {"type": "node", "id": 775293401, "lat": 53.9199344, "lon": 8.4909421}, {"type": "node", "id": 837187393, "lat": 53.8854123, "lon": 8.6414031, "tags": {"amenity": "restaurant", "cuisine": "italian", "name": "Don Giovanni", "payment:cash": "yes", "wheelchair": "limited"}}, {"type": "node", "id": 837187402, "lat": 53.8852682, "lon": 8.6423851, "tags": {"wheelchair:description:de": "Mehrere Stufen am Eingang", "addr:city": "Cuxhaven", "addr:country": "DE", "addr:housenumber": "102", "addr:postcode": "27476", "addr:street": "Cuxhavener Stra\u00dfe", "amenity": "restaurant", "cuisine": "seafood;pizza;regional", "name": "Christiansen", "outdoor_seating": "yes", "payment:cash": "yes", "payment:credit_cards": "no", "payment:debit_cards": "no", "payment:electronic_purses": "no", "phone": "+49 4721 43110", "website": "https://www.strandhaus-christiansen.de/index.php", "wheelchair": "limited"}}, {"type": "node", "id": 837187405, "lat": 53.8846429, "lon": 8.6433781, "tags": {"addr:city": "Cuxhaven", "addr:country": "DE", "addr:housenumber": "2", "addr:postcode": "27476", "addr:street": "Sahlenburger Weg", "addr:suburb": "Duhnen", "amenity": "restaurant", "name": "Duhner Landhaus", "website": "https://www.duhner-landhaus.de/", "wheelchair": "limited"}}, {"type": "node", "id": 837187410, "lat": 53.8649369, "lon": 8.6382722, "tags": {"website": "www.restaurant-zimdars.de", "addr:city": "Cuxhaven", "addr:housenumber": "51", "addr:postcode": "27476", "addr:street": "Sahlenburger Chaussee", "amenity": "restaurant", "capacity": "50", "cuisine": "regional", "name": "Zimdars", "phone": "+49 4721 6946554"}}, {"type": "node", "id": 837187419, "lat": 53.8849514, "lon": 8.6421593, "tags": {"addr:city": "Cuxhaven", "addr:housenumber": "101", "addr:postcode": "27476", "addr:street": "Cuxhavener Stra\u00dfe", "amenity": "restaurant", "contact:email": "info@zurpost-cux.de", "contact:fax": "+49 4721 508930", "contact:phone": "+49 171 8792947", "name": "Zur Post", "opening_hours": "Mo-Fr 14:00-21:30, Sa-Su 15:00-22:00", "operator": "Alexandra & Oliver Blauth", "phone": "+49 4721 508929", "tourism": "hotel", "website": "https://www.zurpost-cux.de/", "wheelchair": "limited"}}, {"type": "node", "id": 837187421, "lat": 53.8854191, "lon": 8.6418065, "tags": {"addr:city": "Cuxhaven", "addr:country": "DE", "addr:housenumber": "2", "addr:postcode": "27476", "addr:street": "Duhner Strandstra\u00dfe", "amenity": "restaurant", "name": "Metscher's Gasthaus", "toilets:wheelchair": "no", "website": "https://www.metscher-duhnen.de/", "wheelchair": "yes"}}, {"type": "node", "id": 837187439, "lat": 53.8849772, "lon": 8.6419589, "tags": {"amenity": "restaurant", "name": "Am Meer", "wheelchair": "limited"}}, {"type": "node", "id": 1158675806, "lat": 53.8602866, "lon": 8.6682443}, {"type": "node", "id": 1158676039, "lat": 53.8600578, "lon": 8.6680715}, {"type": "node", "id": 1158676406, "lat": 53.860343, "lon": 8.6680296}, {"type": "node", "id": 1158676889, "lat": 53.8601143, "lon": 8.6678567}, {"type": "node", "id": 1164399702, "lat": 53.8647796, "lon": 8.6017935}, {"type": "node", "id": 1164399787, "lat": 53.865679, "lon": 8.6006638, "tags": {"amenity": "restaurant", "name": "Cafeteria", "operator": "HELIOS Seehospital Sahlenburg", "outdoor_seating": "yes", "wheelchair": "yes"}}, {"type": "node", "id": 1164399822, "lat": 53.8646162, "lon": 8.6016999}, {"type": "node", "id": 1164399902, "lat": 53.8648474, "lon": 8.601875}, {"type": "node", "id": 1164399926, "lat": 53.8647113, "lon": 8.6013292}, {"type": "node", "id": 1164400088, "lat": 53.8646488, "lon": 8.601479}, {"type": "node", "id": 1164400156, "lat": 53.864666, "lon": 8.6015806}, {"type": "node", "id": 1164400266, "lat": 53.864909, "lon": 8.6015666}, {"type": "node", "id": 1164400298, "lat": 53.864892, "lon": 8.6017682}, {"type": "node", "id": 1164400310, "lat": 53.8646028, "lon": 8.6014238}, {"type": "node", "id": 1164400427, "lat": 53.8647963, "lon": 8.6016866}, {"type": "node", "id": 1164400540, "lat": 53.8648473, "lon": 8.6017145}, {"type": "node", "id": 1164400582, "lat": 53.8645305, "lon": 8.601597}, {"type": "node", "id": 1329639485, "lat": 53.8649323, "lon": 8.7073079, "tags": {"amenity": "restaurant", "email": "info@costa-nova.de", "name": "Costa Nova", "opening_hours": "We-Mo 11:30-21:00", "operator": "portuguese", "phone": "+49 4721 698448", "website": "https://www.costa-nova.de/"}}, {"type": "node", "id": 1329672728, "lat": 53.8744769, "lon": 8.6917101, "tags": {"opening_hours": "Tu-Su 18:00-23:00; Fr, Su 12:00-15:00", "amenity": "restaurant", "cuisine": "italian", "name": "Fontana di Trevi", "payment:cash": "yes", "phone": "+49 4721 446309", "smoking": "outside", "wheelchair": "limited"}}, {"type": "node", "id": 1341620486, "lat": 53.8679865, "lon": 8.7082346, "tags": {"amenity": "restaurant", "cuisine": "spanish", "name": "Die Kiste", "opening_hours": "Mo-Sa 17:00+", "phone": "+4947214237015", "website": "https://die-kiste.info/", "wheelchair": "no"}}, {"type": "node", "id": 1387780818, "lat": 53.8744384, "lon": 8.7038806, "tags": {"contact:email": "info@seglermesse-cuxhaven.de", "contact:fax": "+49 4721 663651", "contact:phone": "+49 4721 663650", "contact:website": "http://www.seglermesse-cuxhaven.de/", "name": "Seglermesse", "opening_hours": "Mo-Su 09:00-11:00 open \"Fr\u00fchst\u00fcck\"; Mo-Su 11:30-21:30 open \"Warme K\u00fcche\"", "wheelchair:description": "Das Restaurant (1.OG) ist nur \u00fcber Treppen erreichbar. Das Rollstuhlgerechte WC (EG, Au\u00dfent\u00fcr, Locus-Schl\u00fcssel) befindet sich an der \u00f6stlichen Geb\u00e4udeseite. Beides ist nur in der Saison (01.04. bis 31.10.) in Betrieb. Im Winter geschlossen.", "amenity": "restaurant", "cuisine": "german", "level": "1", "outdoor_seating": "yes", "toilets:wheelchair": "yes", "wheelchair": "no"}}, {"type": "node", "id": 1411399805, "lat": 53.8601261, "lon": 8.7011054, "tags": {"wheelchair": "yes", "addr:city": "Cuxhaven", "addr:housenumber": "30", "addr:postcode": "27472", "addr:street": "Segelckestra\u00dfe", "amenity": "restaurant", "name": "Tinas Herzst\u00fcck", "outdoor_seating": "yes", "payment:cash": "yes", "phone": "+49 4721 4241130", "website": "https://tinas-herzstueck.de/"}}, {"type": "node", "id": 1425508876, "lat": 53.8285682, "lon": 8.7780274, "tags": {"addr:city": "Cuxhaven", "addr:country": "DE", "addr:housenumber": "7", "addr:postcode": "27478", "addr:street": "Wehldorfer Stra\u00dfe", "addr:suburb": "Altenbruch", "amenity": "restaurant", "cuisine": "german", "name": "Zur Grenze"}}, {"type": "node", "id": 1429153451, "lat": 53.8848062, "lon": 8.6393673}, {"type": "node", "id": 1429153452, "lat": 53.8848967, "lon": 8.6392945}, {"type": "node", "id": 1429153455, "lat": 53.8851223, "lon": 8.6386805}, {"type": "node", "id": 1429153456, "lat": 53.8849776, "lon": 8.6392315}, {"type": "node", "id": 1429153466, "lat": 53.8851979, "lon": 8.6390682}, {"type": "node", "id": 1429153468, "lat": 53.8851716, "lon": 8.6392764}, {"type": "node", "id": 1429153471, "lat": 53.885251, "lon": 8.6385993}, {"type": "node", "id": 1429153472, "lat": 53.8853469, "lon": 8.6391276}, {"type": "node", "id": 1429153478, "lat": 53.8854963, "lon": 8.6390504}, {"type": "node", "id": 1467611042, "lat": 53.8628892, "lon": 8.5957302, "tags": {"addr:city": "Cuxhaven", "addr:country": "DE", "addr:housenumber": "1", "addr:postcode": "27476", "addr:street": "Am Sahlenburger Strand", "amenity": "restaurant", "cuisine": "german", "name": "Bistro Liebenswert", "opening_hours": "PH,Mo-Su 11:00-20:30", "payment:cash": "yes", "phone": "+49 4721 69263", "wheelchair": "limited", "wheelchair:description": "Rampe vorhanden, T\u00fcre ist schwenkbar."}}, {"type": "node", "id": 1467611076, "lat": 53.8593477, "lon": 8.5920387}, {"type": "node", "id": 1467611092, "lat": 53.8597971, "lon": 8.5913416}, {"type": "node", "id": 1467611093, "lat": 53.8598056, "lon": 8.5915946}, {"type": "node", "id": 1467611099, "lat": 53.859999, "lon": 8.5917665}, {"type": "node", "id": 1467611101, "lat": 53.8601069, "lon": 8.5915194}, {"type": "node", "id": 1467611333, "lat": 53.8602658, "lon": 8.5918127, "tags": {"amenity": "restaurant", "cuisine": "regional", "email": "info@wattenkieker.de", "fax": "+49 4721 200200", "name": "Wattenkieker", "outdoor_seating": "yes", "payment:cash": "yes", "phone": "+49 4721 2000", "toilets:wheelchair": "yes", "website": "https://www.wattenkieker.de/", "wheelchair": "yes"}}, {"type": "node", "id": 1616643475, "lat": 53.8490073, "lon": 8.6449711, "tags": {"source": "Hi-res aerial imagery (Aerowest)"}}, {"type": "node", "id": 1616643527, "lat": 53.8490522, "lon": 8.6451144, "tags": {"source": "Hi-res aerial imagery (Aerowest)"}}, {"type": "node", "id": 1616643718, "lat": 53.8491559, "lon": 8.6450214, "tags": {"source": "Hi-res aerial imagery (Aerowest)"}}, {"type": "node", "id": 1616643761, "lat": 53.8491976, "lon": 8.6448004, "tags": {"source": "Hi-res aerial imagery (Aerowest)"}}, {"type": "node", "id": 1616643791, "lat": 53.8492091, "lon": 8.6451911, "tags": {"source": "Hi-res aerial imagery (Aerowest)"}}, {"type": "node", "id": 1616643856, "lat": 53.8492958, "lon": 8.6451134, "tags": {"source": "Hi-res aerial imagery (Aerowest)"}}, {"type": "node", "id": 1634314795, "lat": 53.8692553, "lon": 8.7021673}, {"type": "node", "id": 1634314802, "lat": 53.8693057, "lon": 8.7020969}, {"type": "node", "id": 1634314806, "lat": 53.8693308, "lon": 8.7022943}, {"type": "node", "id": 1634314809, "lat": 53.8693388, "lon": 8.7021609}, {"type": "node", "id": 1634314813, "lat": 53.8693481, "lon": 8.7021465}, {"type": "node", "id": 1634314814, "lat": 53.8693491, "lon": 8.7022682}, {"type": "node", "id": 1634314824, "lat": 53.8693796, "lon": 8.7023167}, {"type": "node", "id": 1634314826, "lat": 53.8693819, "lon": 8.7022077}, {"type": "node", "id": 1634314829, "lat": 53.8693897, "lon": 8.7021951}, {"type": "node", "id": 1634314838, "lat": 53.8694246, "lon": 8.7022473}, {"type": "node", "id": 1676208781, "lat": 53.8212607, "lon": 8.6648665}, {"type": "node", "id": 1676208782, "lat": 53.8212837, "lon": 8.6646774}, {"type": "node", "id": 1676208783, "lat": 53.821422, "lon": 8.6649228}, {"type": "node", "id": 1676208784, "lat": 53.821445, "lon": 8.6647337}, {"type": "node", "id": 1889684050, "lat": 53.8619551, "lon": 8.6996484, "tags": {"amenity": "restaurant", "contact:phone": "+49 4721 66 79 900", "contact:website": "https://www.restaurant-mykonos-cuxhaven.de/", "cuisine": "greek", "name": "Mykonos", "opening_hours": "Mo-Sa 11:30-14:30, 17:30-23:00; Su,PH 11:30-14:30, 17:30-22:00", "outdoor_seating": "yes", "wheelchair": "limited"}}, {"type": "node", "id": 1889716223, "lat": 53.8631889, "lon": 8.6972237, "tags": {"addr:city": "Cuxhaven", "addr:country": "DE", "addr:housenumber": "7", "addr:postcode": "27474", "addr:street": "Poststra\u00dfe", "amenity": "restaurant", "name": "Poseidon", "opening_hours": "We-Mo 11:45-14:15,18:00-23:00;Tu off", "toilets:wheelchair": "yes", "website": "http://www.poseidon-cuxhaven.de/", "wheelchair": "yes"}}, {"type": "node", "id": 1891201388, "lat": 53.8689017, "lon": 8.7047553, "tags": {"amenity": "restaurant", "cuisine": "fish", "name": "Das Fischrestaurant", "outdoor_seating": "yes", "payment:cash": "yes"}}, {"type": "node", "id": 1891822496, "lat": 53.8673902, "lon": 8.7032636, "tags": {"amenity": "restaurant", "cuisine": "kebab;burger;noodle;pizza;turkish", "delivery": "yes", "name": "Simbad", "opening_hours": "Mo-Fr 11:00-23:00; Sa,Su 11:00-01:00", "outdoor_seating": "yes", "payment:cash": "yes", "takeaway": "yes", "wheelchair": "no"}}, {"type": "node", "id": 1892224886, "lat": 53.8615938, "lon": 8.706666, "tags": {"wheelchair": "limited", "addr:city": "Cuxhaven", "addr:country": "DE", "addr:housenumber": "11", "addr:postcode": "27472", "addr:street": "Neufelder Stra\u00dfe", "amenity": "restaurant", "contact:fax": "+49 4721 399085", "cuisine": "seafood", "name": "Fischereihafen Restaurant & Lloyd\u00b4s", "opening_hours": "Mo-Su 17:00-21:00, PH,Mo-Su 11:30-15:00", "operator": "Christian Frank", "phone": "+49 4721 399084", "toilets:wheelchair": "no", "website": "https://www.fischrestaurant-cuxhaven.de/"}}, {"type": "node", "id": 1894242964, "lat": 53.8714764, "lon": 8.7010646, "tags": {"amenity": "restaurant", "name": "Schifferb\u00f6rse", "opening_hours:signed": "no"}}, {"type": "node", "id": 1894265205, "lat": 53.8755389, "lon": 8.6969447, "tags": {"amenity": "restaurant", "cuisine": "german;mediterranean;seafood;regional", "delivery": "yes", "internet_access": "no", "name": "Seeterrassen", "opening_hours": "Mo-Th 11:30-21:30, Fr,Sa 11:30-22:00; Su,PH 11:30-21:00", "opening_hours:kitchen": "Mo-Th 11:30-21:00, Fr,Sa 11:30-21:30; Su,PH 11:30-20:30", "operator": "DaFi Gastro GmbH", "outdoor_seating": "no", "payment:cash": "yes", "payment:cryptocurrencies": "no", "payment:electronic_purses": "no", "payment:girocard": "yes", "payment:maestro": "yes", "payment:mastercard": "yes", "payment:visa": "yes", "phone": "+49 4721 37700", "smoking": "separated", "takeaway": "no", "toilets:wheelchair": "no", "website": "https://www.seeterrassen-cuxhaven.de/", "wheelchair": "yes", "wheelchair:description": "Klingel an der Treppe nutzen + auf den Hof rechts um die Ecke zur ersten T\u00fcr, Personal kommt mit Lift zum Abholen"}}, {"type": "node", "id": 1894370217, "lat": 53.8616261, "lon": 8.7000132, "tags": {"amenity": "restaurant", "cuisine": "pizza", "name": "Pomod'oro", "opening_hours": "Mo-Sa 11:00-22:00; PH off", "payment:cash": "yes", "wheelchair": "yes"}}, {"type": "node", "id": 1895826618, "lat": 53.8590268, "lon": 8.6994643, "tags": {"amenity": "restaurant", "check_date:opening_hours": "2020-11-02", "contact:phone": "+49 4721 698 41 51", "contact:website": "https://www.osterialafenice-cuxhaven.de/", "cuisine": "italian", "name": "Osteria La Fenice", "opening_hours": "Mo-Sa 12:00-22:00; PH off", "outdoor_seating": "yes", "payment:cash": "yes", "wheelchair": "yes"}}, {"type": "node", "id": 1896389968, "lat": 53.8748616, "lon": 8.7002729, "tags": {"wheelchair:description": "Der Innenraum des Restaurants ist nur \u00fcber zwei Stufen erreichbar. Lediglich der Au\u00dfenbereich ist rollstuhlgerecht. Die Toiletten im Geb\u00e4ude sind leider eng und nur fu\u00dfl\u00e4ufig erreichbar. 04.2018", "amenity": "restaurant", "contact:phone": "+49 4721 6986170", "contact:website": "https://www.sturmflut-cux.de/", "level": "0", "name": "Sturmflut", "opening_hours": "Mo-Th 08:30-14:30,17:30-21:30; Fr-Sa 08:30-22:00; Su 08:30-17:00", "opening_hours:kitchen": "Mo-Th 11:30-14:30,17:30-21:00; Fr-Sa 11:30-14:30,17:30-21:30; Su 11:30-15:00", "outdoor_seating": "yes", "payment:cash": "yes", "payment:girocard": "yes", "payment:mastercard": "yes", "payment:visa": "yes", "toilets:wheelchair": "no", "website": "https://www.sturmflut-cux.de/", "wheelchair": "limited"}}, {"type": "node", "id": 1896405209, "lat": 53.8761132, "lon": 8.6934651, "tags": {"name": "Marinellos Strandbar", "opening_hours": "Apr-Sep PH,Mo-Su 10:00-21:00+", "wheelchair": "yes", "amenity": "restaurant", "cuisine": "italian;pizza;german", "description": "April - Anfang Oktober", "toilets:wheelchair": "yes"}}, {"type": "node", "id": 1925518864, "lat": 53.815234, "lon": 8.6808662}, {"type": "node", "id": 1925518872, "lat": 53.8153005, "lon": 8.6805615}, {"type": "node", "id": 1925518879, "lat": 53.8153416, "lon": 8.6809335}, {"type": "node", "id": 1925518882, "lat": 53.8154081, "lon": 8.6806288}, {"type": "node", "id": 2016981007, "lat": 53.8585127, "lon": 8.7009355, "tags": {"amenity": "restaurant", "contact:phone": "+49 4721 394808", "contact:website": "https://www.estragon-cuxhaven.de/", "cuisine": "german", "name": "Estragon", "opening_hours": "Tu-Sa 17:30-22:00", "outdoor_seating": "yes", "payment:cash": "yes", "wheelchair": "limited"}}, {"type": "node", "id": 2130514606, "lat": 53.8181591, "lon": 8.6635758, "tags": {"amenity": "restaurant", "name": "\u00d6z Urfa", "opening_hours": "Tu-Sa 11:30-22:30; Su,PH 15:00-22:00"}}, {"type": "node", "id": 2130520171, "lat": 53.8189864, "lon": 8.6633012, "tags": {"amenity": "restaurant", "cuisine": "german", "name": "Uwe\u00b4s gem\u00fctliches Restaurant", "opening_hours": "Mo-Sa 18:00-22:00; Su off; PH 11:30-14:30,17:30-22:00", "outdoor_seating": "yes", "payment:cash": "yes"}}, {"type": "node", "id": 2131996266, "lat": 53.8235895, "lon": 8.6703322, "tags": {"addr:city": "Cuxhaven", "addr:country": "DE", "addr:housenumber": "11", "addr:postcode": "27478", "addr:street": "Am Altenwalder Bahnhof", "amenity": "restaurant", "name": "Storchennest"}}, {"type": "node", "id": 2260678992, "lat": 53.8906523, "lon": 8.6680549, "tags": {"wheelchair": "yes", "toilets:wheelchair": "yes", "takeaway": "no", "amenity": "restaurant", "name": "Strandhaus D\u00f6se", "opening_hours": "We-Su 11:00-22:00", "operator": "Strandhaus D\u00f6se GmbH"}}, {"type": "node", "id": 2357630515, "lat": 53.8175434, "lon": 8.7673841, "tags": {"amenity": "restaurant", "name": "Romeo e Giulia", "toilets:wheelchair": "no", "wheelchair": "yes"}}, {"type": "node", "id": 2410297226, "lat": 53.8818329, "lon": 8.678922, "tags": {"amenity": "restaurant", "changing_table": "yes", "changing_table:location": "female_toilet", "contact:phone": "+49 4721 2079173", "contact:website": "http://www.zur-sonne-cuxhaven.de/", "cuisine": "regional", "name": "Zur Sonne", "opening_hours": "Mo 17:30-21:30; Tu,Th-Sa 12:00-14:00,17:30-21:30; Su 12:00-14:00,17:30-21:00", "operator": "Familie Barby", "outdoor_seating": "yes", "payment:cash": "yes", "payment:debit_cards": "yes", "wheelchair": "limited"}}, {"type": "node", "id": 2410696359, "lat": 53.8822496, "lon": 8.6740775}, {"type": "node", "id": 2410696361, "lat": 53.8822533, "lon": 8.6739256}, {"type": "node", "id": 2410696366, "lat": 53.8823029, "lon": 8.6733888}, {"type": "node", "id": 2410696369, "lat": 53.8822998, "lon": 8.673161}, {"type": "node", "id": 2410696379, "lat": 53.8823969, "lon": 8.6741348}, {"type": "node", "id": 2410696381, "lat": 53.8824034, "lon": 8.6739842}, {"type": "node", "id": 2410696404, "lat": 53.8824424, "lon": 8.6734426}, {"type": "node", "id": 2410696431, "lat": 53.8824576, "lon": 8.6732705}, {"type": "node", "id": 2411744976, "lat": 53.8593384, "lon": 8.5922093}, {"type": "node", "id": 2411744979, "lat": 53.8594169, "lon": 8.5922215}, {"type": "node", "id": 2411744980, "lat": 53.8594375, "lon": 8.5922247}, {"type": "node", "id": 2411744981, "lat": 53.8594468, "lon": 8.5920541}, {"type": "node", "id": 2411744982, "lat": 53.8597511, "lon": 8.591537}, {"type": "node", "id": 2411744984, "lat": 53.8598702, "lon": 8.5913666}, {"type": "node", "id": 2412779267, "lat": 53.8612042, "lon": 8.6166375}, {"type": "node", "id": 2412779268, "lat": 53.8612063, "lon": 8.6168428}, {"type": "node", "id": 2412779275, "lat": 53.8612485, "lon": 8.6166375}, {"type": "node", "id": 2412779276, "lat": 53.8612486, "lon": 8.6167768}, {"type": "node", "id": 2412779359, "lat": 53.861455, "lon": 8.6166846}, {"type": "node", "id": 2412779360, "lat": 53.8614551, "lon": 8.6168265}, {"type": "node", "id": 2422508418, "lat": 53.873871, "lon": 8.6946689, "tags": {"name": "D\u00f6ser Grill", "amenity": "restaurant"}}, {"type": "node", "id": 2430581244, "lat": 53.8613133, "lon": 8.6166201}, {"type": "node", "id": 2430581245, "lat": 53.8613134, "lon": 8.6167768}, {"type": "node", "id": 2430581246, "lat": 53.8613163, "lon": 8.6168668}, {"type": "node", "id": 2430581247, "lat": 53.8613163, "lon": 8.6169147}, {"type": "node", "id": 2430581249, "lat": 53.8613884, "lon": 8.61662}, {"type": "node", "id": 2430581250, "lat": 53.8613884, "lon": 8.6166847}, {"type": "node", "id": 2430581252, "lat": 53.8613765, "lon": 8.6168266}, {"type": "node", "id": 2430581253, "lat": 53.8613766, "lon": 8.6169146}, {"type": "node", "id": 2432600203, "lat": 53.9200393, "lon": 8.4908308}, {"type": "node", "id": 2432600208, "lat": 53.9201409, "lon": 8.4910038}, {"type": "node", "id": 2463725752, "lat": 53.8618999, "lon": 8.7091588, "tags": {"addr:city": "Cuxhaven", "addr:housename": "Halle X", "addr:housenumber": "10", "addr:postcode": "27472", "addr:street": "Niedersachsenstra\u00dfe", "amenity": "restaurant", "contact:facebook": "https://de-de.facebook.com/die.kleine.fischkiste", "contact:fax": "+49 4721 22163", "contact:instagram": "https://www.instagram.com/kleine.fischkiste/", "contact:phone": "+49 4721 227 15", "contact:website": "http://www.kleine-fischkiste.de/", "cuisine": "fish;seafood", "name": "Die kleine Fischkiste", "opening_hours": "Mo-Th 11:30-21:00; Fr-Su 08:00-21:00", "operator": "Die kleine Fischkiste GmbH", "operator:type": "business", "ref:vatin": "DE811973224", "start_date": "1996", "takeaway": "yes", "toilets:wheelchair": "no", "wheelchair": "yes"}}, {"type": "node", "id": 2773820825, "lat": 53.8851033, "lon": 8.6439622, "tags": {"amenity": "restaurant", "name": "Duhner Strandr\u00e4uber", "toilets:wheelchair": "no", "wheelchair": "limited"}}, {"type": "node", "id": 2967143239, "lat": 53.8863334, "lon": 8.6437236, "tags": {"wheelchair": "limited", "name": "Windjammer", "amenity": "restaurant"}}, {"type": "node", "id": 2972722446, "lat": 53.8836647, "lon": 8.6732593, "tags": {"amenity": "restaurant", "cuisine": "pizza", "delivery": "no", "name": "Ristorante Pizzeria Parlamento", "outdoor_seating": "yes", "takeaway": "yes", "wheelchair": "limited", "wheelchair:description:de": "Zugang barrierefrei, Toiletten nur \u00fcber Treppe."}}, {"type": "node", "id": 2973022638, "lat": 53.8831539, "lon": 8.6317901, "tags": {"toilets:wheelchair": "no", "addr:city": "Cuxhaven", "addr:housenumber": "34", "addr:postcode": "27476", "addr:street": "Wehrbergsweg", "amenity": "restaurant", "name": "El Greco", "phone": "+49 4721 444430", "wheelchair": "yes"}}, {"type": "node", "id": 2976103783, "lat": 53.8576493, "lon": 8.7047266, "tags": {"amenity": "restaurant", "capacity": "60", "cuisine": "regional", "name": "Bistro\"KuBi\"", "opening_hours": "08:00-17:00", "phone": "+49 4721 5085220", "smoking": "outside", "toilets:wheelchair": "yes", "website": "http://www.lebenshilfe-cuxhaven.de/", "wheelchair": "yes"}}, {"type": "node", "id": 3309798704, "lat": 53.8599608, "lon": 8.5917012}, {"type": "node", "id": 3309798706, "lat": 53.8599549, "lon": 8.5916707}, {"type": "node", "id": 3320264077, "lat": 53.884772, "lon": 8.6394879}, {"type": "node", "id": 3320264078, "lat": 53.8847757, "lon": 8.6394572}, {"type": "node", "id": 3320264080, "lat": 53.8847724, "lon": 8.6395146}, {"type": "node", "id": 3320264085, "lat": 53.8848181, "lon": 8.6394069}, {"type": "node", "id": 3320264087, "lat": 53.8847754, "lon": 8.6395442}, {"type": "node", "id": 3320264091, "lat": 53.8847854, "lon": 8.639566}, {"type": "node", "id": 3320264096, "lat": 53.8847977, "lon": 8.6395829}, {"type": "node", "id": 3320264108, "lat": 53.8848195, "lon": 8.6395867}, {"type": "node", "id": 3320264110, "lat": 53.8848374, "lon": 8.6395828}, {"type": "node", "id": 3320264127, "lat": 53.8851769, "lon": 8.6392901}, {"type": "node", "id": 3526648772, "lat": 53.8592116, "lon": 8.5921896}, {"type": "node", "id": 3526648773, "lat": 53.8594085, "lon": 8.5923765}, {"type": "node", "id": 3526648774, "lat": 53.8591999, "lon": 8.5924066}, {"type": "node", "id": 3528808882, "lat": 53.8598804, "lon": 8.5916507}, {"type": "node", "id": 3528808883, "lat": 53.8599983, "lon": 8.591388}, {"type": "node", "id": 3528808884, "lat": 53.8599003, "lon": 8.5916055}, {"type": "node", "id": 3528808885, "lat": 53.8598922, "lon": 8.5912969}, {"type": "node", "id": 3601270494, "lat": 53.8886503, "lon": 8.671158, "tags": {"amenity": "restaurant", "fixme": "Name", "name": "Black Pearl", "wheelchair": "limited"}}, {"type": "node", "id": 3602657013, "lat": 53.8571759, "lon": 8.6984874, "tags": {"amenity": "restaurant", "cuisine": "regional", "name": "Schlossrestaurant", "wheelchair": "no"}}, {"type": "node", "id": 3683959726, "lat": 53.8838154, "lon": 8.6340223, "tags": {"addr:city": "Cuxhaven", "addr:housenumber": "32", "addr:postcode": "27476", "addr:street": "Wehrbergsweg", "amenity": "restaurant", "name": "Ebken im ahoi", "opening_hours": "Mo,Tu off", "phone": "+49 4721 47295", "website": "http://cuxhaven-restaurant.de/", "wheelchair": "limited"}}, {"type": "node", "id": 4217062594, "lat": 53.8823079, "lon": 8.67333}, {"type": "node", "id": 4217062595, "lat": 53.8822962, "lon": 8.6731973}, {"type": "node", "id": 4233488253, "lat": 53.8952738, "lon": 8.5593926, "tags": {"website": "http://www.inselneuwerk.de/gastronomie/wattbuefett-wattoase", "amenity": "restaurant", "name": "Wattb\u00fcfett \"Watt-Oase\""}}, {"type": "node", "id": 4239892289, "lat": 53.8858622, "lon": 8.6461653, "tags": {"amenity": "restaurant", "name": "Meeresruh", "wheelchair": "no"}}, {"type": "node", "id": 4241330272, "lat": 53.8615168, "lon": 8.709603, "tags": {"addr:city": "Cuxhaven", "addr:housenumber": "Halle 10", "addr:postcode": "27472", "addr:street": "Niedersachsenstra\u00dfe", "amenity": "restaurant", "contact:email": "bohlsen-raeucherfisch@t-online.de", "cuisine": "fish_and_seafood", "name": "Bohlsen-R\u00e4ucherfisch", "opening_hours": "Mo-Fr 08:00-18:00, Sa 08:00-17:00, Su 09:00-17:00", "phone": "+49 4721 25058", "toilets:wheelchair": "no", "website": "https://www.bohlsen-raeucherfisch.de/", "wheelchair": "yes"}}, {"type": "node", "id": 4242617736, "lat": 53.8857749, "lon": 8.6408919, "tags": {"addr:city": "Cuxhaven", "addr:country": "DE", "addr:housenumber": "2", "addr:postcode": "27476", "addr:street": "Duhner Strandstra\u00dfe", "amenity": "restaurant", "delivery": "no", "name": "Bitterino", "outdoor_seating": "yes", "smoking": "outside", "takeaway": "yes"}}, {"type": "node", "id": 4242617756, "lat": 53.8856458, "lon": 8.6401628, "tags": {"addr:city": "Cuxhaven", "addr:housenumber": "5-9", "addr:postcode": "27476", "addr:street": "Duhner Strandstra\u00dfe", "air_conditioning": "yes", "amenity": "restaurant", "bar": "no", "capacity": "50", "cuisine": "regional;international", "internet_access": "no", "level": "0", "name": "Vier Jahreszeiten", "opening_hours": "Mo-Su 18:00-21:00", "outdoor_seating": "no", "phone": "+49 4721 403-0", "reservation": "recommended", "wheelchair": "yes"}}, {"type": "node", "id": 4321226433, "lat": 53.8853871, "lon": 8.6385283}, {"type": "node", "id": 4322076087, "lat": 53.8888467, "lon": 8.6692228, "tags": {"name": "Land & Meer", "cuisine": "regional", "amenity": "restaurant"}}, {"type": "node", "id": 4322200371, "lat": 53.8655314, "lon": 8.654252, "tags": {"amenity": "restaurant", "cuisine": "german", "name": "Sch\u00fctzenhaus Brokeswalde"}}, {"type": "node", "id": 4342218194, "lat": 53.8616281, "lon": 8.6991573, "tags": {"amenity": "restaurant", "contact:facebook": "Asia-Prinz-in-Cuxhaven-1052072288171870", "contact:phone": "+49 4721 6653995", "cuisine": "asian", "name": "Asia Prinz", "opening_hours": "Mo-Th 11:00-21:00; Fr-Sa 11:30-22:00; Su off; PH 12:00-21:00", "outdoor_seating": "yes", "payment:cash": "yes", "wheelchair": "limited"}}, {"type": "node", "id": 4345672005, "lat": 53.8628736, "lon": 8.6982276, "tags": {"amenity": "restaurant", "contact:phone": "+49 4721/694 1717", "contact:website": "https://www.pizza-lavita-cuxhaven.de/", "cuisine": "pizza", "level": "1", "name": "Pizza La Vita", "opening_hours": "Tu-Th 11:00-14:00,18:00-23:00; Fr-Su 18:00-23:00", "wheelchair": "no"}}, {"type": "node", "id": 4346085893, "lat": 53.8702031, "lon": 8.7059171, "tags": {"amenity": "restaurant", "cuisine": "burger", "level": "0", "name": "B Burger-Bar", "opening_hours": "Mo-Fr 15:00+; Sa-Su 11:30+", "payment:cash": "yes", "payment:girocard": "yes", "toilets:wheelchair": "yes", "website": "http://www.b-burger-bar.de/", "wheelchair": "yes", "wheelchair:description": "Es gibt zwar ein \"Rollstuhlgerechts WC\" in diesem Restaurant (entsprechend den hier geforderten Kriterien), allerdings behindert eine nur 87cm breite Zwischen-T\u00fcr (Gastraum) und ein (klappbarer, aber schwerer) Wickeltisch die Nutzung. Stand 04.2018"}}, {"type": "node", "id": 4384499437, "lat": 53.8642969, "lon": 8.7064105, "tags": {"amenity": "restaurant", "name": "Restaurante O Cantiho Caf\u00e9", "wheelchair": "yes"}}, {"type": "node", "id": 4974507499, "lat": 53.884729, "lon": 8.636456, "tags": {"amenity": "restaurant", "cuisine": "italian", "name": "Martini", "wheelchair": "limited"}}, {"type": "node", "id": 4974523830, "lat": 53.8839787, "lon": 8.6399158, "tags": {"amenity": "restaurant", "name": "Meeresfriede"}}, {"type": "node", "id": 4974526525, "lat": 53.8831112, "lon": 8.6372239, "tags": {"opening_hours": "Tu-Su 11:30-14:30,17:30-21:30", "wheelchair": "no", "amenity": "restaurant", "name": "Unter Deck"}}, {"type": "node", "id": 4991844740, "lat": 53.8612983, "lon": 8.7098787, "tags": {"amenity": "restaurant", "cuisine": "fish", "name": "Dat Cuxhavener Fischhus", "opening_hours": "PH,Mo-Su 11:30-15:00,17:30-21:00", "toilets:wheelchair": "no", "wheelchair": "yes"}}, {"type": "node", "id": 4993120402, "lat": 53.8865412, "lon": 8.6456481, "tags": {"addr:city": "Cuxhaven", "addr:housenumber": "86", "addr:postcode": "27476", "addr:street": "Cuxhavener Stra\u00dfe", "amenity": "restaurant", "name": "Schaarh\u00f6rn", "opening_hours": "12:30-14:30,17:30-22:00", "phone": "+49 4721 4340", "website": "https://www.badhotel-sternhagen.de/restaurants-cuxhaven/schaarhoern/"}}, {"type": "node", "id": 4993120403, "lat": 53.8865755, "lon": 8.6457855, "tags": {"addr:city": "Cuxhaven", "addr:housenumber": "86", "addr:postcode": "27476", "addr:street": "Cuxhavener Stra\u00dfe", "amenity": "restaurant", "name": "Sterneck", "opening_hours": "Th-Su 18:00-24:00", "phone": "+49 4721 4340", "website": "https://www.badhotel-sternhagen.de/restaurants-cuxhaven/restaurant-cuxhaven-sterneck/"}}, {"type": "node", "id": 4993173032, "lat": 53.8865018, "lon": 8.6455143, "tags": {"addr:city": "Cuxhaven", "addr:housenumber": "86", "addr:postcode": "27476", "addr:street": "Cuxhavener Stra\u00dfe", "amenity": "restaurant", "name": "Ekend\u00f6ns", "opening_hours": "17:30-24:00", "phone": "+49 4721 4340", "website": "https://www.badhotel-sternhagen.de/restaurants-cuxhaven/ekendoens/"}}, {"type": "node", "id": 4995648003, "lat": 53.8859676, "lon": 8.6475608, "tags": {"addr:city": "Cuxhaven", "addr:country": "DE", "addr:housenumber": "69", "addr:postcode": "27476", "addr:street": "Cuxhavener Stra\u00dfe", "amenity": "restaurant", "name": "Bj\u00f6rn\u2018s Beach", "opening_hours": "PH,Mo-Su 11:00-22:00; Nov-Mar Mo-Fr 16:00-22:00; Nov-Mar PH,Sa,Su 11:00-22:00", "toilets:wheelchair": "yes", "website": "http://www.xn--bjrns-beach-sfb.de/", "wheelchair": "yes", "wheelchair:description": "Sehr gutes Restaurant mit angenehmer Atmosph\u00e4re. Es empfiehlt sich eine Reservierung f\u00fcr die Hauptessenszeiten."}}, {"type": "node", "id": 5111723751, "lat": 53.8859239, "lon": 8.6617637, "tags": {"wheelchair:description:de": "Eine Stufe am Eingang. Terrasse au\u00dfen barrierefrei.", "wheelchair": "no", "amenity": "restaurant", "check_date:opening_hours": "2020-10-30", "contact:phone": "+49 4721 500801", "cuisine": "italian", "delivery": "no", "diet:vegan": "no", "diet:vegetarian": "yes", "name": "da Peppino", "opening_hours": "Tu-Fr 17:30-22:30; Sa-Su 11:30-14:00,17:30-22:30", "payment:cash": "yes", "payment:girocard": "yes", "payment:maestro": "yes", "takeaway": "yes"}}, {"type": "node", "id": 5164862293, "lat": 53.8487027, "lon": 8.702154}, {"type": "node", "id": 5167593937, "lat": 53.8488169, "lon": 8.7018886}, {"type": "node", "id": 5170973361, "lat": 53.8487247, "lon": 8.7017746}, {"type": "node", "id": 5170973362, "lat": 53.8486105, "lon": 8.70204}, {"type": "node", "id": 5344903074, "lat": 53.8611943, "lon": 8.6049798, "tags": {"amenity": "restaurant", "contact:fax": "+49 4721 603238", "contact:mobile": "+49 179 4899957", "contact:phone": "+49 4721 29115", "contact:website": "http://www.kupfer-kessel.de/", "email": "info@kupfer-kessel.de", "name": "Kupfer-Kessel"}}, {"type": "node", "id": 5539132521, "lat": 53.869062, "lon": 8.7049573, "tags": {"addr:city": "Cuxhaven", "addr:housenumber": "1", "addr:postcode": "27472", "addr:street": "Neue Reihe", "amenity": "restaurant", "name": "Kuhlinaria", "opening_hours": "Mo-Su 12:00-14:00,17:00-21:00", "payment:cash": "yes", "phone": "+49 1525 4253331", "toilets:wheelchair": "no", "website": "https://www.kuhlinaria-cux.de/", "wheelchair": "limited", "wheelchair:description": "Ebenerdig (Rolli-) erreichbare Tische, aber auch eine hohe einstufige Podestinsel."}}, {"type": "node", "id": 5594531661, "lat": 53.8596075, "lon": 8.5909557, "tags": {"addr:city": "Cuxhaven", "addr:country": "DE", "addr:postcode": "27476", "addr:street": "Am Sahlenburger Strand", "amenity": "restaurant", "delivery": "yes", "name": "Blauths Streetfood & Meer", "outdoor_seating": "yes", "phone": "+49 4721 5900942", "website": "https://www.blauths.de/", "wheelchair": "limited"}}, {"type": "node", "id": 5836135554, "lat": 53.859648, "lon": 8.5912885, "tags": {"addr:city": "Cuxhaven", "addr:housenumber": "37", "addr:postcode": "27476", "addr:street": "Am Sahlenburger Strand", "amenity": "restaurant", "cuisine": "seafood", "name": "Hus op'n Diek", "outdoor_seating": "yes", "payment:cash": "yes", "payment:girocard": "yes", "phone": "+49 4721 6904266", "takeaway": "yes", "toilets:wheelchair": "no", "wheelchair": "limited"}}, {"type": "node", "id": 5836175245, "lat": 53.8583817, "lon": 8.6981008, "tags": {"amenity": "restaurant", "contact:phone": "+49 4721 664246", "contact:website": "https://www.veneta-cuxhaven.de/", "cuisine": "italian", "name": "Trattoria Veneta", "opening_hours": "Mo-Su 11:30-15:00,17:30-22:30", "outdoor_seating": "yes", "payment:cash": "yes", "toilets:wheelchair": "no", "wheelchair": "limited"}}, {"type": "node", "id": 6021791636, "lat": 53.8833188, "lon": 8.6707328, "tags": {"amenity": "restaurant", "contact:website": "https://zurschlemmerpfanne.de/", "cuisine": "seafood", "name": "Zur Schlemmerpfanne", "opening_hours": "Mo-Su 17:00-20:00", "outdoor_seating": "yes", "wheelchair": "no"}}, {"type": "node", "id": 6021791637, "lat": 53.8853764, "lon": 8.664431, "tags": {"wheelchair": "limited", "amenity": "restaurant", "contact:website": "http://www.xn--alt-dse-e1a.de/", "cuisine": "fish", "name": "Alt D\u00f6se", "opening_hours": "Mo 17:00-21:00, Tu-Su 17:00-21:00, Tu,Th-Su 11:30-14:30", "outdoor_seating": "yes", "payment:cash": "yes"}}, {"type": "node", "id": 6051404339, "lat": 53.8612583, "lon": 8.7065618, "tags": {"outdoor_seating": "yes", "addr:city": "Cuxhaven", "addr:housenumber": "12", "addr:postcode": "27472", "addr:street": "Neufelder Stra\u00dfe", "amenity": "restaurant", "contact:website": "https://www.unikat-cux.de/", "cuisine": "regional", "name": "Unikat", "opening_hours": "Mo,Tu 17:00-23:00; We 12:00-23:00; Fr-Sa 12:00+; Su 11:30-21:30"}}, {"type": "node", "id": 6066478946, "lat": 53.8651542, "lon": 8.6956747, "tags": {"amenity": "restaurant", "contact:website": "http://www.cuxhaven-pizza.de/", "cuisine": "pizza", "name": "Pizza Galaxy", "opening_hours": "Mo,Tu,We 17:00-22:00; Th 11:00-14:00,17:00-22:00; Fr,Sa 17:00-23:00; Su,PH 16:00-22:00", "outdoor_seating": "no", "payment:cash": "yes", "wheelchair": "limited"}}, {"type": "node", "id": 6082669894, "lat": 53.8564169, "lon": 8.7050477, "tags": {"amenity": "restaurant", "name": "Keglerheim Martinsklause", "toilets:wheelchair": "no", "wheelchair": "no"}}, {"type": "node", "id": 6353668692, "lat": 53.8597801, "lon": 8.6824152, "tags": {"amenity": "restaurant", "cuisine": "chinese", "name": "Saigon", "wheelchair": "yes"}}, {"type": "node", "id": 6722752941, "lat": 53.8834745, "lon": 8.6735392, "tags": {"amenity": "restaurant", "cuisine": "greek", "name": "Yamass", "opening_hours": "Tu-Sa 17:30-21:00; PH,Su 12:00-14:00,17:30-21:00", "outdoor_seating": "yes", "payment:cash": "yes", "toilets:wheelchair": "no", "website": "http://www.yamass-doese.de/", "wheelchair": "limited"}}, {"type": "node", "id": 6797004994, "lat": 53.9199439, "lon": 8.4909261}, {"type": "node", "id": 6968925343, "lat": 53.888651, "lon": 8.6716011, "tags": {"cuisine": "italian", "amenity": "restaurant"}}, {"type": "node", "id": 7091146544, "lat": 53.82413, "lon": 8.7709308, "tags": {"amenity": "restaurant", "name": "Hadler Hof", "smoking": "yes"}}, {"type": "node", "id": 7614665334, "lat": 53.8572434, "lon": 8.5891575}, {"type": "node", "id": 7896255185, "lat": 53.8608035, "lon": 8.7107973, "tags": {"addr:postcode": "27472", "addr:street": "Niedersachsenstra\u00dfe", "amenity": "restaurant", "cuisine": "fish;german", "name": "Meeresfr\u00fcchte", "name:en": "Seafood", "phone": "+49471721272", "website": "http://www.meeresfruechte-cuxhaven.com"}}, {"type": "node", "id": 8883149662, "lat": 53.885111, "lon": 8.6396694, "tags": {"amenity": "restaurant", "cuisine": "vietnamese", "name": "Le Phat", "takeaway": "yes", "wheelchair": "no"}}, {"type": "node", "id": 8883762961, "lat": 53.8849947, "lon": 8.6439087, "tags": {"amenity": "restaurant", "name": "Nord Stuv"}}, {"type": "node", "id": 9041683567, "lat": 53.8617171, "lon": 8.6335502, "tags": {"addr:housenumber": "11", "addr:street": "Nordheimstra\u00dfe", "amenity": "restaurant", "cuisine": "kebab;pizza", "name": "Sahlenburger Grillhaus", "phone": "+49 4721 6909363"}}, {"type": "node", "id": 9044405848, "lat": 53.8616955, "lon": 8.6265231, "tags": {"addr:housenumber": "55", "addr:street": "Nordheimstra\u00dfe", "amenity": "restaurant", "cuisine": "pizza;kebab", "name": "Efes"}}, {"type": "node", "id": 9051685166, "lat": 53.8852457, "lon": 8.6392222}, {"type": "node", "id": 9051834509, "lat": 53.8847866, "lon": 8.6394381}, {"type": "node", "id": 9057207787, "lat": 53.8648123, "lon": 8.6014226}, {"type": "node", "id": 9057207788, "lat": 53.864837, "lon": 8.6014522}, {"type": "node", "id": 9057207789, "lat": 53.8646859, "lon": 8.6016045}, {"type": "node", "id": 9057207790, "lat": 53.8647775, "lon": 8.601664}, {"type": "node", "id": 9057207791, "lat": 53.8647978, "lon": 8.60175}, {"type": "node", "id": 9057207792, "lat": 53.8647792, "lon": 8.6017276}, {"type": "node", "id": 9057207793, "lat": 53.8647855, "lon": 8.6016449}, {"type": "node", "id": 9057207794, "lat": 53.8647079, "lon": 8.6015517}, {"type": "node", "id": 9057207795, "lat": 53.8648045, "lon": 8.6014412}, {"type": "node", "id": 9057207796, "lat": 53.8648292, "lon": 8.6014708}, {"type": "node", "id": 9057207939, "lat": 53.8593198, "lon": 8.5924253}, {"type": "node", "id": 9057207940, "lat": 53.8593232, "lon": 8.5923632}, {"type": "node", "id": 9057207943, "lat": 53.8599678, "lon": 8.5917273}, {"type": "node", "id": 9057207944, "lat": 53.8599723, "lon": 8.5917151}, {"type": "node", "id": 9057207945, "lat": 53.8599556, "lon": 8.5917145}, {"type": "node", "id": 9057207946, "lat": 53.8599409, "lon": 8.5916972}, {"type": "node", "id": 9057207947, "lat": 53.8600049, "lon": 8.5913717}, {"type": "node", "id": 9057207948, "lat": 53.8599799, "lon": 8.5913461}, {"type": "node", "id": 9057207949, "lat": 53.8599727, "lon": 8.5913692}, {"type": "node", "id": 9057207950, "lat": 53.859777, "lon": 8.5915271}, {"type": "node", "id": 9057207951, "lat": 53.8597705, "lon": 8.5915502}, {"type": "node", "id": 9057207952, "lat": 53.859783, "lon": 8.5915784}, {"type": "node", "id": 9057207953, "lat": 53.8597929, "lon": 8.591538}, {"type": "node", "id": 9057207954, "lat": 53.8598466, "lon": 8.5913775}, {"type": "node", "id": 9057207955, "lat": 53.8598531, "lon": 8.5913551}, {"type": "node", "id": 9067844474, "lat": 53.8848162, "lon": 8.6357374, "tags": {"amenity": "restaurant", "name": "Leuchtfeuer Caf\u00e9 Bistro Bar", "phone": "+49 4721 393442", "toilets:wheelchair": "no", "website": "http://www.leuchtfeuer-cuxhaven.de/", "wheelchair": "yes"}}, {"type": "node", "id": 9173193234, "lat": 53.8823183, "lon": 8.6732138}, {"type": "node", "id": 9173193235, "lat": 53.8822956, "lon": 8.6732081}, {"type": "node", "id": 9173193236, "lat": 53.8824311, "lon": 8.6731943}, {"type": "node", "id": 9173193237, "lat": 53.8824276, "lon": 8.6732335}, {"type": "node", "id": 9173193238, "lat": 53.8824442, "lon": 8.6732377}, {"type": "node", "id": 9173193239, "lat": 53.8824416, "lon": 8.6732665}, {"type": "node", "id": 9173193240, "lat": 53.8824074, "lon": 8.6734337}, {"type": "node", "id": 9173193241, "lat": 53.882409, "lon": 8.6734157}, {"type": "node", "id": 9173193244, "lat": 53.8822459, "lon": 8.6739804}, {"type": "node", "id": 9173193245, "lat": 53.8822619, "lon": 8.6739866}, {"type": "node", "id": 9187998746, "lat": 53.8572988, "lon": 8.5889957}, {"type": "node", "id": 9187998747, "lat": 53.8575327, "lon": 8.5892219}, {"type": "node", "id": 9187998748, "lat": 53.8574812, "lon": 8.5893863}, {"type": "node", "id": 9187998749, "lat": 53.8573564, "lon": 8.5890276}, {"type": "node", "id": 9187998750, "lat": 53.8573754, "lon": 8.5890735}, {"type": "node", "id": 9187998751, "lat": 53.8575065, "lon": 8.5893094}, {"type": "node", "id": 9187998752, "lat": 53.8575174, "lon": 8.5893472}, {"type": "way", "id": 60919159, "nodes": [762608572, 765952137, 762608573, 762608574, 762608575, 762608572], "tags": {"website": "https://www.inselneuwerk.de/kulinarik/raeucherhaus-tuedeluet", "operator": "Nige Hus & Restaurant Zum Anker", "name": "R\u00e4ucherhaus T\u00fcdel\u00fct", "building": "yes", "amenity": "restaurant", "addr:postcode": "27499", "addr:place": "Neuwerk", "addr:country": "DE", "addr:city": "Hamburg"}}, {"type": "way", "id": 62090877, "nodes": [774057818, 774057821, 2432600203, 2432600208, 774057825, 774057828, 415595558, 6797004994, 775293401, 774057835, 774057818], "tags": {"website": "http://www.seeblick-insel-neuwerk.de/frameset_go.html", "addr:city": "Hamburg", "addr:country": "DE", "addr:housenumber": "7", "addr:place": "Neuwerk", "addr:postcode": "27499", "amenity": "restaurant", "building": "yes", "cuisine": "regional", "email": "seeblick98@aol.com", "name": "Haus Seeblick", "phone": "+49 4721 20360", "tourism": "hotel"}}, {"type": "way", "id": 100240309, "nodes": [1158676406, 1158676889, 1158676039, 1158675806, 1158676406], "tags": {"amenity": "restaurant", "building": "yes", "cuisine": "regional", "name": "Nordland Backfisch", "opening_hours": "Su-Th 11:00-14:30; Fr-Sa 11:00-18:30", "phone": "+4949472164210", "website": "https://nordlandbackfischgmbh.eatbu.com/?lang=de"}}, {"type": "way", "id": 100724012, "nodes": [1164400266, 9057207796, 9057207788, 9057207787, 9057207795, 1164399926, 1164400088, 1164400310, 1164400582, 1164399822, 1164400156, 9057207789, 9057207794, 9057207793, 9057207790, 1164400427, 9057207792, 9057207791, 1164399702, 1164399902, 1164400298, 1164400540, 1164400266], "tags": {"addr:city": "Cuxhaven", "addr:country": "DE", "addr:housenumber": "201", "addr:postcode": "27476", "addr:street": "Nordheimstra\u00dfe", "amenity": "restaurant", "building": "yes", "name": "Nordheim-Terrassen"}}, {"type": "way", "id": 129554671, "nodes": [9051685166, 3320264127, 1429153468, 3320264110, 3320264108, 3320264096, 3320264091, 3320264087, 3320264080, 3320264077, 3320264078, 9051834509, 3320264085, 1429153451, 1429153452, 1429153456, 1429153466, 9051685166], "tags": {"addr:city": "Cuxhaven", "addr:country": "DE", "addr:housenumber": "6", "addr:postcode": "27476", "addr:street": "Am Wattenweg", "amenity": "restaurant", "building": "yes", "name": "Hotel Strandperle", "tourism": "hotel", "website": "https://www.strandperle-hotels.de/", "wheelchair": "yes"}}, {"type": "way", "id": 133322363, "nodes": [3528808883, 1467611101, 1467611099, 9057207943, 9057207944, 3309798704, 9057207945, 9057207946, 3309798706, 3528808884, 3528808883], "tags": {"addr:city": "Cuxhaven", "addr:country": "DE", "addr:housenumber": "29", "addr:postcode": "27476", "addr:street": "Am Sahlenburger Strand", "amenity": "restaurant", "building": "yes", "email": "restaurant@stoertebeker-sahlenburg.de", "fax": "+49 4721 394847", "name": "St\u00f6rtebeker", "outdoor_seating": "yes", "payment:cash": "yes", "phone": "+49 4721 29207", "toilets:wheelchair": "no", "website": "https://www.stoertebeker-sahlenburg.de/", "wheelchair": "yes"}}, {"type": "way", "id": 148580432, "nodes": [1616643718, 1616643527, 1616643475, 1616643761, 1616643856, 1616643791, 1616643718], "tags": {"addr:city": "Cuxhaven", "addr:housenumber": "14", "addr:postcode": "27476", "addr:street": "Sixtstra\u00dfe", "amenity": "restaurant", "building": "yes", "cuisine": "regional;seafood", "name": "Spanger Buernstav", "outdoor_seating": "yes", "phone": "+49 4721 28714", "source": "Hi-res aerial imagery (Aerowest)", "takeaway": "no", "website": "http://www.spanger-buernstuv.de/"}}, {"type": "way", "id": 150532095, "nodes": [1634314829, 1634314838, 1634314824, 1634314814, 1634314806, 1634314795, 1634314802, 1634314809, 1634314813, 1634314826, 1634314829], "tags": {"opening_hours": "Tu-Sa 10:00-21:30; Su 11:00-21:30", "name": "Sagres", "addr:city": "Cuxhaven", "addr:country": "DE", "addr:housenumber": "16", "addr:postcode": "27472", "addr:street": "Schillerstra\u00dfe", "amenity": "restaurant", "building": "yes", "cuisine": "portuguese", "description": "Portugiesisches Caf\u00e9 u. Restaurant"}}, {"type": "way", "id": 155205531, "nodes": [1676208784, 1676208783, 1676208781, 1676208782, 1676208784], "tags": {"wheelchair": "limited", "amenity": "restaurant", "building": "yes", "cuisine": "chinese", "name": "Indochina Restaurant Van Vy"}}, {"type": "way", "id": 182208743, "nodes": [1925518882, 1925518879, 1925518864, 1925518872, 1925518882], "tags": {"addr:city": "Cuxhaven", "addr:housenumber": "135", "addr:postcode": "27478", "addr:street": "L\u00fcdingworther Stra\u00dfe", "amenity": "restaurant", "building": "yes", "delivery": "no", "name": "Cafe Schwein / Altes Torhaus", "outdoor_seating": "yes", "smoking": "outside", "website": "https://anno1786.de/"}}, {"type": "way", "id": 232742212, "nodes": [2410696431, 2410696404, 9173193240, 9173193241, 2410696366, 4217062594, 9173193234, 9173193235, 4217062595, 2410696369, 9173193236, 9173193237, 9173193238, 9173193239, 2410696431], "tags": {"addr:city": "Cuxhaven", "addr:country": "DE", "addr:housenumber": "206", "addr:postcode": "27476", "addr:street": "Strichweg", "amenity": "restaurant", "building": "yes", "cuisine": "regional", "name": "Seute Deern"}}, {"type": "way", "id": 232742459, "nodes": [2410696381, 2410696379, 2410696359, 9173193245, 9173193244, 2410696361, 2410696381], "tags": {"addr:city": "Cuxhaven", "addr:country": "DE", "addr:housenumber": "200", "addr:postcode": "27476", "addr:street": "Strichweg", "amenity": "restaurant", "building": "yes", "cuisine": "asian", "name": "Asia-Bistro Bambus", "phone": "+49 4721 510852"}}, {"type": "way", "id": 232861804, "nodes": [1467611092, 9057207954, 9057207955, 2411744984, 1467611093, 9057207952, 9057207953, 9057207950, 9057207951, 2411744982, 1467611092], "tags": {"addr:city": "Cuxhaven", "addr:country": "DE", "addr:housenumber": "33", "addr:postcode": "27476", "addr:street": "Am Sahlenburger Strand", "amenity": "restaurant", "building": "yes", "cuisine": "italian", "name": "Il Giardino", "outdoor_seating": "yes", "payment:cash": "yes", "toilets:wheelchair": "no", "wheelchair": "no"}}, {"type": "way", "id": 232861833, "nodes": [2411744981, 2411744980, 2411744979, 2411744976, 1467611076, 2411744981], "tags": {"amenity": "restaurant", "building": "yes", "cuisine": "pizza", "name": "Pizzeria Italia", "outdoor_seating": "yes", "payment:cash": "yes", "payment:credit_cards": "no", "payment:debit_cards": "no", "payment:electronic_purses": "no", "payment:girocard": "no", "takeaway": "yes", "wheelchair": "yes"}}, {"type": "way", "id": 232955936, "nodes": [2430581245, 2430581244, 2430581249, 2430581250, 2412779359, 2412779360, 2430581252, 2430581253, 2430581247, 2430581246, 2412779268, 2412779267, 2412779275, 2412779276, 2430581245], "tags": {"addr:city": "Cuxhaven", "addr:country": "DE", "addr:housenumber": "116", "addr:postcode": "27476", "addr:street": "Nordheimstra\u00dfe", "amenity": "restaurant", "building": "house", "cuisine": "german", "email": "info@zum-surgrund.de", "fax": "+49 4721 6980569", "internet_access": "yes", "name": "Zum Surgrund", "phone": "+49 4721 6638350", "tourism": "hotel", "website": "www.zum-surgrund.de"}}, {"type": "way", "id": 346053451, "nodes": [2411744979, 3526648773, 9057207940, 9057207939, 3526648774, 3526648772, 2411744976, 2411744979], "tags": {"addr:city": "Cuxhaven", "addr:housenumber": "7", "addr:postcode": "27476", "addr:street": "Wernerwaldstra\u00dfe", "amenity": "restaurant", "building": "yes", "cuisine": "regional", "name": "Strandl\u00f6per", "outdoor_seating": "yes", "payment:cash": "yes", "phone": "+49 4721 29651", "website": "https://www.strandloeper-cuxhaven.de", "wheelchair": "limited"}}, {"type": "way", "id": 532910803, "nodes": [5167593937, 5170973361, 5170973362, 5164862293, 5167593937], "tags": {"amenity": "restaurant", "building": "terrace", "opening_hours": "Mo-Fr 09:00-17:00", "outdoor_seating": "yes", "takeaway": "no"}}, {"type": "way", "id": 815197835, "nodes": [9187998746, 9187998749, 9187998750, 9187998747, 9187998751, 9187998752, 9187998748, 7614665334, 9187998746], "tags": {"website": "https://kliff-restaurant.de", "addr:city": "Cuxhaven", "addr:housenumber": "4", "addr:postcode": "27476", "addr:street": "Wernerwaldstra\u00dfe", "amenity": "restaurant", "bar": "yes", "building": "yes", "cuisine": "burger;regional;steak_house;seafood;coffee_shop", "email": "info@kliff-restaurant.de", "name": "Kliff", "opening_hours": "Tu-Su 12:00-22:00", "opening_hours:covid19": "same", "outdoor_seating": "yes", "phone": "+49 4721 6651387", "reservation": "recommended"}}, {"type": "way", "id": 978224890, "nodes": [1429153466, 1429153455, 1429153471, 4321226433, 1429153478, 1429153472, 9051685166, 1429153466], "tags": {"wheelchair": "yes", "website": "https://www.strandperle-hotels.de/", "addr:city": "Cuxhaven", "addr:country": "DE", "addr:housenumber": "15", "addr:postcode": "27476", "addr:street": "Duhner Strandstra\u00dfe", "amenity": "restaurant", "building": "yes", "name": "Hotel Strandperle", "source": "bing", "tourism": "hotel"}}, {"type": "way", "id": 978852756, "nodes": [3528808884, 3528808882, 1467611093, 2411744984, 3528808885, 9057207949, 9057207948, 9057207947, 3528808883, 3528808884], "tags": {"addr:city": "Cuxhaven", "addr:country": "DE", "addr:housenumber": "31", "addr:postcode": "27476", "addr:street": "Am Sahlenburger Strand", "amenity": "restaurant", "building": "yes", "email": "restaurant@stoertebeker-sahlenburg.de", "fax": "+49 4721 394847", "name": "St\u00f6rtebeker", "outdoor_seating": "yes", "payment:cash": "yes", "phone": "+49 4721 29207", "toilets:wheelchair": "no", "website": "https://www.stoertebeker-sahlenburg.de/", "wheelchair": "yes"}}]}