{"version": 0.6, "generator": "Overpass API 0.7.59 e21c39fe", "osm3s": {"timestamp_osm_base": "2022-11-28T20:58:09Z", "copyright": "The data included in this document is from www.openstreetmap.org. The data is made available under ODbL."}, "elements": [{"type": "node", "id": 429603264, "lat": 53.6847699, "lon": 9.1652705, "tags": {"entrance": "yes", "wheelchair": "no"}}, {"type": "node", "id": 430831462, "lat": 53.5418406, "lon": 9.5439968, "tags": {"amenity": "restaurant", "cuisine": "italian;pizza", "name": "Pizzaria Maxi"}}, {"type": "node", "id": 603229090, "lat": 53.5985565, "lon": 9.3968537, "tags": {"amenity": "restaurant"}}, {"type": "node", "id": 619263933, "lat": 53.6875734, "lon": 9.1711582, "tags": {"addr:housenumber": "107", "addr:street": "Stader Stra\u00dfe", "amenity": "restaurant", "delivery": "yes", "name": "Pommes Piraten", "opening_hours": "Mo-Su 11:00-21:00", "outdoor_seating": "yes", "smoking": "outside"}}, {"type": "node", "id": 619263936, "lat": 53.6856125, "lon": 9.1697701, "tags": {"amenity": "restaurant", "cuisine": "italian", "name": "La Strada", "wheelchair": "limited"}}, {"type": "node", "id": 619263951, "lat": 53.6867347, "lon": 9.1734971, "tags": {"amenity": "restaurant", "cuisine": "italian", "name": "Roma", "wheelchair": "limited"}}, {"type": "node", "id": 703720911, "lat": 53.6385158, "lon": 9.2298185, "tags": {"addr:city": "Hechthausen", "addr:housenumber": "40", "addr:postcode": "21755", "addr:street": "Bahnhofstra\u00dfe", "amenity": "restaurant", "name": "Golsch", "wheelchair": "limited"}}, {"type": "node", "id": 703724414, "lat": 53.6401984, "lon": 9.2414405, "tags": {"addr:housenumber": "5", "addr:postcode": "21755", "addr:street": "Marktplatz", "amenity": "restaurant", "cuisine": "asian;chinese;japanese;sushi", "name": "Ostekrone Asia Ying Bin", "opening_hours": "Tu-Sa 11:30-15:00, 17:30-23:00; Su 11:30-23:00", "phone": "+49 4774 3608181", "website": "http://www.ostekrone-asia-ying-bin.de/"}}, {"type": "node", "id": 847712934, "lat": 53.6129543, "lon": 9.310119, "tags": {"amenity": "restaurant", "cuisine": "greek", "name": "Taverna Rhodos", "opening_hours": "Tu-Su", "wheelchair": "no"}}, {"type": "node", "id": 889226483, "lat": 53.6857415, "lon": 9.1715841, "tags": {"amenity": "restaurant", "cuisine": "greek", "name": "El Greco", "wheelchair": "limited"}}, {"type": "node", "id": 988981333, "lat": 53.6034645, "lon": 9.5599339, "tags": {"addr:city": "Hollern-Twielenfleth", "addr:housenumber": "43", "addr:postcode": "21723", "addr:street": "Am Deich", "amenity": "restaurant", "contact:email": "info@faehrhaus-twielenfleth.de", "contact:fax": "+49 4141 792526", "contact:phone": "+49 4141 792525", "contact:website": "http://www.faehrhaus-twielenfleth.de", "cuisine": "regional;seafood", "indoor_seating": "yes", "name": "F\u00e4hrhaus Twielenfleth", "opening_hours": "Apr-Sep: Mo-Su 11:30-21:00; Oct-Mar: Tu,Su 11:30-20:00", "operator": "Alush Ahmeti", "outdoor_seating": "yes", "phone": "+49 4141 792525", "toilets:wheelchair": "yes", "website": "https://www.faehrhaus-twielenfleth.de/restaurant-cafe-altes-land", "wheelchair": "yes"}}, {"type": "node", "id": 1109568271, "lat": 53.709535, "lon": 9.067191, "tags": {"amenity": "restaurant", "name": "Zur Linde", "toilets:wheelchair": "yes", "wheelchair": "yes"}}, {"type": "node", "id": 1293271324, "lat": 53.6296698, "lon": 9.5257993, "tags": {"addr:city": "Stade", "addr:postcode": "21683", "addr:street": "Stader Elbstra\u00dfe", "amenity": "restaurant", "name": "Elbblick Stadersand", "phone": "+49 4141 - 79 46 41", "website": "http://www.elbblick-stadersand.de", "wheelchair": "yes"}}, {"type": "node", "id": 1499642525, "lat": 53.6013882, "lon": 9.4732989, "tags": {"amenity": "restaurant", "contact:email": "info@restaurant-tacos.de", "contact:phone": "+49 4141 690471", "contact:website": "https://www.restaurant-tacos.de/", "cuisine": "mexican", "name": "Taco's", "operator": "Agnieszka Fakih"}}, {"type": "node", "id": 1506441226, "lat": 53.5860987, "lon": 9.4579033, "tags": {"opening_hours": "Tu-Sa 12:00-15:00, 17:00-22:00; Su 16:00-22:00", "addr:housenumber": "115", "addr:postcode": "21680", "addr:street": "Thuner Stra\u00dfe", "amenity": "restaurant", "cuisine": "chinese", "name": "China Bistro", "phone": "+49 4141 777303", "wheelchair": "yes"}}, {"type": "node", "id": 1625466110, "lat": 53.6533703, "lon": 9.4277374}, {"type": "node", "id": 1625466116, "lat": 53.6534125, "lon": 9.4279545}, {"type": "node", "id": 1625466129, "lat": 53.6534545, "lon": 9.4281703}, {"type": "node", "id": 1625466137, "lat": 53.653511, "lon": 9.4276596}, {"type": "node", "id": 1625466174, "lat": 53.6535952, "lon": 9.4280924}, {"type": "node", "id": 1719376926, "lat": 53.6384323, "lon": 9.2964503, "tags": {"addr:city": "Himmelpforten", "addr:country": "DE", "addr:housenumber": "3", "addr:postcode": "21709", "addr:street": "Breitenwisch", "amenity": "restaurant", "name": "Gasthaus Jarck", "opening_hours": "We,Su 17:00-24:00", "operator": "Holger Jarck", "phone": "+49-4144-5421", "sport": "9pin", "website": "https://www.gasthaus-jarck.de/"}}, {"type": "node", "id": 1730620352, "lat": 53.6847522, "lon": 9.165228}, {"type": "node", "id": 1730620376, "lat": 53.6848061, "lon": 9.1653571}, {"type": "node", "id": 1730620378, "lat": 53.6848524, "lon": 9.1651089}, {"type": "node", "id": 1730620381, "lat": 53.6849062, "lon": 9.165238}, {"type": "node", "id": 1746980795, "lat": 53.6021006, "lon": 9.4801083, "tags": {"wheelchair": "yes", "smoking": "no", "contact:phone": "+49 4141 788381", "amenity": "restaurant", "name": "Port"}}, {"type": "node", "id": 1751283924, "lat": 53.5999886, "lon": 9.4716572}, {"type": "node", "id": 1751283926, "lat": 53.600003, "lon": 9.471879}, {"type": "node", "id": 1751283928, "lat": 53.600057, "lon": 9.4717252}, {"type": "node", "id": 1863518718, "lat": 53.6530538, "lon": 9.2035777, "tags": {"amenity": "restaurant", "name": "Zur Linde"}}, {"type": "node", "id": 1944693296, "lat": 53.5939614, "lon": 9.5449061, "tags": {"addr:city": "Hollern-Twielenfleth", "addr:housenumber": "91", "addr:postcode": "21723", "addr:street": "Hollernstra\u00dfe", "amenity": "restaurant", "contact:email": "info@hollerner-hof.de", "contact:phone": "+49 4141 7188", "contact:website": "http://www.hollerner-hof.de", "cuisine": "regional", "name": "Hollerner Hof", "opening_hours": "Mo-Sa 16:00+; Su 11:00+", "opening_hours:kitchen": "Mo-Sa 16:30+; Su 11:30+", "phone": "+49 4141 7188", "website": "http://www.hollerner-hof.de/", "wheelchair": "limited"}}, {"type": "node", "id": 1944699867, "lat": 53.5880933, "lon": 9.5756067, "tags": {"wheelchair": "yes", "outdoor_seating": "yes", "opening_hours": "Mo-Su 11:30-14:00, 17:30-23:00", "email": "stichioss@gmail.com", "phone": "+49 4142 8983757", "website": "https://www.facebook.com/pages/category/Greek-Restaurant/Restaurant-Santorini-zur-Linde--319711668075389/", "addr:city": "Steinkirchen", "addr:housenumber": "90", "addr:postcode": "21720", "addr:street": "Bachenbrock", "amenity": "restaurant", "cuisine": "greek", "name": "Santorini"}}, {"type": "node", "id": 2294439693, "lat": 53.5988677, "lon": 9.4712563, "tags": {"amenity": "restaurant", "name": "Inselrestaurant", "outdoor_seating": "yes", "website": "https://www.insel-stade.de/"}}, {"type": "node", "id": 2324636465, "lat": 53.618357, "lon": 9.3663993, "tags": {"amenity": "restaurant", "cuisine": "german", "name": "Landhaus Hammah", "toilets:wheelchair": "yes", "website": "http://www.landhaus-hammah.de/", "wheelchair": "yes"}}, {"type": "node", "id": 2388150282, "lat": 53.6029961, "lon": 9.4735242}, {"type": "node", "id": 2388150289, "lat": 53.6030324, "lon": 9.4736942}, {"type": "node", "id": 2388150303, "lat": 53.6030725, "lon": 9.4734779}, {"type": "node", "id": 2388150314, "lat": 53.6031088, "lon": 9.4736479}, {"type": "node", "id": 2388317940, "lat": 53.6023381, "lon": 9.4777032}, {"type": "node", "id": 2388317941, "lat": 53.6023426, "lon": 9.4775132}, {"type": "node", "id": 2388317942, "lat": 53.6023471, "lon": 9.4774113}, {"type": "node", "id": 2388317943, "lat": 53.6023539, "lon": 9.477304}, {"type": "node", "id": 2388317944, "lat": 53.6023665, "lon": 9.4772136}, {"type": "node", "id": 2388317945, "lat": 53.602387, "lon": 9.477075}, {"type": "node", "id": 2388317950, "lat": 53.6024194, "lon": 9.4777005}, {"type": "node", "id": 2388317951, "lat": 53.6024372, "lon": 9.4775306}, {"type": "node", "id": 2388317958, "lat": 53.6024942, "lon": 9.4774569}, {"type": "node", "id": 2388317959, "lat": 53.6025014, "lon": 9.4774037}, {"type": "node", "id": 2388317961, "lat": 53.6025084, "lon": 9.4773655}, {"type": "node", "id": 2388317965, "lat": 53.602521, "lon": 9.4772752}, {"type": "node", "id": 2388317971, "lat": 53.6025393, "lon": 9.4774037}, {"type": "node", "id": 2388317972, "lat": 53.6025423, "lon": 9.4771487}, {"type": "node", "id": 2388317973, "lat": 53.6025447, "lon": 9.4774493}, {"type": "node", "id": 2388318052, "lat": 53.603003, "lon": 9.4764942}, {"type": "node", "id": 2388318059, "lat": 53.6030428, "lon": 9.4766259}, {"type": "node", "id": 2388318064, "lat": 53.6030789, "lon": 9.476504}, {"type": "node", "id": 2388318068, "lat": 53.6030933, "lon": 9.4764227}, {"type": "node", "id": 2388318070, "lat": 53.6031004, "lon": 9.4765791}, {"type": "node", "id": 2388318071, "lat": 53.6031095, "lon": 9.4764792}, {"type": "node", "id": 2388318080, "lat": 53.6031477, "lon": 9.4766378}, {"type": "node", "id": 2388318085, "lat": 53.6031871, "lon": 9.4763648}, {"type": "node", "id": 2388318088, "lat": 53.6032025, "lon": 9.4766009}, {"type": "node", "id": 2388318096, "lat": 53.6032723, "lon": 9.4765538}, {"type": "node", "id": 2388318097, "lat": 53.6032591, "lon": 9.4763515}, {"type": "node", "id": 2388318106, "lat": 53.6033257, "lon": 9.4765545}, {"type": "node", "id": 2388318107, "lat": 53.6033292, "lon": 9.4765109}, {"type": "node", "id": 2388318108, "lat": 53.6033398, "lon": 9.4763761}, {"type": "node", "id": 2388318170, "lat": 53.6036121, "lon": 9.4774383}, {"type": "node", "id": 2388318173, "lat": 53.6036181, "lon": 9.4775611}, {"type": "node", "id": 2388318186, "lat": 53.6037489, "lon": 9.4774193}, {"type": "node", "id": 2388318187, "lat": 53.6037549, "lon": 9.4775421}, {"type": "node", "id": 2392592162, "lat": 53.5999019, "lon": 9.4717782}, {"type": "node", "id": 2392592164, "lat": 53.5999388, "lon": 9.4716729}, {"type": "node", "id": 2392592165, "lat": 53.5999717, "lon": 9.4717056}, {"type": "node", "id": 2393753997, "lat": 53.5632045, "lon": 9.5286608, "tags": {"name": "Pokito", "amenity": "restaurant", "website": "https://www.pokito-stade.de/", "source": "note", "phone": "+49 4141 778393", "cuisine": "Thai und Sushi"}}, {"type": "node", "id": 2399423496, "lat": 53.5884292, "lon": 9.4786945, "tags": {"wheelchair": "limited", "amenity": "restaurant", "name": "G\u00fcldenstern-Casino"}}, {"type": "node", "id": 2400167193, "lat": 53.5997171, "lon": 9.4742238}, {"type": "node", "id": 2400167201, "lat": 53.5997351, "lon": 9.4743381}, {"type": "node", "id": 2400167211, "lat": 53.5997847, "lon": 9.4745667}, {"type": "node", "id": 2400167236, "lat": 53.5998596, "lon": 9.4742309}, {"type": "node", "id": 2400167238, "lat": 53.5998643, "lon": 9.4745474}, {"type": "node", "id": 2400167253, "lat": 53.5999547, "lon": 9.4745253}, {"type": "node", "id": 2400167256, "lat": 53.5999617, "lon": 9.4742262}, {"type": "node", "id": 2433408534, "lat": 53.5788666, "lon": 9.4943489, "tags": {"amenity": "restaurant", "name": "alpa bowl", "toilets:wheelchair": "yes", "wheelchair": "yes"}}, {"type": "node", "id": 2614814506, "lat": 53.5971576, "lon": 9.4831239, "tags": {"addr:city": "Stade", "addr:country": "DE", "addr:housenumber": "5", "addr:postcode": "21680", "addr:street": "Am G\u00fcterbahnhof", "amenity": "restaurant", "name": "Postkantine"}}, {"type": "node", "id": 2638605939, "lat": 53.5958705, "lon": 9.5841685}, {"type": "node", "id": 2638605942, "lat": 53.5959219, "lon": 9.584021}, {"type": "node", "id": 2638605943, "lat": 53.5959498, "lon": 9.5842471}, {"type": "node", "id": 2638605949, "lat": 53.5960013, "lon": 9.5840997}, {"type": "node", "id": 2816266616, "lat": 53.6008836, "lon": 9.4767226, "tags": {"amenity": "restaurant", "name": "Apropos"}}, {"type": "node", "id": 2816266647, "lat": 53.6015664, "lon": 9.4760652, "tags": {"toilets:wheelchair": "yes", "wheelchair": "yes", "amenity": "restaurant", "contact:phone": "+49 4141 787278", "contact:website": "https://www.ratskeller-stade.de", "name": "Ratskeller"}}, {"type": "node", "id": 2820071407, "lat": 53.6031794, "lon": 9.4756472, "tags": {"amenity": "restaurant", "name": "Caf\u00e9 & Restaurant am Fischmarkt", "wheelchair": "no"}}, {"type": "node", "id": 2820071426, "lat": 53.6028748, "lon": 9.4758146, "tags": {"wheelchair": "no", "addr:city": "Stade", "addr:housenumber": "7", "addr:postcode": "21682", "addr:street": "Fischmarkt", "amenity": "restaurant", "email": "info@lilas-stade.de", "name": "Lila's"}}, {"type": "node", "id": 2820071430, "lat": 53.6028163, "lon": 9.4758399, "tags": {"amenity": "restaurant", "name": "Mendoza Steak-House", "wheelchair": "yes", "wheelchair:description": "nutzbares WC"}}, {"type": "node", "id": 2820071441, "lat": 53.6003992, "lon": 9.4768259, "tags": {"name": "Castello", "amenity": "restaurant", "cuisine": "italian", "wheelchair": "no"}}, {"type": "node", "id": 2820071442, "lat": 53.6033035, "lon": 9.4756749, "tags": {"amenity": "restaurant", "name": "Ron's Pannekoken-Hus", "wheelchair": "no"}}, {"type": "node", "id": 2820071446, "lat": 53.6034971, "lon": 9.476033, "tags": {"wheelchair": "no", "amenity": "restaurant", "cuisine": "tapas", "name": "Tapao"}}, {"type": "node", "id": 2820249667, "lat": 53.6024614, "lon": 9.4769395, "tags": {"amenity": "restaurant", "name": "Fischhus St\u00f6rtebeker", "toilets:wheelchair": "no", "wheelchair": "limited"}}, {"type": "node", "id": 2820249681, "lat": 53.6023612, "lon": 9.4782026, "tags": {"amenity": "restaurant", "name": "Robby's House"}}, {"type": "node", "id": 2820276329, "lat": 53.6007453, "lon": 9.4771447, "tags": {"addr:city": "Stade", "addr:country": "DE", "addr:housenumber": "2", "addr:postcode": "21682", "addr:street": "Hagedorn", "amenity": "restaurant", "contact:phone": "+49 4141 778892", "contact:website": "https://restaurant-messerschmiede.jimdosite.com", "name": "Messerschmiede", "wheelchair": "limited"}}, {"type": "node", "id": 2870117503, "lat": 53.6946375, "lon": 9.183871}, {"type": "node", "id": 2870117606, "lat": 53.6945731, "lon": 9.1836446}, {"type": "node", "id": 2870117707, "lat": 53.694604, "lon": 9.1834967}, {"type": "node", "id": 2870117708, "lat": 53.6947498, "lon": 9.1838538}, {"type": "node", "id": 2870123602, "lat": 53.6945413, "lon": 9.1836256}, {"type": "node", "id": 2870123603, "lat": 53.6948, "lon": 9.1836137}, {"type": "node", "id": 2870124201, "lat": 53.6945063, "lon": 9.1837927}, {"type": "node", "id": 2870124202, "lat": 53.6946532, "lon": 9.1837961}, {"type": "node", "id": 3269519110, "lat": 53.59912, "lon": 9.4442485, "tags": {"addr:city": "Stade", "addr:country": "DE", "addr:housenumber": "102", "addr:postcode": "21682", "addr:street": "Bremerv\u00f6rder Stra\u00dfe", "amenity": "restaurant", "cuisine": "greek", "name": "Restaurant Zorbas", "opening_hours": "Mo-Su 11:30-14:30,17:30-23:30", "operator": "Georgios Tympas;Christos Zampos", "phone": "+49-4141-81846", "website": "http://www.zorbas-stade.de/", "wheelchair": "limited"}}, {"type": "node", "id": 3270173761, "lat": 53.5964598, "lon": 9.4386103, "tags": {"amenity": "restaurant", "cuisine": "mexican", "name": "Casa Mexicana", "toilets:wheelchair": "no", "wheelchair": "limited"}}, {"type": "node", "id": 3403875374, "lat": 53.5945476, "lon": 9.3828169, "tags": {"amenity": "restaurant", "contact:website": "http://www.landhotel-grefenmoor.de/2.html", "cuisine": "regional", "name": "M\u00fchlenschenke", "toilets:wheelchair": "yes", "wheelchair": "yes"}}, {"type": "node", "id": 3436964393, "lat": 53.6022757, "lon": 9.4800395, "tags": {"amenity": "restaurant", "name": "Pier 1", "wheelchair": "limited"}}, {"type": "node", "id": 3436972894, "lat": 53.6017568, "lon": 9.478202, "tags": {"addr:city": "Stade", "addr:housenumber": "6", "addr:postcode": "21682", "addr:street": "Hansestra\u00dfe", "amenity": "restaurant", "name": "K\u00d6Z Restaurant - Holzkohlegrill", "wheelchair": "limited"}}, {"type": "node", "id": 3437048894, "lat": 53.5987201, "lon": 9.4759377, "tags": {"addr:city": "Stade", "addr:housenumber": "10", "addr:postcode": "21682", "addr:street": "Am Sande", "amenity": "restaurant", "name": "Beirut", "wheelchair": "no"}}, {"type": "node", "id": 3495634504, "lat": 53.6150725, "lon": 9.4712057, "tags": {"addr:city": "Stade", "addr:country": "DE", "addr:housenumber": "63", "addr:postcode": "21682", "addr:street": "Sch\u00f6lischer Stra\u00dfe", "amenity": "restaurant", "name": "Vier Linden Kiek In"}}, {"type": "node", "id": 3542408068, "lat": 53.6945491, "lon": 9.1904832}, {"type": "node", "id": 3542408080, "lat": 53.6945871, "lon": 9.1905392}, {"type": "node", "id": 3542408090, "lat": 53.6946317, "lon": 9.1903231}, {"type": "node", "id": 3542408092, "lat": 53.6946385, "lon": 9.1903331}, {"type": "node", "id": 3542408099, "lat": 53.6946662, "lon": 9.1903737}, {"type": "node", "id": 3542408101, "lat": 53.6946698, "lon": 9.190379}, {"type": "node", "id": 3542408132, "lat": 53.6947641, "lon": 9.1899283}, {"type": "node", "id": 3542408146, "lat": 53.6948088, "lon": 9.1900055}, {"type": "node", "id": 3542408155, "lat": 53.6948345, "lon": 9.1900498}, {"type": "node", "id": 3542408158, "lat": 53.6948672, "lon": 9.1901064}, {"type": "node", "id": 3542408162, "lat": 53.6948927, "lon": 9.1897158}, {"type": "node", "id": 3542408181, "lat": 53.6949958, "lon": 9.1898939}, {"type": "node", "id": 3574609993, "lat": 53.5604494, "lon": 9.5315179, "tags": {"amenity": "restaurant", "name": "Bratwurst-Grill"}}, {"type": "node", "id": 3647734010, "lat": 53.694902, "lon": 9.1897318, "tags": {"entrance": "staircase"}}, {"type": "node", "id": 3718650607, "lat": 53.601378, "lon": 9.4736438, "tags": {"amenity": "restaurant", "cuisine": "asian", "name": "Mister Vu", "opening_hours": "Tu-Su 11:30-15:00,17:30-23:00; Mo off"}}, {"type": "node", "id": 3774635434, "lat": 53.5991079, "lon": 9.4776738, "tags": {"amenity": "restaurant", "cuisine": "international", "name": "Sofra Grill"}}, {"type": "node", "id": 3926158187, "lat": 53.6041784, "lon": 9.470825, "tags": {"amenity": "restaurant", "name": "Stadissimo"}}, {"type": "node", "id": 4017110589, "lat": 53.6820782, "lon": 9.1545242, "tags": {"amenity": "restaurant", "name": "Kantine/Restaurant \"Old Fiede\""}}, {"type": "node", "id": 4298533815, "lat": 53.5823225, "lon": 9.5014848, "tags": {"addr:city": "Stade", "addr:country": "DE", "addr:housenumber": "193", "addr:postcode": "21680", "addr:street": "Harburger Stra\u00dfe", "amenity": "restaurant", "cuisine": "italian", "email": "info@da-bujo.de", "name": "da bujo", "opening_hours": "Tu-Fr 10:00-23:00; Sa 16:00-23:00; Su 12:00-23:00", "operator": "Bujar Merdanaj", "phone": "+49 4141 788898", "website": "https://da-bujo.de/"}}, {"type": "node", "id": 4450753331, "lat": 53.6118595, "lon": 9.4821808, "tags": {"addr:housenumber": "90", "addr:street": "Freiburger Stra\u00dfe", "amenity": "restaurant", "cuisine": "pizza", "name": "Valentino Pizzabar", "phone": "+49 4141 77 63 177", "website": "https://www.pizzabarvalentino.de/"}}, {"type": "node", "id": 4891822097, "lat": 53.6154578, "lon": 9.3018767, "tags": {"amenity": "restaurant", "contact:email": "restaurant@wehbersmuehle.de", "contact:phone": "+49 4144 234804", "contact:website": "http://www.wehbersmuehle.de/restaurant/", "cuisine": "regional", "name": "Restaurant im M\u00fchlenturm", "opening_hours": "Mo-Tu 09:00-18:00; We-Su 09:00-20:30+", "wheelchair": "yes"}}, {"type": "node", "id": 4930618535, "lat": 53.7051943, "lon": 9.3819502, "tags": {"addr:housenumber": "14", "addr:postcode": "21706", "addr:street": "Am Sportplatz", "amenity": "restaurant", "cuisine": "regional", "name": "M\u00f6llers Bistrorante", "outdoor_seating": "yes", "toilets:wheelchair": "yes", "wheelchair": "limited"}}, {"type": "node", "id": 4930629221, "lat": 53.7083442, "lon": 9.3887952, "tags": {"addr:housenumber": "4", "addr:street": "Drochterser Stra\u00dfe", "amenity": "restaurant", "cuisine": "italian", "name": "I Monelli", "wheelchair": "limited"}}, {"type": "node", "id": 5077551357, "lat": 53.5944231, "lon": 9.5677762, "tags": {"wheelchair": "limited", "addr:street": "Feriendorf Altes Land", "addr:city": "Hollern-Twielenfleth", "addr:country": "DE", "addr:housenumber": "15", "addr:postcode": "21723", "amenity": "restaurant", "contact:email": "restaurant@auszeit-altesland.de", "contact:fax": "+49 4141 400 444", "contact:phone": "+49 4141 809 3720", "contact:website": "https://www.auszeit-altesland.de", "cuisine": "german", "indoor_seating": "yes", "internet_access": "yes", "name": "Cafe & Restaurant Auszeit", "opening_hours": "Tu-Fr 14:30-22:00; Sa 11:30-22:00; Su 11:30-21:00", "opening_hours:kitchen": "Tu-Fr 14:30-21:00; Sa 11:30-21:00; Su 11:30-20:30", "operator": "Monika Mans & Detlef Corleis", "outdoor_seating": "yes", "phone": "+49 4141 8093720", "website": "https://www.auszeit-altesland.de/"}}, {"type": "node", "id": 5621463036, "lat": 53.6025512, "lon": 9.4798789, "tags": {"amenity": "restaurant", "name": "Restaurant im H+ Hotel Stade", "phone": "+49 4141 9997-0"}}, {"type": "node", "id": 5648473808, "lat": 53.6132159, "lon": 9.4974393, "tags": {"amenity": "restaurant", "name": "Zur Symphonie"}}, {"type": "node", "id": 5650404080, "lat": 53.602482, "lon": 9.4818878, "tags": {"amenity": "restaurant", "name": "Scheune"}}, {"type": "node", "id": 6180336067, "lat": 53.6025875, "lon": 9.4765516, "tags": {"amenity": "restaurant", "name": "Rammbock"}}, {"type": "node", "id": 6273715806, "lat": 53.6003475, "lon": 9.4768262, "tags": {"amenity": "restaurant", "cuisine": "chinese", "name": "din hau"}}, {"type": "node", "id": 6943520481, "lat": 53.6018326, "lon": 9.4754411, "tags": {"wheelchair": "yes", "addr:city": "Stade", "addr:country": "DE", "addr:housenumber": "21", "addr:postcode": "21682", "addr:street": "H\u00f6kerstra\u00dfe", "amenity": "restaurant", "contact:phone": "+49 4141 46230", "contact:website": "https://www.dionysos-stade.de/", "cuisine": "greek", "name": "Dionysos", "outdoor_seating": "yes", "smoking": "outside", "takeaway": "yes"}}, {"type": "node", "id": 6952518584, "lat": 53.5807354, "lon": 9.4210191, "tags": {"addr:city": "Stade", "addr:country": "DE", "addr:housenumber": "1", "addr:postcode": "21684", "addr:street": "Loger Weide", "addr:suburb": "Wiepenkathen", "amenity": "restaurant", "beds": "13", "email": "info@hotelopdedeel.de", "fax": "+49 4141 900257", "name": "Op De Deel", "opening_hours": "We-Sa 17:00-21:00; Su 11:30-13:30, 17:00-21:00", "operator": "Nicole Sch\u00f6ssow", "outdoor_seating": "yes", "phone": "+49 4141 81777", "rooms": "7", "tourism": "hotel", "website": "https://hotelopdedeel.de/"}}, {"type": "node", "id": 7193545929, "lat": 53.5808673, "lon": 9.4968815, "tags": {"website": "https://www.snack-am-eck.de/", "addr:city": "Stade", "addr:housenumber": "7", "addr:postcode": "21684", "addr:street": "Carl-Benz-Stra\u00dfe", "amenity": "restaurant", "cuisine": "regional", "name": "Snack am Eck", "phone": "+49 4141 660723"}}, {"type": "way", "id": 149590398, "nodes": [1625466137, 1625466174, 1625466129, 1625466116, 1625466110, 1625466137], "tags": {"addr:city": "Stade", "addr:country": "DE", "addr:housenumber": "129", "addr:postcode": "21683", "addr:street": "Moorchaussee", "addr:suburb": "B\u00fctzfleth", "amenity": "restaurant", "building": "commercial", "cuisine": "international", "email": "info@hartlefs-gasthof.de", "fax": "+49 4146 6169", "name": "Hartlef's Gasthof", "phone": "+49 4146 235", "website": "https://www.hartlefs-gasthof.de/"}}, {"type": "way", "id": 161060796, "nodes": [1730620378, 1730620381, 1730620376, 429603264, 1730620352, 1730620378], "tags": {"amenity": "restaurant", "building": "yes", "cuisine": "regional", "name": "G\u00fcterschuppen", "outdoor_seating": "yes", "wheelchair": "no"}}, {"type": "way", "id": 230293230, "nodes": [2388150282, 2388150289, 2388150314, 2388150303, 2388150282], "tags": {"addr:city": "Stade", "addr:country": "DE", "addr:housenumber": "30", "addr:postcode": "21682", "addr:street": "Bungenstra\u00dfe", "amenity": "restaurant", "building": "yes", "historic": "building", "name": "Knechthausen", "website": "www.knechthausen-stade.de"}}, {"type": "way", "id": 230311273, "nodes": [2388317945, 2388317944, 2388317965, 2388317972, 2388317945], "tags": {"addr:city": "Stade", "addr:country": "DE", "addr:housenumber": "17", "addr:postcode": "21682", "addr:street": "Salzstra\u00dfe", "amenity": "restaurant", "building": "yes", "building:levels": "3", "name": "Blanker Hans", "phone": "+49 4141 951987", "website": "http://www.blankerhansstade.de/"}}, {"type": "way", "id": 230311277, "nodes": [2388317965, 2388317961, 2388317943, 2388317944, 2388317965], "tags": {"addr:city": "Stade", "addr:country": "DE", "addr:housenumber": "19", "addr:postcode": "21682", "addr:street": "Salzstra\u00dfe", "amenity": "restaurant", "building": "yes", "building:levels": "3", "cuisine": "greek", "name": "Restaurant Syrtaki | Griechische Spezialit\u00e4ten", "phone": "+49 4141 47634", "website": "https://www.syrtaki-stade.de/"}}, {"type": "way", "id": 230311285, "nodes": [2388317943, 2388317942, 2388317958, 2388317973, 2388317971, 2388317959, 2388317961, 2388317943], "tags": {"addr:city": "Stade", "addr:country": "DE", "addr:housenumber": "21", "addr:postcode": "21682", "addr:street": "Salzstra\u00dfe", "amenity": "restaurant", "building": "yes", "building:levels": "2", "cuisine": "italian", "name": "La Via del Sale", "phone": "+49 4141 777545"}}, {"type": "way", "id": 230311288, "nodes": [2388318186, 2388318187, 2388318173, 2388318170, 2388318186], "tags": {"addr:city": "Stade", "addr:country": "DE", "addr:housenumber": "24", "addr:postcode": "21682", "addr:street": "Wasser Ost", "amenity": "restaurant", "building": "yes", "cuisine": "german", "name": "Oln Hoovn", "wheelchair": "no"}}, {"type": "way", "id": 230311289, "nodes": [2388317941, 2388317940, 2388317950, 2388317951, 2388317941], "tags": {"website": "https://www.barbarossa-stade.de/", "addr:city": "Stade", "addr:country": "DE", "addr:housenumber": "25", "addr:postcode": "21682", "addr:street": "Salzstra\u00dfe", "amenity": "restaurant", "building": "yes", "name": "Barbarossa", "opening_hours": "Mo-Sa 18:00-22:00", "phone": "+49 4141 2884"}}, {"type": "way", "id": 230311305, "nodes": [2388318097, 2388318108, 2388318107, 2388318106, 2388318096, 2388318097], "tags": {"addr:city": "Stade", "addr:country": "DE", "addr:housenumber": "4", "addr:postcode": "21682", "addr:street": "Wasser Ost", "amenity": "restaurant", "building": "yes", "cuisine": "asian", "name": "Thai+Sushi", "wheelchair": "limited"}}, {"type": "way", "id": 230311314, "nodes": [2388318052, 2388318068, 2388318071, 2388318064, 2388318070, 2388318059, 2388318052], "tags": {"addr:city": "Stade", "addr:country": "DE", "addr:housenumber": "6", "addr:postcode": "21682", "addr:street": "Fischmarkt", "amenity": "restaurant", "building": "yes", "name": "Amadys", "wheelchair": "no"}}, {"type": "way", "id": 230311325, "nodes": [2388318068, 2388318085, 2388318088, 2388318080, 2388318071, 2388318068], "tags": {"addr:city": "Stade", "addr:country": "DE", "addr:housenumber": "8", "addr:postcode": "21682", "addr:street": "Fischmarkt", "amenity": "restaurant", "building": "yes", "cuisine": "fish", "name": "Fresh-House", "wheelchair": "no"}}, {"type": "way", "id": 230814726, "nodes": [2392592165, 1751283924, 1751283928, 1751283926, 2392592162, 2392592164, 2392592165], "tags": {"opening_hours": "Tu-Sa 12:00-14:30, 18:00-23:00", "addr:city": "Stade", "addr:country": "DE", "addr:housename": "Im Bootshaus", "addr:housenumber": "11", "addr:postcode": "21682", "addr:street": "Neubourgstra\u00dfe", "amenity": "restaurant", "building": "retail", "contact:phone": "+49 4141 778992", "contact:website": "https://www.al-porto.de", "cuisine": "italian", "name": "Al Porto", "outdoor_seating": "yes", "source": "bing"}}, {"type": "way", "id": 231675670, "nodes": [2400167253, 2400167238, 2400167211, 2400167201, 2400167193, 2400167236, 2400167256, 2400167253], "tags": {"addr:city": "Stade", "addr:country": "DE", "addr:housenumber": "7-9", "addr:postcode": "21682", "addr:street": "Pferdemarkt", "amenity": "restaurant", "building": "yes", "cuisine": "asian", "name": "Vinu", "opening_hours": "Mo-Sa 11:30-14:00; Mo-Sa 18:00-21:30; Su 12:00-21:30", "website": "https://boltes-stade.de/"}}, {"type": "way", "id": 258516557, "nodes": [2638605942, 2638605949, 2638605943, 2638605939, 2638605942], "tags": {"website": "https://www.luehesand.de/gasthaus/", "amenity": "restaurant", "building": "yes", "cuisine": "german", "name": "L\u00fchesander Inselgasthaus", "opening_hours": "Tu,Th 12:00-16:00,18:00-22:00; Fr 12:00-16:00,18:00-24:00; Sa 12:00-24:00; Su 12:15-22:00", "operator": "Fam. Gosch", "outdoor_seating": "yes", "wheelchair": "no"}}, {"type": "way", "id": 283102172, "nodes": [2870123603, 2870117708, 2870124202, 2870117503, 2870124201, 2870123602, 2870117606, 2870117707, 2870123603], "tags": {"wheelchair": "no", "addr:city": "Osten", "addr:housenumber": "1", "addr:postcode": "21756", "addr:street": "Deichstra\u00dfe", "amenity": "restaurant", "bett_and_bike:ref": "NDS-2009", "building": "yes", "cuisine": "regional", "email": "info@faehrkrug.de", "name": "F\u00e4hrkrug", "phone": "+49 4771 2338", "tourism": "hotel", "website": "http://www.faehrkrug.de/"}}, {"type": "way", "id": 348016033, "nodes": [3542408090, 3542408092, 3542408146, 3542408132, 3542408162, 3647734010, 3542408181, 3542408158, 3542408155, 3542408099, 3542408101, 3542408080, 3542408068, 3542408090], "tags": {"addr:housenumber": "22", "addr:street": "Lange Stra\u00dfe", "amenity": "restaurant", "building": "yes", "capacity": "60", "cuisine": "regional", "delivery": "no", "name": "Altes Amtsgericht", "opening_hours": "We-Sa 18:00+; Su,PH 12:00-15:00,18:00+", "smoking": "outside", "takeaway": "yes", "wheelchair": "no"}}]}