{"version": 0.6, "generator": "Overpass API 0.7.59 e21c39fe", "osm3s": {"timestamp_osm_base": "2022-11-28T21:06:24Z", "copyright": "The data included in this document is from www.openstreetmap.org. The data is made available under ODbL."}, "elements": [{"type": "node", "id": 287798696, "lat": 53.7264527, "lon": 9.489517}, {"type": "node", "id": 318693980, "lat": 53.8361913, "lon": 9.4898642, "tags": {"amenity": "restaurant", "name": "Der Grieche im Ratskeller"}}, {"type": "node", "id": 336072792, "lat": 53.8144894, "lon": 8.9018438, "tags": {"addr:city": "Otterndorf", "addr:country": "DE", "addr:housenumber": "48a", "addr:postcode": "21762", "addr:street": "Schleusenstra\u00dfe", "amenity": "restaurant", "cuisine": "greek", "name": "Rhodos", "opening_hours": "Mo-Su 11:30-14:30, 17:30-23:30", "phone": "+49 4751 909596", "wheelchair": "yes"}}, {"type": "node", "id": 336072799, "lat": 53.8069728, "lon": 8.8910266, "tags": {"addr:city": "Otterndorf", "addr:country": "DE", "addr:housenumber": "32a-34", "addr:postcode": "21762", "addr:street": "Cuxhavener Stra\u00dfe", "amenity": "restaurant", "name": "Hotel zur Post", "opening_hours": "Mo-Su 10:00-22:00", "phone": "+49 4751 911000", "tourism": "hotel", "wheelchair": "limited"}}, {"type": "node", "id": 336424927, "lat": 53.8208431, "lon": 9.4469441}, {"type": "node", "id": 339380780, "lat": 53.8270572, "lon": 8.881684, "tags": {"addr:city": "Otterndorf", "addr:country": "DE", "addr:housenumber": "17", "addr:postcode": "21762", "addr:street": "Deichstra\u00dfe", "amenity": "restaurant", "name": "Deichkieker", "phone": "+49 4751 9998344", "wheelchair": "limited"}}, {"type": "node", "id": 339399420, "lat": 53.8272167, "lon": 9.4285365}, {"type": "node", "id": 339399434, "lat": 53.8249967, "lon": 9.4104465}, {"type": "node", "id": 339863810, "lat": 53.8087942, "lon": 8.8935164, "tags": {"addr:city": "Otterndorf", "addr:country": "DE", "addr:postcode": "21762", "addr:street": "Fr\u00f6belweg", "amenity": "restaurant", "cuisine": "italian", "name": "Da Bruno", "opening_hours": "Mo-Su 18:00-22:30", "phone": "+49 4751 3491", "wheelchair": "limited"}}, {"type": "node", "id": 340384983, "lat": 53.808115, "lon": 8.8988639, "tags": {"addr:city": "Otterndorf", "addr:country": "DE", "addr:housenumber": "12", "addr:postcode": "21762", "addr:street": "Am Kirchplatz", "amenity": "restaurant", "cuisine": "german", "name": "Alt-Otterndorf", "opening_hours": "We-Mo 17:00-18:00+", "phone": "+49 4751 3308", "wheelchair": "no"}}, {"type": "node", "id": 340384985, "lat": 53.8076284, "lon": 8.9000973, "tags": {"addr:city": "Otterndorf", "addr:country": "DE", "addr:housenumber": "17", "addr:postcode": "21762", "addr:street": "Reichenstra\u00dfe", "amenity": "restaurant", "cuisine": "italian; spanish", "name": "Ostaria Toscana", "opening_hours": "Mo-Su 12:00-14:00,17:00-22:00", "phone": "+49 4751 999355", "wheelchair": "yes"}}, {"type": "node", "id": 340384986, "lat": 53.8233163, "lon": 8.891578, "tags": {"addr:city": "Otterndorf", "addr:country": "DE", "addr:housenumber": "1", "addr:postcode": "21762", "addr:street": "Deichstra\u00dfe", "amenity": "restaurant", "cuisine": "german", "name": "Gasthaus \"Zum Elbblick\"", "opening_hours": "Mo-Su 10:00-14:00, 17:30-22:00; We off", "phone": "+49 4751 3530", "wheelchair": "limited"}}, {"type": "node", "id": 344238492, "lat": 53.741066, "lon": 9.0154381, "tags": {"amenity": "restaurant", "cuisine": "regional", "name": "Gasthaus Butt", "toilets:wheelchair": "no", "wheelchair": "limited"}}, {"type": "node", "id": 344239380, "lat": 53.7336543, "lon": 9.0348483, "tags": {"addr:city": "Wingst", "addr:housenumber": "59", "addr:postcode": "21789", "addr:street": "Westerhamm", "amenity": "restaurant", "cuisine": "regional", "name": "L\u00fctt Mandus", "phone": "+49 4777 93 44 0", "toilets:wheelchair": "no", "website": "https://www.landgasthaus-wingst.de/", "wheelchair": "yes"}}, {"type": "node", "id": 344396882, "lat": 53.7247914, "lon": 9.5859014}, {"type": "node", "id": 358503919, "lat": 53.8063721, "lon": 8.8952415, "tags": {"addr:city": "Otterndorf", "addr:country": "DE", "addr:housenumber": "12", "addr:postcode": "21762", "addr:street": "Bahnhofstra\u00dfe", "amenity": "restaurant", "cuisine": "german", "name": "Grill-Restaurant Kindler", "opening_hours": "Mo-Fr 07:30-16:00; Sa 07:30-14:00", "phone": "+49 4751 2525", "wheelchair": "limited"}}, {"type": "node", "id": 371187611, "lat": 53.7377902, "lon": 9.5630407}, {"type": "node", "id": 384602547, "lat": 53.8061848, "lon": 9.4177547}, {"type": "node", "id": 388028017, "lat": 53.8076105, "lon": 9.4548688}, {"type": "node", "id": 409467668, "lat": 53.7876651, "lon": 9.4240788, "tags": {"name": "LOGGER-komb\u00fcse", "amenity": "restaurant", "contact:email": "ahoi@logger-kombuese.de", "contact:phone": "+49 4124 9806404", "contact:website": "https://www.logger-kombuese.de/", "opening_hours": "Mo 17:00-22:00; Tu-Su 11:30-22:00", "wheelchair": "limited"}}, {"type": "node", "id": 409467669, "lat": 53.788236, "lon": 9.4233891, "tags": {"addr:city": "Gl\u00fcckstadt", "addr:country": "DE", "addr:housenumber": "2", "addr:postcode": "25348", "addr:street": "Am Markt", "amenity": "restaurant", "cuisine": "regional", "name": "Der kleine Heinrich", "opening_hours": "Mo-Su 11:30-22:00", "outdoor_seating": "sidewalk", "phone": "+49 4124 3636", "website": "http://www.der-kleine-heinrich.de/", "wheelchair": "no"}}, {"type": "node", "id": 409467670, "lat": 53.7883168, "lon": 9.423518, "tags": {"name": "Der D\u00e4ne", "wheelchair": "no", "addr:city": "Gl\u00fcckstadt", "addr:country": "DE", "addr:housenumber": "3", "addr:postcode": "25348", "addr:street": "Am Markt", "amenity": "restaurant"}}, {"type": "node", "id": 409467671, "lat": 53.788433, "lon": 9.423822, "tags": {"amenity": "restaurant", "cuisine": "german", "name": "Ratskeller", "opening_hours": "11:30-21:30", "wheelchair": "no"}}, {"type": "node", "id": 410201730, "lat": 53.7885753, "lon": 9.4240335, "tags": {"addr:city": "Gl\u00fcckstadt", "addr:country": "DE", "addr:housenumber": "5-6", "addr:postcode": "25348", "addr:street": "Am Markt", "amenity": "restaurant", "name": "Anno 1617", "toilets:wheelchair": "yes", "website": "https://www.anno1617.de/", "wheelchair": "limited"}}, {"type": "node", "id": 449093313, "lat": 53.7948565, "lon": 9.4320335}, {"type": "node", "id": 454305191, "lat": 53.7863916, "lon": 9.4851388}, {"type": "node", "id": 468040207, "lat": 53.7866556, "lon": 9.4248505, "tags": {"name": "Villa Lucia", "addr:city": "Gl\u00fcckstadt", "addr:country": "DE", "addr:housenumber": "4", "addr:postcode": "25348", "addr:street": "Am Fleth", "amenity": "restaurant"}}, {"type": "node", "id": 468040238, "lat": 53.7872776, "lon": 9.4238701, "tags": {"name": "El Greco", "addr:city": "Gl\u00fcckstadt", "addr:country": "DE", "addr:housenumber": "13", "addr:postcode": "25348", "addr:street": "Am Fleth", "amenity": "restaurant", "cuisine": "greek"}}, {"type": "node", "id": 470240125, "lat": 53.8111683, "lon": 8.898448, "tags": {"addr:city": "Otterndorf", "addr:country": "DE", "addr:housenumber": "12", "addr:postcode": "21762", "addr:street": "Goethestra\u00dfe", "amenity": "restaurant", "name": "Nemo", "opening_hours": "Mo 14:00-19:00; Tu 11:00-22:00; We-Th 11:00-20:00; Fr 11:00-22:00; Sa 10:00-22:00; Su 09:00-19:30", "phone": "+49 4751 4792", "wheelchair": "yes"}}, {"type": "node", "id": 470630405, "lat": 53.7723719, "lon": 8.9163532, "tags": {"addr:city": "Neuenkirchen", "addr:country": "DE", "addr:housenumber": "9", "addr:postcode": "21763", "addr:street": "Pedingworth", "addr:suburb": "Pedingworth", "amenity": "restaurant", "cuisine": "regional", "name": "Landgasthaus M\u00fcller", "phone": "+49 4751 911241", "tourism": "guest_house", "wheelchair": "limited"}}, {"type": "node", "id": 558566626, "lat": 53.8076387, "lon": 8.9037865, "tags": {"addr:city": "Otterndorf", "addr:country": "DE", "addr:housenumber": "25", "addr:postcode": "21762", "addr:street": "Marktstra\u00dfe", "amenity": "restaurant", "name": "Dubrovnik", "opening_hours": "We-Mo 17:00-21:00", "phone": "+49 4751 4884", "wheelchair": "limited"}}, {"type": "node", "id": 558566630, "lat": 53.81042, "lon": 8.896289, "tags": {"addr:city": "Otterndorf", "addr:country": "DE", "addr:housenumber": "15", "addr:postcode": "21762", "addr:street": "Goethestra\u00dfe", "amenity": "restaurant", "cuisine": "regional", "name": "Leuchtfeuer", "opening_hours": "Mo-Su 12:00-24:00", "phone": "+49 4751 999930", "wheelchair": "yes"}}, {"type": "node", "id": 568343677, "lat": 53.7883149, "lon": 9.4220929, "tags": {"amenity": "restaurant", "cuisine": "asian", "name": "Asia Palast", "opening_hours": "Tu-Su 11:30-14:30,17:30-21:30", "wheelchair": "limited"}}, {"type": "node", "id": 607137015, "lat": 53.8021283, "lon": 9.0351871, "tags": {"addr:city": "Neuhaus", "addr:country": "DE", "addr:housenumber": "1", "addr:postcode": "21785", "addr:street": "Sch\u00fctzenstra\u00dfe", "amenity": "restaurant", "cuisine": "german", "name": "Tivoli-Stuben", "opening_hours": "Tu-Su 09:00-24:00; Mo off", "phone": "+49 4752 413"}}, {"type": "node", "id": 609485918, "lat": 53.8176856, "lon": 9.0326931, "tags": {"addr:city": "Neuhaus", "addr:country": "DE", "addr:housenumber": "64", "addr:postcode": "21785", "addr:street": "Seestra\u00dfe", "amenity": "restaurant", "cuisine": "german", "description": "Ge\u00f6ffnet von April-Oktober", "name": "Datscha", "opening_hours": "Mo-Su 11:00-22:00", "phone": "+49 4752 844747", "wheelchair": "limited"}}, {"type": "node", "id": 786957257, "lat": 53.8462726, "lon": 9.4025276, "tags": {"name": "Landgasthof L\u00fcders", "contact:website": "https://www.landgasthof-lueders.de/", "amenity": "restaurant", "addr:street": "Humsterdorf", "addr:postcode": "25599", "addr:city": "Wewelsfleth", "addr:country": "DE", "addr:housenumber": "15"}}, {"type": "node", "id": 805715473, "lat": 53.7855904, "lon": 9.4173293}, {"type": "node", "id": 805715492, "lat": 53.785723, "lon": 9.4173123}, {"type": "node", "id": 805715519, "lat": 53.7857378, "lon": 9.4176424}, {"type": "node", "id": 805715525, "lat": 53.7856051, "lon": 9.4176594}, {"type": "node", "id": 833092622, "lat": 53.7868447, "lon": 9.4480213}, {"type": "node", "id": 833092705, "lat": 53.7870233, "lon": 9.4482802}, {"type": "node", "id": 833093007, "lat": 53.7870216, "lon": 9.4484501}, {"type": "node", "id": 833093086, "lat": 53.7871224, "lon": 9.4484529}, {"type": "node", "id": 833093539, "lat": 53.7871264, "lon": 9.448029}, {"type": "node", "id": 833094126, "lat": 53.7868423, "lon": 9.4482753}, {"type": "node", "id": 903278225, "lat": 53.8154188, "lon": 9.2829823, "tags": {"addr:city": "Freiburg (Elbe)", "addr:housenumber": "42", "addr:postcode": "21729", "addr:street": "Landesbr\u00fccker Stra\u00dfe", "amenity": "restaurant", "cuisine": "german", "name": "Gut Sch\u00f6neworth", "tourism": "hotel", "website": "https://www.gut-schoeneworth.de/Reetdach-hotel/"}}, {"type": "node", "id": 903278274, "lat": 53.8316016, "lon": 9.2028411, "tags": {"opening_hours": "Su 12:00-21:00; Th-Sa 18:00-21:00", "addr:city": "Krummendeich", "addr:housenumber": "97", "addr:postcode": "21732", "addr:street": "Osterwechtern", "amenity": "restaurant", "cuisine": "regional;german;seafood", "delivery": "no", "description": "Regionale K\u00fcche mit w\u00f6chentlich wechselnder Karte. Spezialit\u00e4t: frischer \"Fisch des Tages\".", "email": "luvkrummendeich@aol.com", "fax": "+49 4779 925 9656", "name": "LUV", "outdoor_seating": "yes", "phone": "+49 4779 925 9655", "smoking": "outside", "takeaway": "no", "website": "http://www.luvkrummendeich.de/"}}, {"type": "node", "id": 943956678, "lat": 53.843048, "lon": 9.4054035}, {"type": "node", "id": 943956827, "lat": 53.8431221, "lon": 9.4053138}, {"type": "node", "id": 943956853, "lat": 53.843045, "lon": 9.4054686}, {"type": "node", "id": 943956872, "lat": 53.8429767, "lon": 9.4054594}, {"type": "node", "id": 943956883, "lat": 53.8431175, "lon": 9.4054129}, {"type": "node", "id": 943956907, "lat": 53.8429844, "lon": 9.4052953}, {"type": "node", "id": 944308909, "lat": 53.8455854, "lon": 9.3989884, "tags": {"addr:city": "Wewelsfleth", "addr:country": "DE", "addr:housenumber": "6", "addr:postcode": "25599", "addr:street": "Am Sportplatz", "amenity": "restaurant", "name": "Gastst\u00e4tte in der Mehrzweckhalle", "wheelchair": "yes"}}, {"type": "node", "id": 1128021852, "lat": 53.8637438, "lon": 9.3205709}, {"type": "node", "id": 1128022051, "lat": 53.8638473, "lon": 9.320419}, {"type": "node", "id": 1128022174, "lat": 53.8639319, "lon": 9.3205849}, {"type": "node", "id": 1128022402, "lat": 53.8638285, "lon": 9.3207368}, {"type": "node", "id": 1270947577, "lat": 53.8048314, "lon": 9.2382531, "tags": {"amenity": "restaurant", "name": "Witt's Gasthof zur Post"}}, {"type": "node", "id": 1278637712, "lat": 53.7459852, "lon": 9.300092}, {"type": "node", "id": 1278637718, "lat": 53.7459461, "lon": 9.2999941}, {"type": "node", "id": 1278637729, "lat": 53.7459712, "lon": 9.3002692}, {"type": "node", "id": 1278637732, "lat": 53.7459627, "lon": 9.2997849}, {"type": "node", "id": 1278637736, "lat": 53.7458444, "lon": 9.3002405}, {"type": "node", "id": 1278637746, "lat": 53.7462264, "lon": 9.2997773}, {"type": "node", "id": 1278637752, "lat": 53.7461977, "lon": 9.3001401}, {"type": "node", "id": 1278637756, "lat": 53.7458654, "lon": 9.2999758}, {"type": "node", "id": 1281387642, "lat": 53.8071686, "lon": 8.9052619}, {"type": "node", "id": 1281387649, "lat": 53.8072297, "lon": 8.9051125}, {"type": "node", "id": 1281387658, "lat": 53.8071263, "lon": 8.904991}, {"type": "node", "id": 1281387661, "lat": 53.8070651, "lon": 8.9051404}, {"type": "node", "id": 1285080926, "lat": 53.7585027, "lon": 9.3768635, "tags": {"wheelchair": "limited", "addr:city": "Drochtersen", "addr:country": "DE", "addr:housenumber": "5a", "addr:postcode": "21706", "addr:street": "Leuchtturmweg", "amenity": "restaurant", "cuisine": "german", "name": "Zum Oberfeuer", "phone": "+49 4143 999952"}}, {"type": "node", "id": 1333940045, "lat": 53.8079463, "lon": 8.9020082, "tags": {"wheelchair": "limited", "addr:city": "Otterndorf", "addr:country": "DE", "addr:housenumber": "3", "addr:postcode": "21762", "addr:street": "Marktstra\u00dfe", "amenity": "restaurant", "cuisine": "kebab;pizza;international", "name": "Sobhi's Grilloase", "website": "http://www.sobhis.de"}}, {"type": "node", "id": 1337908603, "lat": 53.7863881, "lon": 9.4848717}, {"type": "node", "id": 1337908605, "lat": 53.7865377, "lon": 9.4849567}, {"type": "node", "id": 1337908607, "lat": 53.78654, "lon": 9.4851332}, {"type": "node", "id": 1404406554, "lat": 53.7773501, "lon": 8.9428354}, {"type": "node", "id": 1404406579, "lat": 53.7774217, "lon": 8.9426289}, {"type": "node", "id": 1404406588, "lat": 53.7774871, "lon": 8.9429715}, {"type": "node", "id": 1404406606, "lat": 53.7775588, "lon": 8.942765}, {"type": "node", "id": 1484812360, "lat": 53.7731799, "lon": 9.2905526}, {"type": "node", "id": 1484812366, "lat": 53.7732326, "lon": 9.2906155}, {"type": "node", "id": 1484812383, "lat": 53.7732773, "lon": 9.2905055}, {"type": "node", "id": 1484812388, "lat": 53.7733098, "lon": 9.2902408}, {"type": "node", "id": 1484812393, "lat": 53.773326, "lon": 9.2903939}, {"type": "node", "id": 1484812415, "lat": 53.7733587, "lon": 9.2904349}, {"type": "node", "id": 1484812423, "lat": 53.7733926, "lon": 9.2903457}, {"type": "node", "id": 1497336621, "lat": 53.8118008, "lon": 9.1202512}, {"type": "node", "id": 1497336622, "lat": 53.8118121, "lon": 9.1200051}, {"type": "node", "id": 1497336629, "lat": 53.8119128, "lon": 9.120266}, {"type": "node", "id": 1497336630, "lat": 53.8119165, "lon": 9.1201862}, {"type": "node", "id": 1497336636, "lat": 53.8119738, "lon": 9.1203904}, {"type": "node", "id": 1497336637, "lat": 53.8119828, "lon": 9.1201949}, {"type": "node", "id": 1497336644, "lat": 53.8120297, "lon": 9.1201091}, {"type": "node", "id": 1497336645, "lat": 53.8120331, "lon": 9.1200342}, {"type": "node", "id": 1497336656, "lat": 53.8121632, "lon": 9.1204154}, {"type": "node", "id": 1497336657, "lat": 53.8121701, "lon": 9.1202654}, {"type": "node", "id": 1497336670, "lat": 53.812399, "lon": 9.1202957}, {"type": "node", "id": 1497336671, "lat": 53.8124053, "lon": 9.1201587}, {"type": "node", "id": 1627067769, "lat": 53.7520912, "lon": 9.327097}, {"type": "node", "id": 1627067843, "lat": 53.7522146, "lon": 9.3269919}, {"type": "node", "id": 1627067844, "lat": 53.7521955, "lon": 9.327447}, {"type": "node", "id": 1627067880, "lat": 53.7523189, "lon": 9.3273418}, {"type": "node", "id": 1627125615, "lat": 53.7697905, "lon": 9.2948341}, {"type": "node", "id": 1627125619, "lat": 53.7698656, "lon": 9.2947755}, {"type": "node", "id": 1627125621, "lat": 53.7699031, "lon": 9.2947491}, {"type": "node", "id": 1627125624, "lat": 53.7699131, "lon": 9.2952694}, {"type": "node", "id": 1627125627, "lat": 53.7700229, "lon": 9.2951825}, {"type": "node", "id": 1631583538, "lat": 53.7361257, "lon": 9.2353574}, {"type": "node", "id": 1631583559, "lat": 53.7362112, "lon": 9.2352303}, {"type": "node", "id": 1631583567, "lat": 53.7362734, "lon": 9.2357034}, {"type": "node", "id": 1631583600, "lat": 53.7363381, "lon": 9.2358261}, {"type": "node", "id": 1631583603, "lat": 53.736352, "lon": 9.2355797}, {"type": "node", "id": 1631583607, "lat": 53.7364003, "lon": 9.2355194}, {"type": "node", "id": 1631583630, "lat": 53.7364703, "lon": 9.2356377}, {"type": "node", "id": 1742673667, "lat": 53.9072865, "lon": 9.0208627, "tags": {"addr:city": "Neufeld", "addr:country": "DE", "addr:housenumber": "3", "addr:postcode": "25724", "addr:street": "Op'n Diek", "amenity": "restaurant", "name": "Caf\u00e9 & Speiselokal Op'n Diek", "opening_hours": "Th-Su 11:30-20:00", "toilets:wheelchair": "no", "website": "http://www.restaurant-opndiek.de", "wheelchair": "no"}}, {"type": "node", "id": 1742828075, "lat": 53.8961549, "lon": 9.1042184, "tags": {"addr:city": "Brunsb\u00fcttel", "addr:housenumber": "5", "addr:postcode": "25541", "addr:street": "Markt", "amenity": "restaurant", "cuisine": "italian", "name": "Bistro Restaurant Ginelli", "toilets:wheelchair": "no", "wheelchair": "limited"}}, {"type": "node", "id": 1871396261, "lat": 53.9075554, "lon": 9.0747058}, {"type": "node", "id": 1871396262, "lat": 53.9075738, "lon": 9.0744531}, {"type": "node", "id": 1871396263, "lat": 53.9076398, "lon": 9.0747235}, {"type": "node", "id": 1871396264, "lat": 53.907644, "lon": 9.0746667}, {"type": "node", "id": 1871396272, "lat": 53.9077472, "lon": 9.0746883}, {"type": "node", "id": 1871396275, "lat": 53.9077614, "lon": 9.0744923}, {"type": "node", "id": 2329827978, "lat": 53.7423211, "lon": 9.079286}, {"type": "node", "id": 2329827979, "lat": 53.7423386, "lon": 9.0794702}, {"type": "node", "id": 2329827980, "lat": 53.7424949, "lon": 9.0794276}, {"type": "node", "id": 2329827982, "lat": 53.7425073, "lon": 9.0795571}, {"type": "node", "id": 2329827985, "lat": 53.7426255, "lon": 9.0792033}, {"type": "node", "id": 2329827986, "lat": 53.7426439, "lon": 9.0793981}, {"type": "node", "id": 2329827987, "lat": 53.7426148, "lon": 9.079406}, {"type": "node", "id": 2329827988, "lat": 53.7426261, "lon": 9.0795249}, {"type": "node", "id": 2423951379, "lat": 53.7503846, "lon": 9.1468711, "tags": {"addr:city": "Oberndorf", "addr:housenumber": "28", "addr:postcode": "21787", "addr:street": "Hauptstra\u00dfe", "amenity": "restaurant", "cuisine": "regional", "name": "Komb\u00fcse 53\u00b0 Nord", "opening_hours": "We-Su 17:30-22:00; Su 12:00-13:30", "phone": "+49 4772 8608913", "website": "http://www.die-oberndorfer.de/96-0-Kombuesen-Crew.html"}}, {"type": "node", "id": 2464061728, "lat": 53.8249803, "lon": 9.4104624}, {"type": "node", "id": 2464061729, "lat": 53.8249807, "lon": 9.4104827}, {"type": "node", "id": 2464061730, "lat": 53.824982, "lon": 9.410132}, {"type": "node", "id": 2464061731, "lat": 53.8249855, "lon": 9.4104511}, {"type": "node", "id": 2464061732, "lat": 53.8249858, "lon": 9.4104974}, {"type": "node", "id": 2464061734, "lat": 53.825002, "lon": 9.4105025}, {"type": "node", "id": 2464061735, "lat": 53.8251016, "lon": 9.4099852}, {"type": "node", "id": 2464061736, "lat": 53.8251076, "lon": 9.4101151}, {"type": "node", "id": 2464061737, "lat": 53.8251211, "lon": 9.4102605}, {"type": "node", "id": 2464061738, "lat": 53.8251316, "lon": 9.4104852}, {"type": "node", "id": 2464061739, "lat": 53.8251676, "lon": 9.4101626}, {"type": "node", "id": 2464061740, "lat": 53.8251719, "lon": 9.4102537}, {"type": "node", "id": 2464061744, "lat": 53.8252378, "lon": 9.4099669}, {"type": "node", "id": 2464061745, "lat": 53.8252464, "lon": 9.410152}, {"type": "node", "id": 2493732058, "lat": 53.8269545, "lon": 9.4281628}, {"type": "node", "id": 2493732062, "lat": 53.8269803, "lon": 9.4281297}, {"type": "node", "id": 2493732074, "lat": 53.8270679, "lon": 9.428111}, {"type": "node", "id": 2493732082, "lat": 53.8271169, "lon": 9.428635}, {"type": "node", "id": 2559603470, "lat": 53.8210048, "lon": 9.446591}, {"type": "node", "id": 2559603475, "lat": 53.8210816, "lon": 9.4472575}, {"type": "node", "id": 2559603484, "lat": 53.8212433, "lon": 9.4469045}, {"type": "node", "id": 2569771995, "lat": 53.8075196, "lon": 9.454672}, {"type": "node", "id": 2569771997, "lat": 53.8075926, "lon": 9.4548925}, {"type": "node", "id": 2569771999, "lat": 53.8075947, "lon": 9.4545726}, {"type": "node", "id": 2569772001, "lat": 53.8076413, "lon": 9.4546736}, {"type": "node", "id": 2569772003, "lat": 53.8076896, "lon": 9.4551026}, {"type": "node", "id": 2569772005, "lat": 53.8076965, "lon": 9.4546004}, {"type": "node", "id": 2569772007, "lat": 53.8077311, "lon": 9.4547581}, {"type": "node", "id": 2569772009, "lat": 53.807739, "lon": 9.4551075}, {"type": "node", "id": 2569772011, "lat": 53.8077549, "lon": 9.4547267}, {"type": "node", "id": 2569772013, "lat": 53.8078322, "lon": 9.454977}, {"type": "node", "id": 2609381244, "lat": 53.8961747, "lon": 9.1462876}, {"type": "node", "id": 2609381377, "lat": 53.8963024, "lon": 9.1467061}, {"type": "node", "id": 2609381515, "lat": 53.8963636, "lon": 9.1465993}, {"type": "node", "id": 2609381600, "lat": 53.8965635, "lon": 9.1406737}, {"type": "node", "id": 2609381665, "lat": 53.8966632, "lon": 9.1407135}, {"type": "node", "id": 2609381667, "lat": 53.896633, "lon": 9.1409316}, {"type": "node", "id": 2610915989, "lat": 53.7377824, "lon": 9.5633348}, {"type": "node", "id": 2610916021, "lat": 53.7378864, "lon": 9.5633427}, {"type": "node", "id": 2610916023, "lat": 53.7378876, "lon": 9.5632988}, {"type": "node", "id": 2610916045, "lat": 53.7379674, "lon": 9.563305}, {"type": "node", "id": 2610916048, "lat": 53.7379741, "lon": 9.5630548}, {"type": "node", "id": 2677548682, "lat": 53.7261676, "lon": 9.4896518}, {"type": "node", "id": 2677548692, "lat": 53.7262626, "lon": 9.4893475}, {"type": "node", "id": 2677548698, "lat": 53.7263197, "lon": 9.4897875}, {"type": "node", "id": 2677548700, "lat": 53.7263436, "lon": 9.4897108}, {"type": "node", "id": 2677548704, "lat": 53.7263816, "lon": 9.4897446}, {"type": "node", "id": 2704190425, "lat": 53.7814645, "lon": 9.4335955, "tags": {"amenity": "restaurant"}}, {"type": "node", "id": 2887150276, "lat": 53.7245865, "lon": 9.5858292}, {"type": "node", "id": 2887150280, "lat": 53.7247445, "lon": 9.5861291}, {"type": "node", "id": 2887150281, "lat": 53.7247673, "lon": 9.585557}, {"type": "node", "id": 2887150282, "lat": 53.7247739, "lon": 9.5857804}, {"type": "node", "id": 2887150284, "lat": 53.7247944, "lon": 9.585978}, {"type": "node", "id": 2887150285, "lat": 53.7248152, "lon": 9.5859467}, {"type": "node", "id": 2887150286, "lat": 53.7248167, "lon": 9.5860205}, {"type": "node", "id": 2887150287, "lat": 53.7248172, "lon": 9.5858626}, {"type": "node", "id": 2887150288, "lat": 53.7248359, "lon": 9.5856871}, {"type": "node", "id": 2914395297, "lat": 53.8965333, "lon": 9.1408917}, {"type": "node", "id": 2914403608, "lat": 53.8961136, "lon": 9.1463944}, {"type": "node", "id": 2965997453, "lat": 53.753351, "lon": 9.3849187}, {"type": "node", "id": 2965997454, "lat": 53.7532576, "lon": 9.3844549}, {"type": "node", "id": 2965997455, "lat": 53.7533634, "lon": 9.384394}, {"type": "node", "id": 2965997456, "lat": 53.7533735, "lon": 9.3844441}, {"type": "node", "id": 2965997457, "lat": 53.7535003, "lon": 9.3843712}, {"type": "node", "id": 2965997458, "lat": 53.7535381, "lon": 9.3845594}, {"type": "node", "id": 2965997459, "lat": 53.7534652, "lon": 9.3846013}, {"type": "node", "id": 2965997460, "lat": 53.7535106, "lon": 9.3848268}, {"type": "node", "id": 3029415517, "lat": 53.7886087, "lon": 9.4292808, "tags": {"amenity": "restaurant", "name": "Kreta"}}, {"type": "node", "id": 3218561751, "lat": 53.7395214, "lon": 8.9194722}, {"type": "node", "id": 3218561756, "lat": 53.7396062, "lon": 8.9189004}, {"type": "node", "id": 3218561759, "lat": 53.7396631, "lon": 8.9195323}, {"type": "node", "id": 3218561760, "lat": 53.7396652, "lon": 8.919518}, {"type": "node", "id": 3218561762, "lat": 53.739731, "lon": 8.9190351}, {"type": "node", "id": 3218561763, "lat": 53.7397425, "lon": 8.9189582}, {"type": "node", "id": 3218561766, "lat": 53.7397819, "lon": 8.9195675}, {"type": "node", "id": 3218561768, "lat": 53.7397911, "lon": 8.9195059}, {"type": "node", "id": 3218561772, "lat": 53.7398297, "lon": 8.9191839}, {"type": "node", "id": 3218561773, "lat": 53.7398446, "lon": 8.9190833}, {"type": "node", "id": 3218561774, "lat": 53.7398466, "lon": 8.9194222}, {"type": "node", "id": 3218561777, "lat": 53.7398788, "lon": 8.9192047}, {"type": "node", "id": 3218561778, "lat": 53.739882, "lon": 8.9195445}, {"type": "node", "id": 3218561780, "lat": 53.739897, "lon": 8.9194435}, {"type": "node", "id": 3327486633, "lat": 53.7681911, "lon": 9.0639257}, {"type": "node", "id": 3327486634, "lat": 53.7681433, "lon": 9.0640207}, {"type": "node", "id": 3327486635, "lat": 53.7682663, "lon": 9.0641963}, {"type": "node", "id": 3327486636, "lat": 53.7683364, "lon": 9.0641963}, {"type": "node", "id": 3327486637, "lat": 53.7683707, "lon": 9.064158}, {"type": "node", "id": 3327486638, "lat": 53.7683357, "lon": 9.0640682}, {"type": "node", "id": 3327486639, "lat": 53.7683096, "lon": 9.0640974}, {"type": "node", "id": 3327488499, "lat": 53.7720401, "lon": 9.0577479}, {"type": "node", "id": 3327488500, "lat": 53.7718589, "lon": 9.0578092}, {"type": "node", "id": 3327488501, "lat": 53.7718262, "lon": 9.0576095}, {"type": "node", "id": 3327488502, "lat": 53.7718496, "lon": 9.0575858}, {"type": "node", "id": 3327488503, "lat": 53.7718309, "lon": 9.057564}, {"type": "node", "id": 3327488504, "lat": 53.7718239, "lon": 9.0575205}, {"type": "node", "id": 3327488505, "lat": 53.7718473, "lon": 9.0574671}, {"type": "node", "id": 3327488506, "lat": 53.77188, "lon": 9.0574751}, {"type": "node", "id": 3327488507, "lat": 53.7718928, "lon": 9.0574988}, {"type": "node", "id": 3327488508, "lat": 53.7719489, "lon": 9.057477}, {"type": "node", "id": 3327488509, "lat": 53.7720167, "lon": 9.0574573}, {"type": "node", "id": 3327488510, "lat": 53.7718332, "lon": 9.0574869}, {"type": "node", "id": 3488327519, "lat": 53.8977336, "lon": 9.1308357, "tags": {"addr:city": "Brunsb\u00fcttel", "addr:housenumber": "17", "addr:postcode": "25541", "addr:street": "Koogstra\u00dfe", "amenity": "restaurant", "cuisine": "italian", "name": "Picasso", "opening_hours": "Tu-Sa 17:30-23:00", "operator": "Rosa Sisca", "smoking": "no", "wheelchair": "no"}}, {"type": "node", "id": 3491454914, "lat": 53.8958275, "lon": 9.1036799, "tags": {"amenity": "restaurant", "name": "Zur Traube"}}, {"type": "node", "id": 3546585068, "lat": 53.752593, "lon": 9.1473087}, {"type": "node", "id": 3546585069, "lat": 53.7526038, "lon": 9.1474508}, {"type": "node", "id": 3546585072, "lat": 53.7526407, "lon": 9.1472989}, {"type": "node", "id": 3546585080, "lat": 53.7528428, "lon": 9.1472546}, {"type": "node", "id": 3546585081, "lat": 53.7528535, "lon": 9.1473967}, {"type": "node", "id": 3596340193, "lat": 53.7524886, "lon": 9.0837836, "tags": {"amenity": "restaurant", "name": "Schwalbe", "toilets:wheelchair": "no", "wheelchair": "yes"}}, {"type": "node", "id": 3597852193, "lat": 53.7738233, "lon": 9.0677601, "tags": {"amenity": "restaurant", "wheelchair": "yes", "toilets:wheelchair": "yes", "name": "Taubenhof"}}, {"type": "node", "id": 3597871893, "lat": 53.7712885, "lon": 9.0567938, "tags": {"addr:city": "Cadenberge", "addr:housenumber": "5", "addr:postcode": "21781", "addr:street": "Bahnhofstra\u00dfe", "amenity": "restaurant", "name": "China-Restaurant", "wheelchair": "yes", "wheelchair:description": "Eingang von der Parkplatzseite (B73) stufenlos"}}, {"type": "node", "id": 3597885693, "lat": 53.7713115, "lon": 9.0582499, "tags": {"amenity": "restaurant", "cuisine": "turkish", "name": "Media Grillhaus", "opening_hours": "Mo-Su 11:00-23:00", "wheelchair": "limited"}}, {"type": "node", "id": 3609502867, "lat": 53.7536072, "lon": 9.3899651, "tags": {"addr:city": "Drochtersen", "addr:postcode": "21706", "addr:suburb": "Krautsand", "amenity": "restaurant", "name": "StrandZeit - Bistro & Bar", "source": "http://www.elbstrand-resort.de/de/Restaurant", "toilets:wheelchair": "yes", "website": "http://www.elbstrand-resort.de/de/Restaurant", "wheelchair": "limited"}}, {"type": "node", "id": 3707154985, "lat": 53.7856833, "lon": 9.4143434}, {"type": "node", "id": 3707154986, "lat": 53.7857771, "lon": 9.4141319}, {"type": "node", "id": 3707154989, "lat": 53.7856821, "lon": 9.4141335}, {"type": "node", "id": 3707154993, "lat": 53.7857783, "lon": 9.4143418}, {"type": "node", "id": 3768759303, "lat": 53.8966888, "lon": 9.1579399, "tags": {"addr:city": "Brunsb\u00fcttel", "addr:housenumber": "1", "addr:postcode": "25541", "addr:street": "Bahnhofstra\u00dfe", "amenity": "restaurant", "cuisine": "asian", "name": "Kanton", "toilets:wheelchair": "no", "wheelchair": "no"}}, {"type": "node", "id": 3910987918, "lat": 53.7262052, "lon": 9.4895314, "tags": {"access": "customers", "entrance": "yes", "level": "2"}}, {"type": "node", "id": 3910987919, "lat": 53.726309, "lon": 9.4893888, "tags": {"entrance": "yes"}}, {"type": "node", "id": 4011347642, "lat": 53.8961951, "lon": 9.1419132, "tags": {"addr:city": "Brunsb\u00fcttel", "addr:housenumber": "94", "addr:postcode": "25541", "addr:street": "Koogstra\u00dfe", "amenity": "restaurant", "cuisine": "international", "name": "Montenegro", "opening_hours": "Mo,We-Sa 17:00-23:00; Su,PH 12:00-15:00,17:00-23:00", "wheelchair": "no"}}, {"type": "node", "id": 4011359434, "lat": 53.8973415, "lon": 9.1341501, "tags": {"addr:city": "Brunsb\u00fcttel", "addr:housenumber": "27", "addr:postcode": "25541", "addr:street": "Koogstra\u00dfe", "amenity": "restaurant", "cuisine": "greek", "name": "Dubrovnik", "opening_hours": "Mo-Su 17:30-22:00", "phone": "+49 4852 8358115", "wheelchair": "yes"}}, {"type": "node", "id": 4011362772, "lat": 53.8974069, "lon": 9.1336208, "tags": {"addr:city": "Brunsb\u00fcttel", "addr:housenumber": "27", "addr:postcode": "25541", "addr:street": "Koogstra\u00dfe", "amenity": "restaurant", "cuisine": "asian", "diet:vegetarian": "yes", "name": "Ho Tay Asiatische Spezialit\u00e4ten", "opening_hours": "Tu-Su 11:30-14:30,18:00-22:00", "wheelchair": "yes"}}, {"type": "node", "id": 4011366190, "lat": 53.8967226, "lon": 9.1373759, "tags": {"addr:city": "Brunsb\u00fcttel", "addr:housenumber": "62", "addr:postcode": "25541", "addr:street": "Koogstra\u00dfe", "amenity": "restaurant", "cuisine": "greek", "name": "Syrtaki", "opening_hours": "Mo,We-Sa 17:00-22:00; Su 12:00-14:30,17:00-22:00", "wheelchair": "limited"}}, {"type": "node", "id": 4011375189, "lat": 53.8961299, "lon": 9.1425948, "tags": {"addr:city": "Brunsb\u00fcttel", "addr:housenumber": "98", "addr:postcode": "25541", "addr:street": "Koogstra\u00dfe", "amenity": "restaurant", "cuisine": "chinese", "name": "China-Bistro Hoa Mai", "opening_hours": "Mo-Su 11:30-22:00", "phone": "+49 4852 9406277", "smoking": "no", "takeaway": "yes", "wheelchair": "yes"}}, {"type": "node", "id": 4087882380, "lat": 53.7759365, "lon": 9.325463, "tags": {"amenity": "restaurant", "cuisine": "regional", "name": "F\u00e4hrhaus", "toilets:wheelchair": "yes", "tourism": "hotel", "wheelchair": "yes"}}, {"type": "node", "id": 4241483046, "lat": 53.7860609, "lon": 9.4251069}, {"type": "node", "id": 4241483047, "lat": 53.7860784, "lon": 9.4251938, "tags": {"entrance": "main"}}, {"type": "node", "id": 4241483048, "lat": 53.7861054, "lon": 9.4253277}, {"type": "node", "id": 4241483049, "lat": 53.7861145, "lon": 9.4250759}, {"type": "node", "id": 4241483050, "lat": 53.786159, "lon": 9.4252968}, {"type": "node", "id": 4318489437, "lat": 53.8060042, "lon": 9.4178808}, {"type": "node", "id": 4318489438, "lat": 53.8060651, "lon": 9.4179755}, {"type": "node", "id": 4318489441, "lat": 53.8061238, "lon": 9.41766}, {"type": "node", "id": 4389269489, "lat": 53.7893392, "lon": 9.4262472, "tags": {"addr:city": "Gl\u00fcckstadt", "addr:country": "DE", "addr:housenumber": "1", "addr:postcode": "25348", "addr:street": "Gro\u00dfe Kremper Stra\u00dfe", "amenity": "restaurant", "contact:website": "http://www.glueckwerk.de/de/startseite/", "name": "Gl\u00fcckwerk", "opening_hours": "Mo-Th 11:30-13:30", "phone": "+49 4124 603900", "wheelchair": "yes"}}, {"type": "node", "id": 4830212324, "lat": 53.7389977, "lon": 8.9180829, "tags": {"amenity": "restaurant", "name": "Gasthof Katt", "wheelchair": "limited"}}, {"type": "node", "id": 4858585910, "lat": 53.8080331, "lon": 8.898708, "tags": {"amenity": "restaurant", "name": "Restaurant Panorama", "outdoor_seating": "yes"}}, {"type": "node", "id": 4956086248, "lat": 53.9071729, "lon": 9.0205103, "tags": {"addr:city": "Neufeld", "addr:country": "DE", "addr:housenumber": "5", "addr:postcode": "25724", "addr:street": "Op'n Diek", "amenity": "restaurant", "name": "Alice", "opening_hours": "Tu-Su 11:30-21:00", "toilets:wheelchair": "no", "website": "https://alice-heimathafen.de/neufeld.php", "wheelchair": "no"}}, {"type": "node", "id": 5389185074, "lat": 53.794954, "lon": 9.4312313}, {"type": "node", "id": 5389185077, "lat": 53.7949689, "lon": 9.4312047}, {"type": "node", "id": 5389185078, "lat": 53.7948806, "lon": 9.4313638}, {"type": "node", "id": 5389185079, "lat": 53.7946551, "lon": 9.4315813}, {"type": "node", "id": 5389185080, "lat": 53.7947355, "lon": 9.4317091}, {"type": "node", "id": 5389185081, "lat": 53.7949133, "lon": 9.4311162}, {"type": "node", "id": 5389185082, "lat": 53.7949991, "lon": 9.4315523}, {"type": "node", "id": 5389185083, "lat": 53.7950604, "lon": 9.4314419}, {"type": "node", "id": 5389185084, "lat": 53.7946966, "lon": 9.4317792}, {"type": "node", "id": 5389185085, "lat": 53.7951265, "lon": 9.4315471}, {"type": "node", "id": 5536448638, "lat": 53.8080689, "lon": 8.8978677, "tags": {"addr:city": "Otterndorf", "addr:housenumber": "5", "addr:postcode": "21762", "addr:street": "Am Gro\u00dfen Specken", "amenity": "restaurant", "name": "In de Grund"}}, {"type": "node", "id": 5926572227, "lat": 53.8205341, "lon": 9.0885007, "tags": {"opening_hours": "Mo,Tu,Th,Fr 18:00-21:00; Sa,Su,PH 11:30-14:00,18:00-21:00; We off", "addr:city": "Balje", "addr:housenumber": "4", "addr:postcode": "21730", "addr:street": "Itzw\u00f6rdener Stra\u00dfe", "addr:suburb": "H\u00f6rne", "amenity": "restaurant", "cuisine": "regional;german;seafood;steak_house", "description": "Gasthaus / Restaurant mit regionaler K\u00fcche von regionalen Lieferanten.", "email": "mail@hotel-zwei-linden.de", "fax": "+49 4753 8430-30", "internet_access": "wlan", "internet_access:fee": "no", "name": "Zwei Linden", "phone": "+49 4753 8430-0", "smoking": "outside", "takeaway": "no", "website": "https://www.gasthaus-zwei-linden.de/restaurant/", "wheelchair": "yes"}}, {"type": "node", "id": 5926909558, "lat": 53.7446202, "lon": 9.0974799, "tags": {"addr:city": "Wingst", "addr:housenumber": "1", "addr:postcode": "21789", "addr:street": "Bahnhofstra\u00dfe", "amenity": "restaurant", "cuisine": "regional;german;international;seafood", "delivery": "no", "description": "Handwerkliche Kochkunst, bodenst\u00e4ndig bis gehobene regionale, deutsche und internationale K\u00fcche.", "email": "info@peters-wingst.de", "fax": "+49 4778 7474", "name": "Oehlschl\u00e4ger Stube, Genusshotel Peters", "opening_hours": "Th-Su,PH 18:00-22:00, Su,PH 12:00-14:00", "phone": "+49 4778 279", "smoking": "outside", "takeaway": "no", "website": "https://peters-wingst.de/restaurant/", "wheelchair": "limited"}}, {"type": "node", "id": 6208494731, "lat": 53.7670641, "lon": 9.0560861}, {"type": "node", "id": 6208494732, "lat": 53.7670305, "lon": 9.0563499}, {"type": "node", "id": 6208494733, "lat": 53.7671215, "lon": 9.056383}, {"type": "node", "id": 6208494734, "lat": 53.767078, "lon": 9.0566006}, {"type": "node", "id": 6208494735, "lat": 53.7671581, "lon": 9.0566298}, {"type": "node", "id": 6208494736, "lat": 53.76722, "lon": 9.0561428}, {"type": "node", "id": 6315878277, "lat": 53.7532816, "lon": 9.3866158, "tags": {"addr:city": "Drochtersen", "addr:postcode": "21706", "addr:suburb": "Krautsand", "amenity": "restaurant", "name": "Sandbank", "source": "http://www.elbstrand-resort.de/de/Restaurant", "website": "http://www.elbstrand-resort.de/de/Restaurant"}}, {"type": "node", "id": 6878697623, "lat": 53.7714818, "lon": 8.9640319, "tags": {"amenity": "restaurant", "name": "BODO`S Kantine"}}, {"type": "node", "id": 8412042365, "lat": 53.7461409, "lon": 9.2997579}, {"type": "node", "id": 8412042368, "lat": 53.7460142, "lon": 9.2997292}, {"type": "node", "id": 8412042369, "lat": 53.746009, "lon": 9.2997954}, {"type": "node", "id": 8606617019, "lat": 53.7670534, "lon": 9.05617}, {"type": "node", "id": 8606617020, "lat": 53.7670606, "lon": 9.0561132}, {"type": "node", "id": 8606617021, "lat": 53.7670959, "lon": 9.0564599}, {"type": "node", "id": 8606617022, "lat": 53.767111, "lon": 9.0564654}, {"type": "node", "id": 8606873244, "lat": 53.7424951, "lon": 9.0791311}, {"type": "node", "id": 8606873245, "lat": 53.7424069, "lon": 9.079155}, {"type": "node", "id": 8606873246, "lat": 53.7424168, "lon": 9.07926}, {"type": "node", "id": 8606873247, "lat": 53.7425051, "lon": 9.079236}, {"type": "node", "id": 8639537537, "lat": 53.786407, "lon": 9.4848709}, {"type": "node", "id": 8639537540, "lat": 53.7864508, "lon": 9.4848693}, {"type": "node", "id": 8639537541, "lat": 53.786452, "lon": 9.4849599}, {"type": "way", "id": 66587477, "nodes": [805715492, 805715519, 805715525, 805715473, 805715492], "tags": {"website": "https://www.restaurant-zur-alten-muehle.de/", "addr:city": "Gl\u00fcckstadt", "addr:country": "DE", "addr:housenumber": "54", "addr:postcode": "25348", "addr:street": "Am Hafen", "amenity": "restaurant", "building": "yes", "fax": "+49 4124 5262", "name": "Zur Alten M\u00fchle", "phone": "+49 4124 1807"}}, {"type": "way", "id": 69610040, "nodes": [833093539, 833093086, 833093007, 833092705, 833094126, 833092622, 833093539], "tags": {"addr:city": "Engelbrechtsche Wildnis", "addr:country": "DE", "addr:housenumber": "21", "addr:postcode": "25348", "addr:street": "Herzhorner Rhin", "amenity": "restaurant", "building": "house", "name": "Poppenhuus"}}, {"type": "way", "id": 80959801, "nodes": [943956827, 943956883, 943956678, 943956853, 943956872, 943956907, 943956827], "tags": {"addr:city": "Wewelsfleth", "addr:country": "DE", "addr:housenumber": "28", "addr:postcode": "25599", "addr:street": "Deichreihe", "amenity": "restaurant", "building": "yes", "name": "Ebbe & Flut"}}, {"type": "way", "id": 97397263, "nodes": [1128022174, 1128022402, 1128021852, 1128022051, 1128022174], "tags": {"addr:city": "Brokdorf", "addr:country": "DE", "addr:housenumber": "33A", "addr:postcode": "25576", "addr:street": "Dorfstra\u00dfe", "amenity": "restaurant", "building": "yes", "name": "Sportcasino"}}, {"type": "way", "id": 112516688, "nodes": [1278637736, 1278637756, 1278637718, 1278637732, 8412042369, 8412042368, 8412042365, 1278637746, 1278637752, 1278637712, 1278637729, 1278637736], "tags": {"addr:city": "Wischhafen", "addr:country": "DE", "addr:housenumber": "3", "addr:postcode": "21737", "addr:street": "Ostener Stra\u00dfe", "amenity": "restaurant", "building": "yes", "name": "Gasthaus Heiko Sieb", "tourism": "hotel"}}, {"type": "way", "id": 112793876, "nodes": [1281387661, 1281387658, 1281387649, 1281387642, 1281387661], "tags": {"amenity": "restaurant", "cuisine": "chinese", "name": "China-Garten", "old_name": "Gasthof zum wei\u00dfen Ro\u00df", "opening_hours": "Mo-Su 12:00-15:00,17:30-23:30; Th off", "phone": "+49 4751 3318", "wheelchair": "limited", "addr:city": "Otterndorf", "addr:country": "DE", "addr:housenumber": "42", "addr:postcode": "21762", "addr:street": "Marktstra\u00dfe", "building": "yes"}}, {"type": "way", "id": 119011722, "nodes": [1337908607, 454305191, 1337908603, 8639537537, 8639537540, 8639537541, 1337908605, 1337908607], "tags": {"addr:city": "Herzhorn", "addr:country": "DE", "addr:housenumber": "3", "addr:postcode": "25379", "addr:street": "Am Markt", "amenity": "restaurant", "building": "house", "name": "Zur Linde"}}, {"type": "way", "id": 126763531, "nodes": [1404406606, 1404406588, 1404406554, 1404406579, 1404406606], "tags": {"addr:city": "Osterbruch", "addr:country": "DE", "addr:housenumber": "38", "addr:postcode": "21762", "addr:street": "Dorfstra\u00dfe", "amenity": "restaurant", "building": "yes", "cuisine": "german", "name": "Fremgen\u00b4s Gastst\u00e4tte", "operator": "Ina Fremgen und Kevin Fremgen", "phone": "+49 4751/2566"}}, {"type": "way", "id": 135181904, "nodes": [1484812388, 1484812423, 1484812415, 1484812393, 1484812383, 1484812366, 1484812360, 1484812388], "tags": {"amenity": "restaurant", "building": "yes", "name": "Moorkate"}}, {"type": "way", "id": 136509030, "nodes": [1497336671, 1497336670, 1497336657, 1497336656, 1497336636, 1497336637, 1497336630, 1497336629, 1497336621, 1497336622, 1497336645, 1497336644, 1497336671], "tags": {"wheelchair": "yes", "toilets:wheelchair": "yes", "amenity": "restaurant", "building": "yes", "name": "Restaurant \"Armer Ritter\""}}, {"type": "way", "id": 149755549, "nodes": [1627067843, 1627067880, 1627067844, 1627067769, 1627067843], "tags": {"addr:city": "Wischhafen", "addr:housenumber": "26", "addr:postcode": "21737", "addr:street": "Stader Stra\u00dfe", "addr:suburb": "Neuland", "amenity": "restaurant", "building": "yes", "name": "Gasthof", "wheelchair": "yes"}}, {"type": "way", "id": 149762431, "nodes": [1627125621, 1627125627, 1627125624, 1627125615, 1627125619, 1627125621], "tags": {"addr:city": "Wischhafen", "addr:housenumber": "65", "addr:postcode": "21737", "addr:street": "Birkenstra\u00dfe", "amenity": "restaurant", "building": "yes", "cuisine": "german", "name": "Gasthaus Charly Drewes", "service:bicycle:rental": "yes", "tourism": "hotel"}}, {"type": "way", "id": 150227080, "nodes": [1631583559, 1631583603, 1631583607, 1631583630, 1631583600, 1631583567, 1631583538, 1631583559], "tags": {"amenity": "restaurant", "building": "yes"}}, {"type": "way", "id": 176656799, "nodes": [1871396262, 1871396275, 1871396272, 1871396264, 1871396263, 1871396261, 1871396262], "tags": {"addr:city": "Brunsb\u00fcttel", "addr:country": "DE", "addr:housenumber": "28a", "addr:postcode": "25541", "addr:street": "Marner Chaussee", "amenity": "restaurant", "building": "yes", "name": "Gasthaus Zur Hochbr\u00fccke", "website": "https://www.gasthaus-zur-hochbr\u00fccke.de/"}}, {"type": "way", "id": 224150338, "nodes": [2329827987, 2329827988, 2329827982, 2329827980, 2329827979, 2329827978, 8606873246, 8606873245, 8606873244, 8606873247, 2329827985, 2329827986, 2329827987], "tags": {"amenity": "restaurant", "building": "yes", "disused": "yes", "name": "Restaurant am Zoo", "opening_hours": "off", "operator": "Christian Hoffmann", "phone": "+49 4778 7533", "wheelchair": "limited"}}, {"type": "way", "id": 238587334, "nodes": [2464061736, 2464061730, 339399434, 2464061731, 2464061728, 2464061729, 2464061732, 2464061734, 2464061738, 2464061737, 2464061740, 2464061739, 2464061745, 2464061744, 2464061735, 2464061736], "tags": {"addr:city": "Borsfleth", "addr:country": "DE", "addr:housenumber": "6", "addr:postcode": "25376", "addr:street": "Ivenfleth", "amenity": "restaurant", "building": "hotel", "name": "Zur St\u00f6rm\u00fcndung", "tourism": "hotel"}}, {"type": "way", "id": 241782315, "nodes": [2493732082, 2493732058, 2493732062, 2493732074, 339399420, 2493732082], "tags": {"addr:city": "Borsfleth", "addr:country": "DE", "addr:housenumber": "2", "addr:postcode": "25376", "addr:street": "Dorfstra\u00dfe", "amenity": "restaurant", "building": "house", "name": "Zum Aukrug"}}, {"type": "way", "id": 249342602, "nodes": [2559603484, 2559603475, 336424927, 2559603470, 2559603484], "tags": {"website": "www.beermann-restaurant.de", "addr:city": "Borsfleth", "addr:country": "DE", "addr:housenumber": "144", "addr:postcode": "25376", "addr:street": "B\u00fcttel", "amenity": "restaurant", "building": "house", "name": "Hof Beermann", "opening_hours": "Th,Fr 17:00-22:00; Sa 15:30-22:00; Su 11:30-22:00", "phone": "+49 4824 400668"}}, {"type": "way", "id": 250548769, "nodes": [2569771999, 2569772001, 2569772005, 2569772011, 2569772007, 2569772013, 2569772009, 2569772003, 2569771997, 388028017, 2569771995, 2569771999], "tags": {"addr:city": "Blomesche Wildnis", "addr:country": "DE", "addr:housenumber": "112", "addr:postcode": "25348", "addr:street": "An der Chaussee", "amenity": "restaurant", "building": "house", "name": "Wei\u00dfer B\u00e4r"}}, {"type": "way", "id": 255223491, "nodes": [2609381665, 2609381667, 2914395297, 2609381600, 2609381665], "tags": {"addr:city": "Brunsb\u00fcttel", "addr:housenumber": "73", "addr:postcode": "25541", "addr:street": "Koogstra\u00dfe", "amenity": "restaurant", "building": "residential", "cuisine": "pizza", "diet:vegetarian": "yes", "name": "Pizza Factory", "opening_hours": "Fr,Sa 11:30-23:30; Su-Th 11:30-23:00", "smoking": "no", "takeaway": "yes", "toilets:wheelchair": "no", "wheelchair": "limited"}}, {"type": "way", "id": 255223523, "nodes": [2609381244, 2609381515, 2609381377, 2914403608, 2609381244], "tags": {"addr:city": "Brunsb\u00fcttel", "addr:country": "DE", "addr:housenumber": "2", "addr:postcode": "25541", "addr:street": "Kreystra\u00dfe", "amenity": "restaurant", "building": "yes", "name": "Torhaus", "outdoor_seating": "yes", "website": "https://www.brunsbuettel-torhaus.de/"}}, {"type": "way", "id": 255399119, "nodes": [2610916048, 2610916045, 2610916023, 2610916021, 2610915989, 371187611, 2610916048], "tags": {"addr:city": "Neuendorf bei Elmshorn", "addr:country": "DE", "addr:housenumber": "73", "addr:postcode": "25335", "addr:street": "Kirchdorf", "amenity": "restaurant", "building": "house", "name": "Matjens Landhaus", "website": "http://www.matjens.de/"}}, {"type": "way", "id": 262108312, "nodes": [287798696, 2677548704, 2677548700, 2677548698, 2677548682, 3910987918, 2677548692, 3910987919, 287798696], "tags": {"website": "www.faehrhaus-kollmar.de", "addr:city": "Kollmar", "addr:country": "DE", "addr:housenumber": "1", "addr:postcode": "25377", "addr:street": "Am Deich", "amenity": "restaurant", "building": "yes", "name": "F\u00e4hrhaus Kollmar", "wheelchair": "no"}}, {"type": "way", "id": 285021047, "nodes": [2887150281, 2887150288, 2887150282, 2887150287, 344396882, 2887150285, 2887150284, 2887150286, 2887150280, 2887150276, 2887150281], "tags": {"addr:city": "Raa-Besenbek", "addr:country": "DE", "addr:housenumber": "13", "addr:postcode": "25335", "addr:street": "Spiekerh\u00f6rn", "amenity": "restaurant", "building": "house", "name": "F\u00e4hrhaus Spiekerh\u00f6rn", "toilets:wheelchair": "yes", "wheelchair": "yes"}}, {"type": "way", "id": 293043414, "nodes": [2965997453, 2965997454, 2965997455, 2965997456, 2965997457, 2965997458, 2965997459, 2965997460, 2965997453], "tags": {"addr:city": "Drochtersen", "addr:housenumber": "57", "addr:postcode": "21706", "addr:street": "Elbinsel Krautsand", "addr:suburb": "Krautsand", "amenity": "restaurant", "building": "yes", "name": "Restaurant Krutsander", "opening_hours": "We-Su 17:00-22:00", "outdoor_seating": "yes", "website": "https://www.elbstrand-resort.de/restaurant-krutsander/"}}, {"type": "way", "id": 315725220, "nodes": [3218561762, 3218561773, 3218561772, 3218561777, 3218561774, 3218561780, 3218561778, 3218561768, 3218561766, 3218561760, 3218561759, 3218561751, 3218561756, 3218561763, 3218561762], "tags": {"amenity": "restaurant", "building": "yes", "cuisine": "regional", "name": "R\u00fcsch\u00b4s Sommergarten", "tourism": "guest_house", "wheelchair": "limited"}}, {"type": "way", "id": 326133125, "nodes": [3327486633, 3327486634, 3327486635, 3327486636, 3327486637, 3327486638, 3327486639, 3327486633], "tags": {"amenity": "restaurant", "building": "yes", "cuisine": "turkish", "name": "XXL Diner", "wheelchair": "no"}}, {"type": "way", "id": 326133138, "nodes": [3327488499, 3327488500, 3327488501, 3327488502, 3327488503, 3327488504, 3327488510, 3327488505, 3327488506, 3327488507, 3327488508, 3327488509, 3327488499], "tags": {"amenity": "restaurant", "building": "yes", "wheelchair": "yes"}}, {"type": "way", "id": 348539374, "nodes": [3546585069, 3546585068, 3546585072, 3546585080, 3546585081, 3546585069], "tags": {"addr:city": "Oberndorf", "addr:country": "DE", "addr:housenumber": "36", "addr:postcode": "21787", "addr:street": "Hauptstra\u00dfe", "amenity": "restaurant", "building": "boat", "name": "Ostekieker", "opening_hours": "Mo-Su 11:30-24:00; Oct-Mar off"}}, {"type": "way", "id": 366729291, "nodes": [3707154989, 3707154985, 3707154993, 3707154986, 3707154989], "tags": {"addr:city": "Gl\u00fcckstadt", "addr:country": "DE", "addr:housenumber": "53", "addr:postcode": "25348", "addr:street": "Am Hafen", "amenity": "restaurant", "building": "yes", "cuisine": "international", "delivery": "no", "name": "gl\u00fccklich@Strandgut", "opening_hours": "Tu,We 12:00-22:00; Th,Su 10:00-22:00; Fr,Sa 10:00-24:00", "outdoor_seating": "yes", "wheelchair": "limited"}}, {"type": "way", "id": 424765305, "nodes": [4241483049, 4241483050, 4241483048, 4241483047, 4241483046, 4241483049], "tags": {"name": "NETTCHEN Bistro & Caf\u00e9", "wheelchair": "yes", "addr:city": "Gl\u00fcckstadt", "addr:country": "DE", "addr:housenumber": "1A", "addr:postcode": "25348", "addr:street": "Am Hafen", "amenity": "restaurant", "building": "yes", "cuisine": "regional", "phone": "+49 4124 5898782", "toilets:wheelchair": "yes", "website": "http://www.nettchen-hafen.de/pages/home.html"}}, {"type": "way", "id": 432920287, "nodes": [4318489441, 384602547, 4318489438, 4318489437, 4318489441], "tags": {"addr:city": "Gl\u00fcckstadt", "addr:country": "DE", "addr:housenumber": "10", "addr:postcode": "25348", "addr:street": "Sperforkenweg", "amenity": "restaurant", "building": "house", "name": "Elbsaal"}}, {"type": "way", "id": 558728534, "nodes": [5389185085, 449093313, 5389185084, 5389185080, 5389185079, 5389185081, 5389185077, 5389185074, 5389185078, 5389185082, 5389185083, 5389185085], "tags": {"amenity": "restaurant", "addr:city": "Gl\u00fcckstadt", "addr:country": "DE", "addr:housenumber": "16", "addr:postcode": "25348", "addr:street": "An der Chaussee", "building": "yes", "name": "Tivoli"}}, {"type": "way", "id": 663262289, "nodes": [6208494731, 8606617020, 8606617019, 6208494732, 6208494733, 8606617022, 8606617021, 6208494734, 6208494735, 6208494736, 6208494731], "tags": {"amenity": "restaurant", "building": "yes", "cuisine": "turkish", "name": "By Deniz"}}]}