{"version": 0.6, "generator": "Overpass API 0.7.59 e21c39fe", "osm3s": {"timestamp_osm_base": "2022-11-28T21:12:24Z", "copyright": "The data included in this document is from www.openstreetmap.org. The data is made available under ODbL."}, "elements": [{"type": "node", "id": 262390793, "lat": 53.5712359, "lon": 10.1153859, "tags": {"amenity": "bar", "name": "Amer's"}}, {"type": "node", "id": 277087374, "lat": 53.570528, "lon": 9.6962381, "tags": {"alt_name": "28 Grad - Beachclub", "amenity": "bar", "name": "28\u00b0 - Strandbad Wedel", "note": "Beach Club", "opening_hours": "\"Bei sch\u00f6nem Wetter ab 12 Uhr geo \"", "toilets:wheelchair": "yes", "website": "http://www.28grad.net", "wheelchair": "no", "wheelchair:description": "\"Beachclub\" mit schmalen Holzstegen. Umsetzen schwer, da St\u00fchle komplett im Sand. Befahrbare Toilette nebenan."}}, {"type": "node", "id": 290636389, "lat": 53.5625379, "lon": 9.9643633, "tags": {"opening_hours": "14:00+", "wheelchair": "limited", "website": "http://goldfischglas.de", "addr:city": "Hamburg", "addr:country": "DE", "addr:housenumber": "30", "addr:postcode": "20357", "addr:street": "Bartelsstra\u00dfe", "amenity": "bar", "email": "kontakt@goldfischglas.de", "name": "Goldfischglas", "operator": "GoldfischGlas GmbH", "toilets:wheelchair": "no"}}, {"type": "node", "id": 298579402, "lat": 53.6415049, "lon": 10.0373367, "tags": {"addr:city": "Hamburg", "addr:country": "DE", "addr:housenumber": "55 a", "addr:postcode": "22339", "addr:street": "Hummelsb\u00fcttler Hauptstra\u00dfe", "amenity": "bar"}}, {"type": "node", "id": 300904873, "lat": 53.5763167, "lon": 9.9694954, "tags": {"wheelchair": "no", "website": "http://baradona.com/", "smoking": "no", "phone": "+49 40 42 10 20 50", "addr:city": "Hamburg", "addr:country": "DE", "addr:housenumber": "95", "addr:postcode": "20253", "addr:street": "Bismarckstra\u00dfe", "amenity": "bar", "cuisine": "mexican", "description": "Tapas, Salate, Pasta, Pizza, Toast, Sopas", "email": "corrado@baradona.de", "name": "Baradona", "opening_hours": "Su-Fr 18:00+; Sa 20:00+", "operator": "Corrado De Ponte"}}, {"type": "node", "id": 345201279, "lat": 53.5595949, "lon": 9.9894801}, {"type": "node", "id": 345201281, "lat": 53.5597186, "lon": 9.9895029}, {"type": "node", "id": 345201282, "lat": 53.5597048, "lon": 9.9896387}, {"type": "node", "id": 345201284, "lat": 53.559584, "lon": 9.9895878}, {"type": "node", "id": 351138166, "lat": 53.5527507, "lon": 9.923955, "tags": {"addr:city": "Hamburg", "addr:country": "DE", "addr:housenumber": "81", "addr:postcode": "22763", "addr:street": "Gro\u00dfe Brunnenstra\u00dfe", "amenity": "bar", "name": "Nostalgia Bar"}}, {"type": "node", "id": 364138847, "lat": 53.5534186, "lon": 9.9798395, "tags": {"website": "http://www.oorlam.de/", "phone": "+49 176 34367697", "opening_hours": "Tu-Su 16:00-00:00; Th-Sa 00:00-01:00; Sa, Su 15:00-16:00", "name": "Oorlam", "addr:housenumber": "29", "addr:street": "Kohlh\u00f6fen", "amenity": "bar"}}, {"type": "node", "id": 366994064, "lat": 53.5980635, "lon": 9.8614674, "tags": {"amenity": "bar", "name": "Musti"}}, {"type": "node", "id": 437355075, "lat": 53.5497242, "lon": 9.9608715, "tags": {"addr:city": "Hamburg", "addr:country": "DE", "addr:housenumber": "102", "addr:postcode": "20359", "addr:street": "Reeperbahn", "amenity": "bar", "name": "Albers Bar", "website": "http://www.albers-bar.de/", "wheelchair": "yes"}}, {"type": "node", "id": 440176597, "lat": 53.5817684, "lon": 9.9775181}, {"type": "node", "id": 440176598, "lat": 53.5818709, "lon": 9.9776425}, {"type": "node", "id": 440176599, "lat": 53.5818325, "lon": 9.9778016}, {"type": "node", "id": 440176600, "lat": 53.5817309, "lon": 9.977606}, {"type": "node", "id": 440661426, "lat": 53.5817532, "lon": 9.9777054}, {"type": "node", "id": 440661427, "lat": 53.5817736, "lon": 9.9776579}, {"type": "node", "id": 490185871, "lat": 53.5492265, "lon": 9.9848943, "tags": {"amenity": "bar", "name": "Erste Liebe Bar", "wheelchair": "no"}}, {"type": "node", "id": 501590852, "lat": 53.5694668, "lon": 10.0275389, "tags": {"wheelchair": "no", "name": "Cocktrail Bar", "addr:city": "Hamburg", "addr:country": "DE", "addr:housenumber": "12", "addr:postcode": "22087", "addr:street": "Sch\u00fcrbeker Stra\u00dfe", "amenity": "bar", "contact:email": "kontakt@cocktrail.de", "contact:fax": "+49 (0)40 22692056", "contact:phone": "+49 (0)40 22692055", "contact:website": "http://www.cocktrail.de/"}}, {"type": "node", "id": 534837381, "lat": 53.5620446, "lon": 9.9528094}, {"type": "node", "id": 534837382, "lat": 53.5620502, "lon": 9.9527687}, {"type": "node", "id": 534837383, "lat": 53.5622399, "lon": 9.9528912}, {"type": "node", "id": 534837384, "lat": 53.5622201, "lon": 9.9527144}, {"type": "node", "id": 534837392, "lat": 53.5621338, "lon": 9.9529209}, {"type": "node", "id": 535194978, "lat": 53.4634766, "lon": 9.9808718, "tags": {"amenity": "bar", "name": "Brazil Bar"}}, {"type": "node", "id": 536391118, "lat": 53.5554045, "lon": 10.0158814, "tags": {"payment:cash": "yes", "name": "Bar", "addr:city": "Hamburg", "addr:housenumber": "63", "addr:postcode": "20099", "addr:street": "Steindamm", "amenity": "bar", "internet_access": "yes", "level": "0", "operator": "ARCOTEL Rubin", "outdoor_seating": "no", "payment:coins": "yes", "payment:credit_cards": "yes", "payment:debit_cards": "yes", "payment:girocard": "yes", "payment:maestro": "yes", "payment:mastercard": "yes", "payment:notes": "yes", "payment:visa": "yes", "smoking": "outside", "wheelchair": "yes"}}, {"type": "node", "id": 537516635, "lat": 53.5575214, "lon": 10.012043, "tags": {"wheelchair": "no", "smoking": "dedicated", "name": "Bellini Bar", "amenity": "bar"}}, {"type": "node", "id": 586217084, "lat": 53.5939934, "lon": 10.0153583, "tags": {"amenity": "bar", "name": "Downtown Bluesclub", "wheelchair": "limited"}}, {"type": "node", "id": 592581944, "lat": 53.5942724, "lon": 10.0164008, "tags": {"amenity": "bar", "name": "El Ray", "wheelchair": "no"}}, {"type": "node", "id": 603248363, "lat": 53.5727173, "lon": 10.0161224, "tags": {"opening_hours": "Th-Su 19:00+", "website": "http://www.caipi-colada.de/", "amenity": "bar", "email": "Kontakt@caipi-colada.de", "name": "Caipi Colada", "phone": "+49 40 2296329"}}, {"type": "node", "id": 610373010, "lat": 53.6529285, "lon": 10.1031817}, {"type": "node", "id": 610373011, "lat": 53.6529538, "lon": 10.1032966}, {"type": "node", "id": 610373012, "lat": 53.6525289, "lon": 10.1034324}, {"type": "node", "id": 610373018, "lat": 53.6528187, "lon": 10.1033814}, {"type": "node", "id": 675039323, "lat": 53.483399, "lon": 10.1623731}, {"type": "node", "id": 675039325, "lat": 53.4833337, "lon": 10.1623177}, {"type": "node", "id": 675039327, "lat": 53.4833134, "lon": 10.1625135}, {"type": "node", "id": 675039329, "lat": 53.4833726, "lon": 10.1625206}, {"type": "node", "id": 677298673, "lat": 53.5715458, "lon": 9.9860083, "tags": {"addr:city": "Hamburg", "addr:country": "DE", "addr:housenumber": "8", "addr:postcode": "20146", "addr:street": "Hallerplatz", "amenity": "bar", "name": "Windschirm", "wheelchair": "limited"}}, {"type": "node", "id": 706304102, "lat": 53.706985, "lon": 9.9899916, "tags": {"addr:city": "Norderstedt", "addr:housenumber": "72-76", "addr:postcode": "22846", "addr:street": "Rathausallee", "amenity": "bar", "name": "Lenci\u00b4s DrinX", "wheelchair": "yes"}}, {"type": "node", "id": 761660789, "lat": 53.5932594, "lon": 9.9895526, "tags": {"amenity": "bar", "name": "Koops Bar", "smoking": "yes", "wheelchair": "no"}}, {"type": "node", "id": 768505770, "lat": 53.5651747, "lon": 9.9606469, "tags": {"wheelchair": "no", "addr:city": "Hamburg", "addr:country": "DE", "addr:housenumber": "66", "addr:postcode": "20357", "addr:street": "Amandastra\u00dfe", "amenity": "bar", "name": "Amanda 66", "toilets:wheelchair": "no"}}, {"type": "node", "id": 778255350, "lat": 53.5697351, "lon": 9.9464713, "tags": {"amenity": "bar", "name": "Astra"}}, {"type": "node", "id": 817651042, "lat": 53.6181749, "lon": 10.091964, "tags": {"amenity": "bar", "name": "Dingsda"}}, {"type": "node", "id": 844588934, "lat": 53.5482126, "lon": 9.9650197, "tags": {"contact:phone": "+49 40 3175078", "wheelchair": "yes", "name": "The Chug Club", "addr:city": "Hamburg", "addr:country": "DE", "addr:housenumber": "13", "addr:postcode": "20359", "addr:street": "Taubenstra\u00dfe", "amenity": "bar"}}, {"type": "node", "id": 938442575, "lat": 53.5418412, "lon": 10.1025218, "tags": {"addr:city": "Hamburg", "addr:country": "DE", "addr:housenumber": "22", "addr:postcode": "22111", "addr:street": "Schiffbeker Weg", "amenity": "bar", "cuisine": "german", "name": "Club Europa", "wheelchair": "yes"}}, {"type": "node", "id": 957178948, "lat": 53.5826371, "lon": 10.0551839, "tags": {"website": "https://www.homeland.bar/", "addr:housenumber": "46", "addr:street": "Krausestra\u00dfe", "amenity": "bar", "name": "Homeland", "opening_hours": "Mo-Fr 16:00-02:00, Fr-Sa 16:00-03:00"}}, {"type": "node", "id": 957281724, "lat": 53.581193, "lon": 10.0093063, "tags": {"addr:city": "Hamburg", "addr:country": "DE", "addr:housenumber": "33", "addr:postcode": "22301", "addr:street": "Dorotheenstra\u00dfe", "amenity": "bar", "name": "Bar du Nord", "opening_hours": "Oct-Mar: Mo-Th 19:00-03:00, Oct-Mar: Fr,Sa 19:00-05:00, Apr-Sep: Mo-Th 20:00-03:00, Apr-Sep: Fr,Sa 20:00-05:00", "phone": "+49 40 27806225", "website": "https://www.bardunord.de/", "wheelchair": "no"}}, {"type": "node", "id": 984999460, "lat": 53.5168428, "lon": 9.9888964, "tags": {"amenity": "bar", "name": "Pianola Bar"}}, {"type": "node", "id": 1004006265, "lat": 53.5512483, "lon": 9.9610691, "tags": {"amenity": "bar", "name": "Blauer Peter", "toilets:wheelchair": "no", "wheelchair": "yes"}}, {"type": "node", "id": 1004006269, "lat": 53.5483459, "lon": 9.9609387, "tags": {"amenity": "bar", "name": "Frieda B.", "wheelchair": "limited"}}, {"type": "node", "id": 1004006273, "lat": 53.5511629, "lon": 9.9610703, "tags": {"amenity": "bar", "name": "Roschinsky's", "wheelchair": "yes"}}, {"type": "node", "id": 1004006275, "lat": 53.5481948, "lon": 9.9603363, "tags": {"amenity": "bar", "name": "20 Flight Rock", "wheelchair": "limited"}}, {"type": "node", "id": 1004006276, "lat": 53.548165, "lon": 9.9602079, "tags": {"amenity": "bar", "name": "Cobra Bar St. Pauli", "toilets:wheelchair": "no", "wheelchair": "limited"}}, {"type": "node", "id": 1004006284, "lat": 53.5502774, "lon": 9.9614797, "tags": {"amenity": "bar", "name": "Ex-Sparr", "opening_hours": "Mo-Th 20:00-04:00, Fr-Sa 20:00-09:00, Su 20:00-04:00", "phone": "+49 40 34993511", "website": "https://www.ex-sparr.de/", "wheelchair": "limited"}}, {"type": "node", "id": 1004006286, "lat": 53.5508076, "lon": 9.9614461, "tags": {"wheelchair": "no", "name": "Lunacy", "amenity": "bar"}}, {"type": "node", "id": 1022509474, "lat": 53.5475386, "lon": 9.9620028, "tags": {"amenity": "bar", "name": "Komet", "wheelchair": "no"}}, {"type": "node", "id": 1077515423, "lat": 53.5533976, "lon": 9.9293056, "tags": {"addr:city": "Hamburg", "addr:housenumber": "142", "addr:postcode": "22765", "addr:street": "Bahrenfelder Stra\u00dfe", "amenity": "bar", "name": "Shisha Lounge La Vie", "source": "survey"}}, {"type": "node", "id": 1088043269, "lat": 53.55276, "lon": 9.961079, "tags": {"name": "Broken Paradise", "addr:housenumber": "2", "addr:street": "Wohlwillstra\u00dfe", "amenity": "bar"}}, {"type": "node", "id": 1184555741, "lat": 53.5587774, "lon": 9.9645758, "tags": {"opening_hours": "Su-Th 12:00-02:00, Fr,Sa 12:00-04:00", "wheelchair": "limited", "toilets:wheelchair": "no", "name": "Zoe II", "description": "viele alte Sofas", "amenity": "bar", "addr:street": "Neuer Pferdemarkt", "addr:housenumber": "17", "addr:postcode": "20359"}}, {"type": "node", "id": 1285341783, "lat": 53.5308414, "lon": 10.2516, "tags": {"addr:city": "Reinbek", "addr:country": "DE", "addr:housenumber": "36", "addr:postcode": "21465", "addr:street": "Dorfstra\u00dfe", "amenity": "bar", "name": "Kleiner Rasthof", "tourism": "guest_house"}}, {"type": "node", "id": 1411403282, "lat": 53.5503892, "lon": 9.9603232, "tags": {"amenity": "bar", "contact:email": "info@wunderbar-hamburg.de", "contact:facebook": "https://www.facebook.com/wunderbar.hamburg", "contact:instagram": "https://www.instagram.com/wunderbarhamburg/", "contact:twitter": "http://www.revenge.co.uk/home/bar-revenge/", "contact:website": "http://www.wunderbar-hamburg.de", "contact:youtube": "https://www.youtube.com/user/wunderbarhamburg", "gay": "yes", "lgbtq": "primary", "name": "WunderBar", "opening_hours": "Mo-Su 22:00+", "operator": "WunderBar GbR", "wheelchair": "no"}}, {"type": "node", "id": 1426112777, "lat": 53.5591064, "lon": 9.8873719, "tags": {"amenity": "bar", "name": "L\u00fctt D\u00f6ns", "wheelchair": "limited"}}, {"type": "node", "id": 1428596751, "lat": 53.4623642, "lon": 9.9789709}, {"type": "node", "id": 1428596756, "lat": 53.4623831, "lon": 9.9791371}, {"type": "node", "id": 1428596764, "lat": 53.4624155, "lon": 9.9790108}, {"type": "node", "id": 1446368500, "lat": 53.4623305, "lon": 9.9791014}, {"type": "node", "id": 1475044480, "lat": 53.6142925, "lon": 10.0788032, "tags": {"wheelchair": "limited", "website": "http://www.breakpoint-hamburg.de", "addr:housenumber": "11", "addr:postcode": "22179", "addr:street": "Bramfelder Dorfplatz", "amenity": "bar", "contact:phone": "+49 40 6424040", "name": "Break-Point Billard", "opening_hours": "Mo-Th 16:00-01:00, Fr 16:00-04:00, Sa 12:00-04:00, Su 12:00-01:00"}}, {"type": "node", "id": 1484580909, "lat": 53.5554464, "lon": 9.9876694, "tags": {"amenity": "bar", "name": "The Goose Club", "wheelchair": "limited"}}, {"type": "node", "id": 1486361657, "lat": 53.5909938, "lon": 10.0025925, "tags": {"addr:city": "Hamburg", "addr:country": "DE", "addr:housenumber": "176", "addr:postcode": "22299", "addr:street": "Dorotheenstra\u00dfe", "amenity": "bar", "bar": "wine_bar", "description": "Weinbar", "name": "Dorotheum", "source": "survey", "website": "https://www.weinbar-hamburg.de/"}}, {"type": "node", "id": 1496488001, "lat": 53.5578957, "lon": 9.9585746}, {"type": "node", "id": 1496488004, "lat": 53.5579266, "lon": 9.9583654}, {"type": "node", "id": 1496488009, "lat": 53.5579611, "lon": 9.958602}, {"type": "node", "id": 1496488012, "lat": 53.5579921, "lon": 9.9583928}, {"type": "node", "id": 1503302191, "lat": 53.5719588, "lon": 9.9611663, "tags": {"wheelchair": "no", "name": "Rye & Dry", "amenity": "bar"}}, {"type": "node", "id": 1539916918, "lat": 53.550623, "lon": 9.969368, "tags": {"addr:city": "Hamburg", "addr:housenumber": "1", "addr:postcode": "20359", "addr:street": "Millerntorplatz", "amenity": "bar", "atm": "yes", "food": "yes", "internet_access": "wlan", "name": "Zwick", "opening_hours": "Mo-Fr 11:30+, Sa,Su 12:00+", "outdoor_seating": "yes", "smoking": "outside", "source": "survey; Bing", "toilets:wheelchair": "no", "url": "http://www.zwick4u.com/kontakt_anfahrt_de_692.html", "wheelchair": "yes", "wheelchair:description": "Die Bar ist zwar grunds\u00e4tzlich rollstuhlgeeignet, die Einrichtung besteht aber fast ausschlie\u00dflich aus Stehtischen und hohen Barhockern."}}, {"type": "node", "id": 1562385911, "lat": 53.563013, "lon": 9.9611318, "tags": {"amenity": "bar", "name": "Thier", "outdoor_seating": "yes", "wheelchair": "limited"}}, {"type": "node", "id": 1564055707, "lat": 53.5504572, "lon": 9.9820739, "tags": {"addr:city": "Hamburg", "addr:country": "DE", "addr:housenumber": "10", "addr:postcode": "20459", "addr:street": "Alter Steinweg", "amenity": "bar", "contact:phone": "+49 40 343878", "contact:website": "http://www.cotton-club.de/", "name": "Cotton Club"}}, {"type": "node", "id": 1615477045, "lat": 53.5534941, "lon": 10.0148111, "tags": {"amenity": "bar", "name": "Toms Saloon", "opening_hours": "Mo-Su 22:00-24:00+", "url": "http://www.toms-hamburg.de", "wifi": "no"}}, {"type": "node", "id": 1640543955, "lat": 53.5458684, "lon": 10.0183801, "tags": {"amenity": "bar", "name": "Kai 10"}}, {"type": "node", "id": 1665251473, "lat": 53.4443394, "lon": 9.9989442, "tags": {"amenity": "bar", "name": "Bumerang", "opening_hours": "Mo-Sa 15:00+; Su 11:00+"}}, {"type": "node", "id": 1725859357, "lat": 53.4558348, "lon": 9.9844343, "tags": {"amenity": "bar", "name": "Olympia", "wheelchair": "no"}}, {"type": "node", "id": 1742837198, "lat": 53.5635864, "lon": 9.9592948, "tags": {"wheelchair": "limited", "addr:city": "Hamburg", "addr:housenumber": "275", "addr:postcode": "22769", "addr:street": "Max-Brauer-Allee", "amenity": "bar", "internet_access": "wlan", "name": "Craft Bier Bar", "name:old": "Good Old Days", "opening_hours": "Tu-We 20:00-02:00, Th 20:00-03:00, Fr-Sa 20:00-05:00", "smoking": "no", "toilets:wheelchair": "no"}}, {"type": "node", "id": 1752589579, "lat": 53.5455464, "lon": 9.974007, "tags": {"addr:city": "Hamburg", "addr:country": "DE", "addr:housenumber": "25", "addr:postcode": "20459", "addr:street": "Ditmar-Koel-Stra\u00dfe", "amenity": "bar", "description": "Reiseb\u00fcro mit Bar, Cafe und Cocktails", "name": "Cruise Lounge Hamburg", "phone": "+49 40 609465660", "shop": "travel_agency", "website": "http://www.cruiseloungehamburg.de", "wheelchair": "yes", "wheelchair:description": "Die Einrichtung ist barrierefrei und hat ein Behindertengerechtes WC."}}, {"type": "node", "id": 1775997376, "lat": 53.5498254, "lon": 9.9625274, "tags": {"amenity": "bar", "name": "Old Sailor", "wheelchair": "no", "wheelchair:description": "Nur eine Stufe"}}, {"type": "node", "id": 1819096931, "lat": 53.4832241, "lon": 10.1624683}, {"type": "node", "id": 1819096932, "lat": 53.4832582, "lon": 10.1622795}, {"type": "node", "id": 1819096935, "lat": 53.4833172, "lon": 10.1624926}, {"type": "node", "id": 1819096937, "lat": 53.48333, "lon": 10.1623383}, {"type": "node", "id": 1823160463, "lat": 53.573178, "lon": 10.071089, "tags": {"amenity": "bar", "description": "Shisha Caf\u00e9, Cocktail Bar", "lastcheck": "2012-07-12", "name": "Zahara Shisha", "opening_hours": "Mo-Th 12:00-02:00, Fr,Sa 12:00+, Su 14:00-02:00", "wheelchair": "no"}}, {"type": "node", "id": 1862001245, "lat": 53.6403802, "lon": 9.9468394, "tags": {"addr:city": "Hamburg", "addr:country": "DE", "addr:housenumber": "11", "addr:street": "Moorflagen", "addr:suburb": "Niendorf", "amenity": "bar", "name": "Bar Horizont Niendorf"}}, {"type": "node", "id": 1869437941, "lat": 53.5534209, "lon": 9.9580457, "tags": {"wheelchair": "yes", "addr:city": "Hamburg", "addr:country": "DE", "addr:housenumber": "2", "addr:postcode": "22767", "addr:street": "Am Brunnenhof", "amenity": "bar", "name": "Pelican", "toilets:wheelchair": "no"}}, {"type": "node", "id": 1887413582, "lat": 53.5489153, "lon": 9.9606348, "tags": {"amenity": "bar", "name": "Quer Club", "website": "https://quer-club.de/", "wheelchair": "limited"}}, {"type": "node", "id": 1909893880, "lat": 53.5501691, "lon": 9.9945708, "tags": {"amenity": "bar", "name": "Le Lion", "wheelchair": "no"}}, {"type": "node", "id": 1912668192, "lat": 53.5554579, "lon": 9.987288, "tags": {"name": "Meyer Lansky's", "amenity": "bar", "opening_hours": "Mo-Fr 16:00-03:00, Sa 16:00-05:00, PH,Su 18:00-03:00", "wheelchair": "no"}}, {"type": "node", "id": 1936747566, "lat": 53.5524087, "lon": 9.9878676, "tags": {"amenity": "bar", "name": "Bricks", "opening_hours": "12:00-23:00", "wheelchair": "yes"}}, {"type": "node", "id": 1953442959, "lat": 53.5624979, "lon": 9.961774, "tags": {"website": "www.daniela-bar.de", "addr:city": "Hamburg", "addr:country": "DE", "addr:housenumber": "86", "addr:postcode": "20357", "addr:street": "Schulterblatt", "amenity": "bar", "name": "Daniela Bar", "opening_hours": "May-Sep: 18:00+; Oct-Apr: 21:00+", "smoking": "yes", "wheelchair": "limited", "wheelchair:description": "kleien Rampe am Eingang"}}, {"type": "node", "id": 1967097430, "lat": 53.4646258, "lon": 9.9601113, "tags": {"wheelchair": "limited", "amenity": "bar", "level": "0", "name": "Heimfelder Bar", "old_name": "Caf\u00e9 Leben", "opening_hours": "Mo-Th 13:00-04:00, Fr 13:00-06:00, Sa 12:00-06:00, Su 12:00-04:00", "outdoor_seating": "yes", "smoking": "yes", "toilets": "yes", "toilets:access": "customers"}}, {"type": "node", "id": 1967098794, "lat": 53.4632453, "lon": 9.9531583, "tags": {"smoking": "yes", "phone": "+49 40 70970898", "amenity": "bar", "description": "K\u00f6Pi bei Angelo", "level": "0", "name": "K\u00f6pi Heimfeld", "outdoor_seating": "yes"}}, {"type": "node", "id": 2024826097, "lat": 53.5308625, "lon": 9.9957211, "tags": {"amenity": "bar"}}, {"type": "node", "id": 2051207933, "lat": 53.5532908, "lon": 9.9578087, "tags": {"addr:city": "Hamburg", "addr:country": "DE", "addr:housenumber": "28", "addr:postcode": "22767", "addr:street": "Paul-Roosen-Stra\u00dfe", "amenity": "bar", "name": "Ginst", "opening_hours": "Mo-Th 18:00-02:00; Fr-Sa 18:00-04:00; Su 18:00-24:00", "phone": "+49 40 76975926", "toilets:wheelchair": "no", "wheelchair": "yes"}}, {"type": "node", "id": 2051218876, "lat": 53.5585878, "lon": 9.9591856, "tags": {"amenity": "bar", "addr:street": "Bernstorffstra\u00dfe", "name": "S\u00fcnde Bar", "wheelchair": "no", "addr:city": "Hamburg", "addr:country": "DE", "addr:housenumber": "144", "addr:postcode": "22767"}}, {"type": "node", "id": 2070225228, "lat": 53.5562922, "lon": 9.9634972, "tags": {"name": "Superspeed", "amenity": "bar"}}, {"type": "node", "id": 2070259277, "lat": 53.5552094, "lon": 9.9618955, "tags": {"wheelchair": "limited", "contact:phone": "+4915110226184", "contact:website": "https://www.facebook.com/Otzentreff-122658841124331/", "phone": "+4915110226184", "website": "https://www.facebook.com/Otzentreff-122658841124331", "email": "otzentreff@web.de", "addr:city": "Hamburg", "addr:housenumber": "4", "addr:postcode": "22767", "addr:street": "Otzenstra\u00dfe", "amenity": "bar", "contact:email": "otzentreff@web.de", "level": "0", "name": "Otzentreff", "operator": "Christian B\u00f6se", "smoking": "yes"}}, {"type": "node", "id": 2070310984, "lat": 53.5538423, "lon": 9.9634297, "tags": {"addr:city": "Hamburg", "addr:country": "DE", "addr:housenumber": "78", "addr:postcode": "20359", "addr:street": "Hein-Hoyer-Stra\u00dfe", "amenity": "bar", "contact:facebook": "https://www.facebook.com/ShebeenSanktPauli/", "contact:phone": "+49 171 1248500", "name": "Shebeen", "opening_hours": "Tu-Th 20:00-02:00, Fr-Sa 20:00-05:00", "wheelchair": "no"}}, {"type": "node", "id": 2071556383, "lat": 53.5541984, "lon": 9.9989018, "tags": {"wheelchair": "no", "website": "https://www.ciudiebar.de/", "name": "Ciu' Die Bar", "addr:housenumber": "14-15", "addr:postcode": "20095", "addr:street": "Ballindamm", "amenity": "bar"}}, {"type": "node", "id": 2151596399, "lat": 53.5514138, "lon": 9.9813598, "tags": {"amenity": "bar", "name": "Bambus"}}, {"type": "node", "id": 2164473638, "lat": 53.6525486, "lon": 10.1035222}, {"type": "node", "id": 2164473686, "lat": 53.6528132, "lon": 10.1033563}, {"type": "node", "id": 2218638257, "lat": 53.4870555, "lon": 10.2120102, "tags": {"amenity": "bar", "name": "November", "wheelchair": "limited"}}, {"type": "node", "id": 2218638269, "lat": 53.4848901, "lon": 10.218307, "tags": {"amenity": "bar", "name": "Bla Bla"}}, {"type": "node", "id": 2262102697, "lat": 53.5699402, "lon": 9.9505221, "tags": {"outdoor_seating": "yes", "amenity": "bar", "brewery": "yes;Jever;Veltins;Andechs", "name": "Bar Jasou", "opening_hours": "PH,Mo-Su 16:00-22:00+"}}, {"type": "node", "id": 2265800359, "lat": 53.5670837, "lon": 9.9557691, "tags": {"amenity": "bar", "end_date": "2020", "name": "Bar Sabrina"}}, {"type": "node", "id": 2275820603, "lat": 53.4953209, "lon": 10.2057999}, {"type": "node", "id": 2275820610, "lat": 53.4953625, "lon": 10.2059398}, {"type": "node", "id": 2275820615, "lat": 53.4953907, "lon": 10.205914}, {"type": "node", "id": 2275820621, "lat": 53.4954406, "lon": 10.206061}, {"type": "node", "id": 2275820623, "lat": 53.4954689, "lon": 10.2056781}, {"type": "node", "id": 2275820627, "lat": 53.4954813, "lon": 10.2062335}, {"type": "node", "id": 2275820628, "lat": 53.4954889, "lon": 10.2062032}, {"type": "node", "id": 2275820630, "lat": 53.4954911, "lon": 10.2062088}, {"type": "node", "id": 2275820631, "lat": 53.4955035, "lon": 10.2057986}, {"type": "node", "id": 2275820633, "lat": 53.4955089, "lon": 10.2062543}, {"type": "node", "id": 2275820634, "lat": 53.4955094, "lon": 10.2057371}, {"type": "node", "id": 2275820636, "lat": 53.4955207, "lon": 10.2062231}, {"type": "node", "id": 2275820637, "lat": 53.4955228, "lon": 10.2057834}, {"type": "node", "id": 2275820639, "lat": 53.4955287, "lon": 10.2057206}, {"type": "node", "id": 2275820640, "lat": 53.4955339, "lon": 10.2061221}, {"type": "node", "id": 2275820641, "lat": 53.4955483, "lon": 10.2062422}, {"type": "node", "id": 2275820642, "lat": 53.4955535, "lon": 10.2060982}, {"type": "node", "id": 2275820645, "lat": 53.4955687, "lon": 10.2062209}, {"type": "node", "id": 2275820646, "lat": 53.4955728, "lon": 10.2061411}, {"type": "node", "id": 2275820647, "lat": 53.4956213, "lon": 10.2060011}, {"type": "node", "id": 2275820648, "lat": 53.4956384, "lon": 10.2059864}, {"type": "node", "id": 2275820649, "lat": 53.4956399, "lon": 10.2060466}, {"type": "node", "id": 2292314154, "lat": 53.5596397, "lon": 9.9896201}, {"type": "node", "id": 2292314155, "lat": 53.5596413, "lon": 9.9896043}, {"type": "node", "id": 2304921253, "lat": 53.5561313, "lon": 9.9823198, "tags": {"amenity": "bar", "name": "H2O", "operator": "Scandic Emporio", "smoking": "no", "toilets:wheelchair": "yes", "wheelchair": "yes"}}, {"type": "node", "id": 2321859551, "lat": 53.556551, "lon": 9.962768, "tags": {"name": "Ban Canteen", "amenity": "bar", "addr:street": "Beim Gr\u00fcnen J\u00e4ger", "addr:housenumber": "1", "addr:postcode": "20359"}}, {"type": "node", "id": 2322117002, "lat": 53.5557074, "lon": 9.9521282, "tags": {"amenity": "bar", "addr:street": "Steinheimplatz", "name": "La Notte", "addr:postcode": "22767", "addr:housenumber": "10"}}, {"type": "node", "id": 2329586860, "lat": 53.546515, "lon": 10.0934048, "tags": {"addr:city": "Hamburg", "addr:country": "DE", "addr:housenumber": "85", "addr:postcode": "22111", "addr:street": "Washingtonallee", "amenity": "bar", "name": "85-Lounge", "opening_hours": "Mo-Th 16:00-24:00, Fr-Sa 16:00-02:00, Su 17:00-24:00", "website": "http://www.85-lounge.de/"}}, {"type": "node", "id": 2410714109, "lat": 53.5580619, "lon": 10.0125186, "tags": {"amenity": "bar", "name": "Weinbar Collio", "opening_hours:signed": "no"}}, {"type": "node", "id": 2442305537, "lat": 53.57363, "lon": 10.0711939, "tags": {"amenity": "bar", "fixme": "Pr\u00fcfen ob noch vorhanden", "name": "Massari Lounge", "addr:city": "Hamburg", "addr:country": "DE", "addr:housenumber": "153", "addr:postcode": "22041", "addr:street": "Wandsbeker Marktstra\u00dfe"}}, {"type": "node", "id": 2457025699, "lat": 53.5430217, "lon": 9.9982349, "tags": {"wheelchair": "yes", "opening_hours": "Mo-Fr 18:00-02:00; Sa 20:00-02:00", "addr:city": "Hamburg", "addr:country": "DE", "addr:housenumber": "6", "addr:postcode": "20457", "addr:street": "Osakaallee", "amenity": "bar", "name": "Club 20457"}}, {"type": "node", "id": 2488926768, "lat": 53.5481339, "lon": 9.9634128, "tags": {"addr:city": "Hamburg", "addr:housenumber": "34", "addr:postcode": "20359", "addr:street": "Hopfenstra\u00dfe", "amenity": "bar", "name": "Menschenzoo Punkrockkneipe", "phone": "+49 40 39906413", "website": "https://menschenzoo.com/", "wheelchair": "no"}}, {"type": "node", "id": 2495419425, "lat": 53.5625634, "lon": 9.9616887, "tags": {"addr:city": "Hamburg", "addr:country": "DE", "addr:housenumber": "88", "addr:postcode": "20357", "addr:street": "Schulterblatt", "amenity": "bar", "name": "Katze", "opening_hours": "Mo-Th 15:00-24:00, Fr 18:00-03:00, Sa 13:00-03:00, Su 15:00-24:00", "outdoor_seating": "yes", "wheelchair": "no"}}, {"type": "node", "id": 2518063795, "lat": 53.5727464, "lon": 9.9593226, "tags": {"wheelchair": "limited", "amenity": "bar", "name": "Austerbar", "toilets:wheelchair": "no"}}, {"type": "node", "id": 2546824098, "lat": 53.5627155, "lon": 9.9497263, "tags": {"amenity": "bar", "addr:street": "Stresemannstra\u00dfe", "name": "Quatsch Comedy Club", "website": "https://www.quatsch-comedy-club.de/", "addr:housenumber": "163"}}, {"type": "node", "id": 2558979893, "lat": 53.5585786, "lon": 9.9674855, "tags": {"wheelchair": "yes", "addr:city": "Hamburg", "addr:country": "DE", "addr:housenumber": "4", "addr:postcode": "20357", "addr:street": "Sternstra\u00dfe", "amenity": "bar", "name": "Dschungel"}}, {"type": "node", "id": 2571620325, "lat": 53.5627207, "lon": 9.9641942, "tags": {"addr:city": "Hamburg", "addr:country": "DE", "addr:housenumber": "30", "addr:postcode": "20357", "addr:street": "Susannenstra\u00dfe", "amenity": "bar", "cuisine": "international", "description": "nicht zu laut sprechen", "name": "Diwan", "phone": "+49 40 23518281", "toilets:wheelchair": "no", "url": "http://www.yelp.de/biz/cafe-diwan-hamburg", "wheelchair": "limited"}}, {"type": "node", "id": 2573532791, "lat": 53.5523376, "lon": 9.9648819, "tags": {"wheelchair": "no", "addr:city": "Hamburg", "addr:housenumber": "96", "addr:postcode": "20359", "addr:street": "Clemens-Schultz-Stra\u00dfe", "amenity": "bar", "name": "M\u00f6we Sturzflug"}}, {"type": "node", "id": 2590306809, "lat": 53.5387375, "lon": 10.1221927, "tags": {"addr:city": "Hamburg", "addr:country": "DE", "addr:housenumber": "123", "addr:postcode": "22117", "addr:street": "M\u00f6llner Landstra\u00dfe", "amenity": "bar", "name": "Treffpunkt"}}, {"type": "node", "id": 2599320173, "lat": 53.5714837, "lon": 9.9882298, "tags": {"addr:city": "Hamburg", "addr:housenumber": "107", "addr:postcode": "20148", "addr:street": "Rothenbaumchaussee", "amenity": "bar", "name": "CavaRo Weinbar", "source": "survey", "wheelchair": "no"}}, {"type": "node", "id": 2622684453, "lat": 53.5638832, "lon": 9.9652092, "tags": {"wheelchair": "limited", "addr:housenumber": "99", "addr:street": "Schanzenstra\u00dfe", "amenity": "bar", "name": "Absinth", "opening_hours": "Tu-Sa 20:00+", "phone": "+49 176 2362 1956", "website": "http://www.absinth-bar.com"}}, {"type": "node", "id": 2626890506, "lat": 53.5882336, "lon": 10.0970395, "tags": {"addr:city": "Hamburg", "addr:country": "DE", "addr:housenumber": "128", "addr:postcode": "22047", "addr:street": "Friedrich-Ebert-Damm", "amenity": "bar", "name": "Bolero", "opening_hours": "Mo-Fr 11:30+; Sa 15:00+; Su 14:00+", "opening_hours:covid19": "off", "phone": "+49 40 69691202", "website": "https://wandsbek.bolerobar.de/"}}, {"type": "node", "id": 2660991563, "lat": 53.5814939, "lon": 10.0136338, "tags": {"name": "Berglund", "addr:city": "Hamburg", "addr:country": "DE", "addr:housenumber": "14", "addr:postcode": "22303", "addr:street": "Gertigstra\u00dfe", "amenity": "bar"}}, {"type": "node", "id": 2674896620, "lat": 53.4602959, "lon": 9.980365, "tags": {"amenity": "bar", "name": "Hypnotized", "outdoor_seating": "yes", "smoking": "yes"}}, {"type": "node", "id": 2749654388, "lat": 53.555934, "lon": 9.8649825, "tags": {"addr:city": "Hamburg", "addr:country": "DE", "addr:housenumber": "75", "addr:postcode": "22609", "addr:street": "Baron-Voght-Stra\u00dfe", "amenity": "bar", "name": "Redroom", "opening_hours": "We-Sa 18:00+", "phone": "+49 40 82244604", "website": "http://www.redroom-bar.de/"}}, {"type": "node", "id": 2894793540, "lat": 53.5488866, "lon": 9.9614373, "tags": {"addr:city": "Hamburg", "addr:housenumber": "15", "addr:postcode": "20359", "addr:street": "Hans-Albers-Platz", "amenity": "bar", "name": "Drafthouse", "smoking": "yes"}}, {"type": "node", "id": 2964077943, "lat": 53.5777828, "lon": 9.9778888, "tags": {"amenity": "bar", "name": "Wein Viertel", "addr:street": "Oberstra\u00dfe", "smoking": "outside", "wheelchair": "yes", "addr:city": "Hamburg", "addr:housenumber": "2", "addr:postcode": "20144"}}, {"type": "node", "id": 3011771833, "lat": 53.551108, "lon": 9.957165, "tags": {"amenity": "bar", "name": "Kiez Alm Hamburg", "opening_hours": "Th,Fr,Sa 22:00-06:00", "wheelchair": "limited"}}, {"type": "node", "id": 3034379335, "lat": 53.5498877, "lon": 9.9955347, "tags": {"amenity": "bar", "name": "Gugu", "opening_hours": "Mo-Th 16:00-24:00; Fr-Sa 16:00-02:00"}}, {"type": "node", "id": 3141379529, "lat": 53.5506565, "lon": 9.9611339, "tags": {"wheelchair": "limited", "addr:city": "Hamburg", "addr:country": "DE", "addr:housenumber": "11", "addr:postcode": "20359", "addr:street": "Hamburger Berg", "amenity": "bar", "name": "Barbarabar", "smoking": "separated", "website": "https://www.barbarabar.de/"}}, {"type": "node", "id": 3169294200, "lat": 53.555533, "lon": 9.9893599, "tags": {"amenity": "bar", "name": "Momo Bar"}}, {"type": "node", "id": 3255892127, "lat": 53.5511305, "lon": 9.9620902, "tags": {"addr:city": "Hamburg", "addr:housenumber": "89", "addr:postcode": "20359", "addr:street": "Simon-von-Utrecht-Stra\u00dfe", "alt_name": "Koralle", "amenity": "bar", "name": "KorallBar", "opening_hours": "Tu-Su 20:00+", "smoking": "yes"}}, {"type": "node", "id": 3267789736, "lat": 53.5458496, "lon": 9.9309547, "tags": {"addr:city": "Hamburg", "addr:housenumber": "4", "addr:postcode": "22765", "addr:street": "Rainvilleterrasse", "amenity": "bar", "name": "Rainville Elbterassen", "opening_hours": "11:30 - 17:00, 18:00 - 22:30", "phone": "+49 40 43216020", "website": "http://www.rainville-restaurant.de"}}, {"type": "node", "id": 3271049096, "lat": 53.5777005, "lon": 9.9512552, "tags": {"smoking": "outside", "phone": "+49 40 30729292", "outdoor_seating": "yes", "addr:city": "Hamburg", "addr:housenumber": "9", "addr:postcode": "20255", "addr:street": "Stellinger Weg", "amenity": "bar", "internet_access": "wlan", "name": "Mr. Ape", "opening_hours": "Su-Th 16:00-24:00; Fr-Sa 16:00-02:00", "payment:cash": "yes", "payment:credit_cards": "yes", "payment:debit_cards": "yes", "payment:girocard": "yes"}}, {"type": "node", "id": 3280992081, "lat": 53.5471488, "lon": 9.9631083, "tags": {"wheelchair": "yes", "name": "DAVID'S", "level": "0", "website": "https://www.empire-riverside.de/de/hotel-restaurant-bars-hamburg/", "addr:housename": "EMPIRE RIVERSIDE HOTEL", "amenity": "bar"}}, {"type": "node", "id": 3280992083, "lat": 53.5472091, "lon": 9.9633526, "tags": {"addr:housename": "EMPIRE RIVERSIDE HOTEL", "addr:housenumber": "97", "addr:street": "Bernhard-Nocht-Stra\u00dfe", "amenity": "bar", "description": "Dresscode: elegant, nicht sportlich", "level": "20", "name": "20up", "opening_hours": "Mo-Th,Su 18:00-02:00; Fr-Sa 18:00-03:00", "toilets": "yes", "website": "https://www.empire-riverside.de/de/hotel-restaurant-bars-hamburg/", "wheelchair": "yes"}}, {"type": "node", "id": 3281180289, "lat": 53.558903, "lon": 10.0250454, "tags": {"amenity": "bar", "internet_access": "yes", "internet_access:fee": "no", "level": "0", "name": "Novo2", "opening_hours": "10:00-01:00", "wheelchair": "yes"}}, {"type": "node", "id": 3389802016, "lat": 53.5711793, "lon": 10.0283061, "tags": {"wheelchair": "limited", "addr:city": "Hamburg", "addr:country": "DE", "addr:housenumber": "13", "addr:postcode": "22083", "addr:street": "Hamburger Stra\u00dfe", "amenity": "bar", "name": "Freundlich + Kompetent", "smoking": "no", "website": "https://www.freundlichundkompetent.de/"}}, {"type": "node", "id": 3396311415, "lat": 53.5646391, "lon": 9.9705488, "tags": {"website": "http://www.moevenpick-hotels.com/de/europe/germany/hamburg/hotel-hamburg/restaurants/restaurants/cave-bar/", "phone": "+49 40 334411 0", "addr:city": "Hamburg", "addr:housenumber": "6", "addr:postcode": "20357", "addr:street": "Sternschanze", "amenity": "bar", "name": "Cave Bar", "operator": "M\u00f6venpick"}}, {"type": "node", "id": 3402326401, "lat": 53.4361615, "lon": 9.933786, "tags": {"amenity": "bar", "name": "Tapas Bar Mi Esperanza", "wheelchair": "limited"}}, {"type": "node", "id": 3404634572, "lat": 53.5750376, "lon": 9.8898211, "tags": {"amenity": "bar", "name": "Arena Bar"}}, {"type": "node", "id": 3441484459, "lat": 53.4706256, "lon": 10.0041025}, {"type": "node", "id": 3441484460, "lat": 53.4706545, "lon": 10.0039833}, {"type": "node", "id": 3441484461, "lat": 53.4706863, "lon": 10.004005}, {"type": "node", "id": 3441484462, "lat": 53.4706909, "lon": 10.003986}, {"type": "node", "id": 3441484463, "lat": 53.4707011, "lon": 10.004154}, {"type": "node", "id": 3441484465, "lat": 53.4707345, "lon": 10.0040157}, {"type": "node", "id": 3448986384, "lat": 53.5479504, "lon": 9.9796696, "tags": {"amenity": "bar", "name": "Taifun"}}, {"type": "node", "id": 3452161109, "lat": 53.5586584, "lon": 9.9646053, "tags": {"opening_hours": "Su-Th 20:00-02:00, Fr,Sa 20:00-03:00", "wheelchair": "limited", "name": "Zoe III", "description": "viele alte Sofas", "amenity": "bar", "addr:street": "Neuer Pferdemarkt", "addr:postcode": "20359", "addr:housenumber": "19"}}, {"type": "node", "id": 3470964773, "lat": 53.5540162, "lon": 10.011417, "tags": {"amenity": "bar", "name": "Denis Bar", "wheelchair": "no"}}, {"type": "node", "id": 3470965942, "lat": 53.5541412, "lon": 10.0110777, "tags": {"amenity": "bar", "name": "Vanessa Bar", "wheelchair": "no"}}, {"type": "node", "id": 3470966038, "lat": 53.5541723, "lon": 10.0112185, "tags": {"amenity": "bar", "name": "Dschungel Bar", "wheelchair": "no"}}, {"type": "node", "id": 3470968596, "lat": 53.5540879, "lon": 10.0108698, "tags": {"amenity": "bar", "name": "WunderBar"}}, {"type": "node", "id": 3470976167, "lat": 53.5542031, "lon": 10.0120752, "tags": {"amenity": "bar", "name": "Windst\u00e4rke 11", "wheelchair": "no"}}, {"type": "node", "id": 3470977308, "lat": 53.5541653, "lon": 10.0119523, "tags": {"amenity": "bar", "name": "Rund um die Uhr", "wheelchair": "no"}}, {"type": "node", "id": 3479913211, "lat": 53.5836129, "lon": 9.8807923, "tags": {"amenity": "bar", "name": "Marrakesch"}}, {"type": "node", "id": 3534160884, "lat": 53.5663085, "lon": 9.9622079, "tags": {"wheelchair": "no", "addr:city": "Hamburg", "addr:country": "DE", "addr:housenumber": "34", "addr:postcode": "20357", "addr:street": "Vereinsstra\u00dfe", "alt_name": "Das Lemon", "amenity": "bar", "contact:email": "john_lemon@gmx.de", "contact:facebook": "https://www.facebook.com/DAS-LEMON-1531994273742199", "contact:phone": "+49 40 209 114 03", "min_age": "18", "name": "Lemon", "old_name": "John Lemon", "opening_hours": "Mo-Su 18:00-03:30"}}, {"type": "node", "id": 3659053848, "lat": 53.5957168, "lon": 9.99809, "tags": {"wheelchair": "limited", "brewery": "yes;Heineken;various;Bier_d._Monats;Same_Same_Bier_(bayr._hell)", "toilets:wheelchair": "no", "website": "https://www.barsamesame.de/", "smoking": "yes", "addr:city": "Hamburg", "addr:housenumber": "18-20", "addr:postcode": "22299", "addr:street": "Alsterdorfer Stra\u00dfe", "amenity": "bar", "email": "info@barsamesame.de", "name": "Bar Same Same", "outdoor_seating": "yes", "phone": "+49 40 59541818"}}, {"type": "node", "id": 3665915359, "lat": 53.5818556, "lon": 9.9776782}, {"type": "node", "id": 3665915360, "lat": 53.5818751, "lon": 9.977702}, {"type": "node", "id": 3670795971, "lat": 53.5554741, "lon": 9.9820267, "tags": {"amenity": "bar", "name": "Infinity Lounge"}}, {"type": "node", "id": 3672023954, "lat": 53.5778757, "lon": 9.9482843, "tags": {"amenity": "bar", "name": "Cosy Bar"}}, {"type": "node", "id": 3673531453, "lat": 53.5599895, "lon": 9.9665626, "tags": {"amenity": "bar", "name": "Hamburger Botschaft"}}, {"type": "node", "id": 3673876622, "lat": 53.5563592, "lon": 10.0063245, "tags": {"wheelchair": "no", "website": "https://www.barhh.com/", "addr:housenumber": "6-8", "addr:street": "Rautenbergstra\u00dfe", "amenity": "bar", "description": "Shisha & Zigarren", "email": "info@barhh.com", "mobile": "+49 163 2102679", "name": "Bar Hamburg", "opening_hours": "Su-Th 16:00-01:00, Fr,Sa 16:00-03:00", "phone": "+494036029393", "smoking": "dedicated", "toilets:wheelchair": "no"}}, {"type": "node", "id": 3737001822, "lat": 53.5511984, "lon": 10.0358323, "tags": {"opening_hours": "Mo-Th 16:00-24:00, Fr,Sa 16:00-05:00, Su 17:00-24:00", "name": "Elissar", "amenity": "bar"}}, {"type": "node", "id": 3758950380, "lat": 53.5054295, "lon": 9.9862238, "tags": {"addr:city": "Hamburg", "addr:housenumber": "156", "addr:postcode": "21107", "addr:street": "Veringstra\u00dfe", "amenity": "bar", "name": "Starlight"}}, {"type": "node", "id": 3768537428, "lat": 53.5515526, "lon": 9.9675732, "tags": {"addr:housenumber": "10", "addr:street": "Budapester Stra\u00dfe", "amenity": "bar", "name": "Domsch\u00e4nke", "outdoor_seating": "yes", "smoking": "yes"}}, {"type": "node", "id": 3769636430, "lat": 53.5397469, "lon": 10.1017126, "tags": {"addr:city": "Hamburg", "addr:country": "DE", "addr:housenumber": "48", "addr:postcode": "22111", "addr:street": "Billstedter Hauptstra\u00dfe", "amenity": "bar", "name": "To Steki"}}, {"type": "node", "id": 3775015974, "lat": 53.5820557, "lon": 9.8828877, "tags": {"amenity": "bar", "name": "Playoff Lounge"}}, {"type": "node", "id": 3775042457, "lat": 53.5525745, "lon": 9.9626285, "tags": {"addr:housenumber": "79", "addr:street": "Clemens-Schultz-Stra\u00dfe", "amenity": "bar", "cocktails": "yes", "contact:website": "http://www.cabana-stpauli.de/", "name": "Copa Cabana", "opening_hours": "Mo-Sa 11:00+;Su 12:00+", "outdoor_seating": "yes", "shisha": "yes", "smoking": "yes"}}, {"type": "node", "id": 3787329491, "lat": 53.5498031, "lon": 9.9629391, "tags": {"name": "Story", "contact:facebook": "https://www.facebook.com/StoryHamburg", "contact:website": "http://www.story-hamburg.de/", "cocktails": "yes", "addr:housenumber": "66", "addr:street": "Reeperbahn", "alt_name": "Cocktail Club", "amenity": "bar"}}, {"type": "node", "id": 3789624490, "lat": 53.5546896, "lon": 10.000626, "tags": {"website": "https://www.cascadas.club/", "name": "Cascadas", "contact:website": "https://www.cascadas.club/", "amenity": "bar"}}, {"type": "node", "id": 3802077759, "lat": 53.5499569, "lon": 10.0042543, "tags": {"website": "http://centralcongress.de/", "addr:housenumber": "5-7", "addr:street": "Steinstra\u00dfe", "amenity": "bar", "name": "Central Congress"}}, {"type": "node", "id": 3806624147, "lat": 53.5797746, "lon": 10.0395848, "tags": {"name": "Empire Lounge", "amenity": "bar"}}, {"type": "node", "id": 3812511657, "lat": 53.5615496, "lon": 9.9552346, "tags": {"addr:city": "Hamburg", "addr:housenumber": "227", "addr:postcode": "22769", "addr:street": "Max-Brauer-Allee", "amenity": "bar", "name": "Bar 227", "toilets:wheelchair": "no", "website": "http://www.bar227.de/", "wheelchair": "no", "wheelchair:description": "Die Bar ist nur \u00fcber Stufen erreichbar"}}, {"type": "node", "id": 3821603768, "lat": 53.7013822, "lon": 9.7037127}, {"type": "node", "id": 3821603769, "lat": 53.7013115, "lon": 9.7036951}, {"type": "node", "id": 3821603770, "lat": 53.7012874, "lon": 9.7039541}, {"type": "node", "id": 3821603771, "lat": 53.7013567, "lon": 9.7039782}, {"type": "node", "id": 3875195428, "lat": 53.5835384, "lon": 10.0465537, "tags": {"name": "Mosaic", "amenity": "bar"}}, {"type": "node", "id": 3886742071, "lat": 53.5501765, "lon": 9.9611063, "tags": {"website": "www.berg4-bar.de", "addr:housenumber": "4", "addr:street": "Hamburger Berg", "amenity": "bar", "name": "Berg 4", "opening_hours": "Mo-Su 20:00+", "toilets:wheelchair": "no", "wheelchair": "no"}}, {"type": "node", "id": 3898984141, "lat": 53.546779, "lon": 9.9627083, "tags": {"website": "https://www.elbwerk-hamburg.de/", "amenity": "bar", "name": "Elbwerk"}}, {"type": "node", "id": 3914036029, "lat": 53.5805356, "lon": 10.0125513, "tags": {"contact:website": "http://www.zazabar.de/", "wheelchair": "no", "operator": "Donata Menard", "amenity": "bar", "contact:email": "info@zazabar.de", "contact:phone": "+49 40 27880135", "name": "Zaza Bar"}}, {"type": "node", "id": 3928787887, "lat": 53.6327876, "lon": 10.0046307, "tags": {"amenity": "bar", "level": "1", "name": "Pier 2 Bar", "smoking": "no", "website": "https://www.hamburg-airport.de/en/pier_2_bar.php"}}, {"type": "node", "id": 3948984300, "lat": 53.5816837, "lon": 10.0088648, "tags": {"wheelchair": "no", "amenity": "bar", "contact:email": "info@radiancebar.de", "contact:instagram": "radiance.bar", "contact:phone": "+49 1725229723", "contact:website": "http://radiancebar.de", "name": "Radiance Bar", "opening_hours": "Mo-Sa 07:00-22:00, Sa 10:00-19:00"}}, {"type": "node", "id": 3982081962, "lat": 53.5536445, "lon": 9.9901879, "tags": {"amenity": "bar", "level": "-1", "name": "Wein Boutique"}}, {"type": "node", "id": 3997637970, "lat": 53.5481356, "lon": 9.9635983, "tags": {"addr:city": "Hamburg", "addr:housenumber": "30", "addr:postcode": "20359", "addr:street": "Hopfenstra\u00dfe", "amenity": "bar", "name": "Gun Club", "wheelchair": "no"}}, {"type": "node", "id": 4043814616, "lat": 53.5724298, "lon": 9.9597558, "tags": {"name": "Zuehlke", "amenity": "bar", "addr:street": "Eppendorfer Weg", "addr:city": "Hamburg", "addr:housenumber": "58", "addr:postcode": "20259"}}, {"type": "node", "id": 4046576435, "lat": 53.5422933, "lon": 9.9980541, "tags": {"amenity": "bar", "name": "The Boilerman Bar"}}, {"type": "node", "id": 4082447664, "lat": 53.5539454, "lon": 9.9298568, "tags": {"addr:housenumber": "11", "addr:postcode": "22765", "addr:street": "Kleine Rainstra\u00dfe", "amenity": "bar", "internet_access": "no", "name": "Mathilde Bar", "opening_hours": "Mo-Sa 17:00+", "smoking": "no", "website": "https://www.mathilde-hh.de/mathilde-bar-ottensen/", "wheelchair": "limited"}}, {"type": "node", "id": 4103580497, "lat": 53.5506628, "lon": 9.9602837, "tags": {"contact:website": "http://www.drei-zimmer-wohnung.de", "amenity": "bar", "contact:phone": "+49 160 90361519", "name": "3 Zimmer Wohnung", "toilets:wheelchair": "no", "wheelchair": "no"}}, {"type": "node", "id": 4108544219, "lat": 53.5677919, "lon": 10.0465382, "tags": {"amenity": "bar", "name": "Highway", "opening_hours": "Mo-Th,Su 14:00-02:00; Fr-Sa 14:00-04:00"}}, {"type": "node", "id": 4131320272, "lat": 53.5470172, "lon": 9.9575471, "tags": {"addr:city": "Hamburg", "addr:country": "DE", "addr:housenumber": "4", "addr:postcode": "20359", "addr:street": "Antonistra\u00dfe", "amenity": "bar", "check_date": "2020-07-19", "contact:phone": "+49 174 1007658", "contact:website": "https://www.dripbar.de/", "name": "Drip Bar", "opening_hours": "Mo-We 18:00-01:00; Th-Sa 18:00-02:00", "wheelchair": "no"}}, {"type": "node", "id": 4144383872, "lat": 53.4542689, "lon": 9.9874029, "tags": {"addr:city": "Hamburg", "addr:country": "DE", "addr:housenumber": "88", "addr:postcode": "21073", "addr:street": "Wilstorfer Stra\u00dfe", "amenity": "bar", "name": "Phoenix Lounge", "source": "survey"}}, {"type": "node", "id": 4144383874, "lat": 53.4541187, "lon": 9.9874445, "tags": {"addr:city": "Hamburg", "addr:country": "DE", "addr:housenumber": "90", "addr:postcode": "21073", "addr:street": "Wilstorfer Stra\u00dfe", "amenity": "bar", "name": "Casablanca", "source": "survey"}}, {"type": "node", "id": 4179521649, "lat": 53.5826251, "lon": 9.7312998, "tags": {"addr:city": "Wedel", "addr:housenumber": "129", "addr:postcode": "22880", "addr:street": "Kronskamp", "amenity": "bar", "name": "Moskito Bar"}}, {"type": "node", "id": 4226881609, "lat": 53.6433401, "lon": 10.01368, "tags": {"addr:city": "Hamburg", "addr:housenumber": "1", "addr:postcode": "22415", "addr:street": "Beim Sch\u00e4ferhof", "amenity": "bar", "name": "Chillim", "opening_hours": "Mo-Su 16:00-01:00", "outdoor_seating": "yes", "phone": "+49 40 35770628", "smoking": "yes"}}, {"type": "node", "id": 4228143303, "lat": 53.6010996, "lon": 9.991283, "tags": {"amenity": "bar", "name": "Anleger Hamburg", "wheelchair": "limited"}}, {"type": "node", "id": 4235818994, "lat": 53.6544367, "lon": 9.7829603, "tags": {"amenity": "bar", "name": "NONAME"}}, {"type": "node", "id": 4241767305, "lat": 53.5480807, "lon": 9.9629194, "tags": {"amenity": "bar", "name": "La Longa", "wheelchair": "no"}}, {"type": "node", "id": 4241768702, "lat": 53.5469937, "lon": 9.9615996, "tags": {"amenity": "bar", "name": "Museum Bar"}}, {"type": "node", "id": 4241769889, "lat": 53.5482432, "lon": 9.9628533, "tags": {"amenity": "bar", "name": "Pinoy", "wheelchair": "no"}}, {"type": "node", "id": 4247420020, "lat": 53.5499606, "lon": 9.9654169, "tags": {"amenity": "bar", "name": "Pyjama Bar"}}, {"type": "node", "id": 4247428789, "lat": 53.5521114, "lon": 9.9970041, "tags": {"amenity": "bar", "name": "Lounge Hamburg"}}, {"type": "node", "id": 4329577521, "lat": 53.5571566, "lon": 10.0126537, "tags": {"name": "Contact Men's Bar", "gay": "yes", "amenity": "bar", "contact:facebook": "https://www.facebook.com/contact.hamburg", "contact:phone": "+49-40-55502697", "contact:website": "http://www.contact-bar.de/"}}, {"type": "node", "id": 4336625190, "lat": 53.5538324, "lon": 10.0100966, "tags": {"amenity": "bar", "name": "Chaplin's Bar", "wheelchair": "no"}}, {"type": "node", "id": 4365438978, "lat": 53.5505474, "lon": 9.9614784, "tags": {"contact:website": "https://cheguevara-bar.business.site/", "addr:city": "Hamburg", "addr:country": "DE", "addr:housenumber": "27", "addr:postcode": "20359", "addr:street": "Hamburger Berg", "amenity": "bar", "contact:phone": "+49 163 7279320", "name": "Che Guevara Bar"}}, {"type": "node", "id": 4365438979, "lat": 53.5507207, "lon": 9.9614629, "tags": {"name": "Wilde Hilde", "amenity": "bar"}}, {"type": "node", "id": 4403527285, "lat": 53.5838369, "lon": 9.9876611, "tags": {"amenity": "bar", "name": "das Smolka"}}, {"type": "node", "id": 4404057742, "lat": 53.5621165, "lon": 9.8123409, "tags": {"amenity": "bar", "name": "Chez Wilma", "toilets:wheelchair": "no", "wheelchair": "yes"}}, {"type": "node", "id": 4415556619, "lat": 53.56177, "lon": 9.9616627, "tags": {"name": "4F\u00e4uste", "amenity": "bar"}}, {"type": "node", "id": 4417829183, "lat": 53.5531214, "lon": 9.9628227, "tags": {"opening_hours": "Tu-Th 18:00+; Fr-Sa 16:00+; Su 10:00-17:00", "website": "http://alleselbe.de", "addr:city": "Hamburg", "addr:housenumber": "63", "addr:postcode": "20359", "addr:street": "Hein-Hoyer-Stra\u00dfe", "amenity": "bar", "name": "Alles Elbe", "phone": "+49 40 2847 4009", "source": "http://alleselbe.de"}}, {"type": "node", "id": 4425715443, "lat": 53.5962256, "lon": 9.9977416, "tags": {"amenity": "bar", "name": "Sarsari Lounge", "wheelchair": "no"}}, {"type": "node", "id": 4425722107, "lat": 53.7039857, "lon": 10.0080628, "tags": {"addr:city": "Norderstedt", "addr:housenumber": "11", "addr:postcode": "22844", "addr:street": "Marktplatz", "amenity": "bar", "description": "Live Musik vom Feinsten - Das Beste was Norderstedt, der Kreis Segeberg und Schleswig-Holstein zu bieten hat!", "name": "Music Star", "opening_hours": "\"gem\u00e4\u00df Veranstaltungskalender\"", "phone": "+49 172 4534248", "website": "http://www.harksheide.de/concerts.html"}}, {"type": "node", "id": 4434647857, "lat": 53.5713184, "lon": 9.98493, "tags": {"amenity": "bar", "name": "Leobar"}}, {"type": "node", "id": 4459275974, "lat": 53.457022, "lon": 9.9843516, "tags": {"contact:facebook": "b7hamburg", "wheelchair": "limited", "amenity": "bar", "contact:email": "info@b7hamburg.de", "contact:instagram": "b7hamburg", "contact:phone": "+49 40 71663324", "contact:website": "https://b7hamburg.de", "internet_access": "wlan", "internet_access:fee": "no", "name": "B7 Hamburg", "opening_hours": "Su-Th 14:00-01:00, Fr,Sa 14:00-03:00", "payment:american_express": "yes", "payment:cash": "yes", "payment:contactless": "yes", "payment:diners_club": "yes", "payment:discover_card": "yes", "payment:girocard": "yes", "payment:jcb": "yes", "payment:maestro": "yes", "payment:mastercard": "yes", "payment:v_pay": "yes", "payment:visa": "yes", "smoking": "separated", "sport": "billiards"}}, {"type": "node", "id": 4475020289, "lat": 53.5563621, "lon": 9.9887347, "tags": {"opening_hours": "Mo-Su 16:30-18:00,21:00-22:30", "name": "Metropolis KINOBAR", "internet_access": "wlan", "email": "post@metropolis-bar.de", "facebook": "https://www.facebook.com/metropoliskinobar", "phone": "+49 40 45035063", "addr:housenumber": "10", "addr:postcode": "20354", "addr:street": "Kleine Theaterstra\u00dfe", "amenity": "bar"}}, {"type": "node", "id": 4524570831, "lat": 53.5753841, "lon": 10.0374665, "tags": {"name": "Umdenkbar", "amenity": "bar", "website": "http://udb.life-is-now.de/"}}, {"type": "node", "id": 4585731361, "lat": 53.5556455, "lon": 10.0119628, "tags": {"amenity": "bar", "contact:website": "http://www.pickupgaybar.de/", "gay": "yes", "lgbtq": "primary", "name": "Pick Up Gay Bar"}}, {"type": "node", "id": 4634760092, "lat": 53.5155454, "lon": 9.993092, "tags": {"name": "Lion's Bar", "amenity": "bar"}}, {"type": "node", "id": 4691967489, "lat": 53.5530994, "lon": 9.9580283, "tags": {"addr:city": "Hamburg", "addr:country": "DE", "addr:housenumber": "27", "addr:postcode": "22767", "addr:street": "Paul-Roosen-Stra\u00dfe", "amenity": "bar", "drink:wine": "yes", "email": "info@clockers.hamburg", "name": "clockers BAR St. Pauli", "opening_hours": "Mo-Th 19:00-01:00, Fr,Sa 19:00-03:00", "operator": "clockers GmbH", "phone": "+491799769435", "shop": "alcohol", "website": "https://clockers.hamburg/"}}, {"type": "node", "id": 4692631089, "lat": 53.5486035, "lon": 9.9596344, "tags": {"addr:postcode": "20359", "amenity": "bar", "name": "The Mad Hatter", "opening_hours": "Mo-Sa 18:00-04:00"}}, {"type": "node", "id": 4694198301, "lat": 53.5485214, "lon": 9.9595342, "tags": {"name": "Silbersack Billard-Treff", "addr:postcode": "20359", "amenity": "bar"}}, {"type": "node", "id": 4758528801, "lat": 53.5554674, "lon": 9.9429206, "tags": {"amenity": "bar", "man_made": "surveillance", "name": "Malto", "opening_hours": "Mo-Th 18:00-24:00; Fr-Sa 18:00-02:00", "surveillance": "indoor", "surveillance:type": "camera"}}, {"type": "node", "id": 4767729512, "lat": 53.5745976, "lon": 10.0213541, "tags": {"name": "Cafe K\u00f6", "amenity": "bar"}}, {"type": "node", "id": 4770095822, "lat": 53.5638635, "lon": 9.9594571, "tags": {"name": "Dreizehnter Stock", "amenity": "bar"}}, {"type": "node", "id": 4794813789, "lat": 53.549936, "lon": 9.9645131, "tags": {"addr:city": "Hamburg", "addr:country": "DE", "addr:housenumber": "46", "addr:postcode": "20359", "addr:street": "Reeperbahn", "addr:suburb": "St. Pauli", "amenity": "bar", "email": "info@herzhamburg.com", "internet_access": "wlan", "internet_access:fee": "no", "level": "0", "name": "Herz Hamburg", "phone": "+49 40 84704207", "smoking": "yes", "website": "https://herzhamburg.com/"}}, {"type": "node", "id": 4912961213, "lat": 53.5545895, "lon": 9.8444482, "tags": {"amenity": "bar", "opening_hours": "Mo-Sa 15:00-23:00", "name": "max bar"}}, {"type": "node", "id": 4925161110, "lat": 53.548171, "lon": 9.9624902, "tags": {"amenity": "bar", "name": "the Other Place", "wheelchair": "no"}}, {"type": "node", "id": 4984703821, "lat": 53.5243106, "lon": 10.0157274, "tags": {"addr:housenumber": "10", "addr:postcode": "20539", "addr:street": "Veddeler Damm", "amenity": "bar", "name": "Caf\u00e9 Zonck", "opening_hours": "Mo-Su 10:00-02:00"}}, {"type": "node", "id": 5032544523, "lat": 53.5523781, "lon": 9.9643516, "tags": {"opening_hours": "20:00+", "amenity": "bar", "website": "http://www.nachthafen-hh.de/", "addr:city": "Hamburg", "addr:housenumber": "93", "addr:postcode": "20359", "addr:street": "Clemens-Schultz-Stra\u00dfe", "email": "Nachthafen-HH@web.de", "name": "Nachthafen", "name:de": "Nachthafen", "smoking": "yes"}}, {"type": "node", "id": 5048956986, "lat": 53.5480882, "lon": 9.9631017, "tags": {"amenity": "bar", "name": "Tawan Daeng Karaoke Bar", "wheelchair": "no"}}, {"type": "node", "id": 5048956991, "lat": 53.5481358, "lon": 9.9639087, "tags": {"amenity": "bar", "name": "Maria Bar", "wheelchair": "no"}}, {"type": "node", "id": 5056117591, "lat": 53.4908257, "lon": 10.2071812, "tags": {"amenity": "bar", "min_age": "18", "name": "Cutter's Kaj\u00fcte", "opening_hours": "Mo-Th 14:00-18:00+; Fr-Su 12:00-18:00+", "outdoor_seating": "no", "payment:cash": "yes", "payment:credit_cards": "no", "payment:cryptocurrencies": "no", "payment:electronic_purses": "no", "payment:girocard": "yes", "smoking": "yes"}}, {"type": "node", "id": 5064249653, "lat": 53.5533968, "lon": 10.0113308, "tags": {"amenity": "bar", "name": "Hookah Bar"}}, {"type": "node", "id": 5200356121, "lat": 53.5509487, "lon": 9.9575667, "tags": {"addr:postcode": "22767", "amenity": "bar", "name:en": "Olivia Jones Bar", "opening_hours": "Mo-Su 19:00-02:00", "phone": "+49 40 42103348"}}, {"type": "node", "id": 5210756369, "lat": 53.5596501, "lon": 9.989496}, {"type": "node", "id": 5210756370, "lat": 53.5596514, "lon": 9.9894836}, {"type": "node", "id": 5339256230, "lat": 53.5778406, "lon": 10.0596517, "tags": {"amenity": "bar", "name": "Emi Lounge", "smoking": "yes"}}, {"type": "node", "id": 5341006390, "lat": 53.5662282, "lon": 9.9584843, "tags": {"wheelchair": "yes", "name": "Sportbar", "source": "rocketbeanstv", "addr:city": "Hamburg", "addr:housenumber": "14", "addr:postcode": "20259", "addr:street": "Eimsb\u00fctteler Chaussee", "amenity": "bar"}}, {"type": "node", "id": 5350594722, "lat": 53.6591761, "lon": 9.8040392, "tags": {"name": "Zahar", "amenity": "bar"}}, {"type": "node", "id": 5417987111, "lat": 53.56688, "lon": 9.9814816, "tags": {"amenity": "bar", "addr:street": "Grindelallee", "name": "unikat - Shisha Bar", "phone": "+49 40 41623999", "wheelchair": "yes", "addr:postcode": "20146", "addr:city": "Hamburg", "addr:housenumber": "80"}}, {"type": "node", "id": 5431270168, "lat": 53.495552, "lon": 9.9955483, "tags": {"addr:city": "Hamburg", "addr:housenumber": "24", "addr:postcode": "21107", "addr:street": "Kurdamm", "amenity": "bar", "brewery": "yes;various", "name": "Bunthaus Schankraum", "opening_hours": "Fr 18:00-24:00; Sa,Su 12:00-18:00", "operator": "Bunthaus Brauerei", "outdoor_seating": "yes", "smoking": "outside"}}, {"type": "node", "id": 5456098002, "lat": 53.6472871, "lon": 9.9096173, "tags": {"addr:city": "Hamburg", "addr:housenumber": "2", "addr:postcode": "22457", "addr:street": "Roman-Zeller-Platz", "amenity": "bar", "name": "Bizim-Sportsbar e.V.", "outdoor_seating": "yes"}}, {"type": "node", "id": 5460118668, "lat": 53.5545459, "lon": 9.9689931, "tags": {"facebook": "https://www.facebook.com/1910Weinbar/", "amenity": "bar", "contact:facebook": "https://www.facebook.com/1910Weinbar/", "description": "Ge\u00f6ffnet: 2 Stunden bis 20 Minuten vor Spielbeginn; 20 Minuten nach Spielende bis: 24 Uhr am Freitag und Samstag, 23:30 Uhr bei Wochentagsspielen; Abweichungen nach oben und unten je nach Andrang m\u00f6glich", "internet_access": "wlan", "internet_access:fee": "no", "name": "1910 e.V. Weinbar", "operator": "1910 e.V. Museum f\u00fcr den FC St. Pauli", "wheelchair": "yes"}}, {"type": "node", "id": 5631256768, "lat": 53.5183822, "lon": 9.9837978, "tags": {"name": "M1", "amenity": "bar"}}, {"type": "node", "id": 5634887692, "lat": 53.5990955, "lon": 9.9165531, "tags": {"opening_hours": "Mo-Su 09:00-24:00", "addr:city": "Hamburg", "addr:country": "DE", "addr:housenumber": "561", "addr:postcode": "22525", "addr:street": "Kieler Stra\u00dfe", "amenity": "bar", "name": "Winner'sPLAY Sportsbar", "operator": "www.winnersplay.de", "smoking": "yes"}}, {"type": "node", "id": 5642417283, "lat": 53.6607049, "lon": 9.7927773, "tags": {"addr:city": "Pinneberg", "addr:country": "DE", "addr:housenumber": "24", "addr:postcode": "25421", "amenity": "bar", "contact:phone": "+49 4101 8191353", "contact:website": "https://www.casaportugal-pinneberg.de", "name": "Casa Portugal"}}, {"type": "node", "id": 5661885571, "lat": 53.4986705, "lon": 10.0014482, "tags": {"wheelchair": "yes", "addr:city": "Hamburg", "addr:country": "DE", "addr:housenumber": "32c", "addr:postcode": "21109", "addr:street": "Dratelnstra\u00dfe", "amenity": "bar", "name": "Mam's Bistro & Bar", "opening_hours": "Mo-Su 09:00-22:00", "toilets:wheelchair": "no"}}, {"type": "node", "id": 5670645656, "lat": 53.541943, "lon": 10.1026386, "tags": {"amenity": "bar", "name": "Milano Lounge"}}, {"type": "node", "id": 5703584721, "lat": 53.5586741, "lon": 9.9720079, "tags": {"amenity": "bar", "name": "Coltur Schock", "addr:street": "Grabenstra\u00dfe"}}, {"type": "node", "id": 5759381282, "lat": 53.567545, "lon": 10.0452354, "tags": {"amenity": "bar", "name": "Diamant Shisha", "opening_hours": "Su-Th 15:00-24:00; Fr-Sa 15:00+"}}, {"type": "node", "id": 5766710097, "lat": 53.5458933, "lon": 9.9745319, "tags": {"addr:city": "Hamburg", "addr:country": "DE", "addr:housenumber": "24", "addr:postcode": "20459", "addr:street": "Ditmar-Koel-Stra\u00dfe", "amenity": "bar", "brewery": "various", "email": "info@bairro-bar.de", "fax": "+49 40 180 356 51", "level": "0", "name": "Bairro Bar", "opening_hours": "Mo-Th 12:00-01:00; Fr-Sa 12:00+; Su 12:00-24:00", "operator": "Chie-Yul Oh", "phone": "+49 40 180 356 50", "website": "https://www.bairro-bar.de/", "wheelchair": "limited"}}, {"type": "node", "id": 5807764253, "lat": 53.5615172, "lon": 9.9547733, "tags": {"amenity": "bar", "name": "Sterngarten"}}, {"type": "node", "id": 5835037894, "lat": 53.5576683, "lon": 9.9752366, "tags": {"opening_hours": "Su-Th 13:00-24:00; Fr-Sa 13:00-02:00", "name": "Minus Gelato Bar", "cuisine": "ice_cream;coffee_shop", "addr:housenumber": "6", "addr:postcode": "20357", "addr:street": "Karolinenstra\u00dfe", "amenity": "bar"}}, {"type": "node", "id": 5846976255, "lat": 53.4794534, "lon": 9.8747165, "tags": {"addr:city": "Hamburg", "addr:housenumber": "50", "addr:postcode": "21147", "addr:street": "Rehrstieg", "amenity": "bar", "name": "Max Cafe & Bar"}}, {"type": "node", "id": 5909357473, "lat": 53.5555442, "lon": 9.9625263, "tags": {"opening_hours": "Mo-Su 18:00+", "website": "http://thewalrusbar.de/", "addr:city": "Hamburg", "addr:housenumber": "47", "addr:postcode": "20359", "addr:street": "Wohlwillstra\u00dfe", "amenity": "bar", "email": "w@thewalrusbar.de", "name": "The Walrus Bar", "outdoor_seating": "yes", "smoking": "yes"}}, {"type": "node", "id": 5970547288, "lat": 53.6972323, "lon": 9.7145341, "tags": {"addr:housenumber": "4", "addr:postcode": "25436", "addr:street": "Bahnhofsplatz", "amenity": "bar", "name": "Golden Smoke"}}, {"type": "node", "id": 6090949459, "lat": 53.5515734, "lon": 9.9864552, "tags": {"website": "https://www.tortue.de/de/bars/weinbar-hamburg-cafe-after-work.html", "addr:city": "Hamburg", "addr:housenumber": "10", "addr:postcode": "20355", "addr:street": "Stadthausbr\u00fccke", "amenity": "bar", "name": "Bar Noir"}}, {"type": "node", "id": 6090949460, "lat": 53.5515743, "lon": 9.9863132, "tags": {"website": "https://www.tortue.de/de/bars/bar-bleu.html", "addr:city": "Hamburg", "addr:housenumber": "10", "addr:postcode": "20355", "addr:street": "Stadthausbr\u00fccke", "amenity": "bar", "name": "Bar Bleu", "smoking": "yes"}}, {"type": "node", "id": 6106891386, "lat": 53.558204, "lon": 9.9702017, "tags": {"website": "https://www.instagram.com/themedbarhamburg", "addr:city": "Hamburg", "addr:country": "DE", "addr:housenumber": "41", "addr:postcode": "20357", "addr:street": "Marktstra\u00dfe", "amenity": "bar", "name": "the med bar", "opening_hours": "Fr 16:00-03:00; Sa 14:00-03:00; Tu-We 16:00-01:00; Th 16:00-02:00", "phone": "+49 40 43092188"}}, {"type": "node", "id": 6180431085, "lat": 53.5513566, "lon": 9.99785, "tags": {"amenity": "bar", "name": "Karstadt Champagne Bar"}}, {"type": "node", "id": 6274193363, "lat": 53.5604525, "lon": 9.9479252, "tags": {"opening_hours": "Tu-Th 18:00-01:00, Fr-Sa 18:00-03:00", "website": "https://taugenichts-bar.business.site", "brewery": "yes", "wheelchair": "no", "email": "taugenichtshh@gmail.com", "addr:city": "Hamburg", "addr:housenumber": "190", "addr:postcode": "22765", "addr:street": "Holstenstra\u00dfe", "amenity": "bar", "name": "Taugenichts Bar", "outdoor_seating": "no", "smoking": "outside"}}, {"type": "node", "id": 6312368387, "lat": 53.5664077, "lon": 9.962945, "tags": {"addr:postcode": "20357", "amenity": "bar", "contact:email": "webmaster@margaretenkneipe.de", "contact:phone": "+49 40 43 57 11", "contact:website": "https://margaretenkneipe.de", "name": "Die Grete", "opening_hours": "Mo-Su 16:00+", "wheelchair": "no"}}, {"type": "node", "id": 6326499685, "lat": 53.5583208, "lon": 9.9083413, "tags": {"website": "https://www.drilling.hamburg/home", "name": "Drilling", "amenity": "bar"}}, {"type": "node", "id": 6356948897, "lat": 53.4410208, "lon": 9.9603487, "tags": {"addr:city": "Hamburg", "addr:housenumber": "55", "addr:postcode": "21077", "addr:street": "Ernst-Bergeest-Weg", "amenity": "bar", "name": "Neue Tenne Marmstorf"}}, {"type": "node", "id": 6383796747, "lat": 53.5853459, "lon": 9.9802474, "tags": {"website": "https://www.henn-bar.de", "addr:city": "Hamburg", "addr:housenumber": "9", "addr:postcode": "20251", "addr:street": "Curschmannstra\u00dfe", "amenity": "bar", "name": "Black Forest Bar & Food", "opening_hours": "Mo-We 18:00-01:00, Th-Sa 18:00-02:00"}}, {"type": "node", "id": 6397084045, "lat": 53.5552996, "lon": 10.0100558, "tags": {"name": "Malik's Bar", "amenity": "bar", "description": "Malik's bar usually opens after 18:00, but it varies. Malik is the owner and the bartender. There are various affordable homebrewn drinks. It's easy to create an event for yourself like a birthday. Downstairs there are changing art exhibitions.", "outdoor_seating": "yes", "toilets:wheelchair": "no", "wheelchair": "yes"}}, {"type": "node", "id": 6423477427, "lat": 53.5506108, "lon": 9.9620502, "tags": {"addr:city": "Hamburg", "addr:country": "DE", "addr:housenumber": "11", "addr:postcode": "20359", "addr:street": "Hein-Hoyer-Stra\u00dfe", "amenity": "bar", "contact:facebook": "https://www.facebook.com/pages/category/Gastropub/Lucky-Star-106515752746003/", "name": "Lucky Star"}}, {"type": "node", "id": 6427922354, "lat": 53.549112, "lon": 9.9630987, "tags": {"addr:city": "Hamburg", "addr:country": "DE", "addr:housenumber": "29", "addr:postcode": "20359", "addr:street": "Spielbudenplatz", "amenity": "bar", "contact:email": "mail@sanktpaulibar.de", "contact:phone": "+49 40 315931", "contact:website": "https://www.sanktpaulibar.de/", "name": "sanktpaulibar", "opening_hours": "Mo-Th 18:00-01:00+, Fr 18:00-03:00+, Sa 17:00-05:00+, Su 17:00-01:00+"}}, {"type": "node", "id": 6434173813, "lat": 53.5623875, "lon": 10.0511931, "tags": {"addr:city": "Hamburg", "addr:housenumber": "69", "addr:postcode": "22089", "addr:street": "Peterskampweg", "amenity": "bar", "name": "Fly", "outdoor_seating": "yes"}}, {"type": "node", "id": 6442786664, "lat": 53.5507792, "lon": 9.9599402, "tags": {"payment:mastercard": "yes", "payment:maestro": "yes", "payment:cash": "yes", "payment:american_express": "yes", "email": "cheers@brewsbrothers.de", "facebook": "https://www.facebook.com/brewsbrothers.de/", "operator": "Dominik Gro\u00dfefeld;Oliver Wesseloh", "payment:cryptocurrencies": "Apple Pay", "phone": "+49 40 30751148", "website": "https://www.brewsbrothers.de/", "name": "Brews Brothers", "opening_hours": "Mo,Tu off; We 08:30-15:30; Th,Fr 08:30-15:30,17:00-23:00; Sa 10:00-23:00; Su 10:00-16:00", "brewery": "yes", "payment:visa": "yes", "addr:city": "Hamburg", "addr:housenumber": "29", "addr:postcode": "20359", "addr:street": "Talstra\u00dfe", "amenity": "bar"}}, {"type": "node", "id": 6449285285, "lat": 53.5509464, "lon": 9.9614404, "tags": {"addr:postcode": "20359", "amenity": "bar", "name": "Sorgenbrecher", "smoking": "yes"}}, {"type": "node", "id": 6564661052, "lat": 53.5494795, "lon": 9.957099, "tags": {"amenity": "bar", "name": "AHOI"}}, {"type": "node", "id": 6583262685, "lat": 53.5838403, "lon": 10.0187664, "tags": {"name": "Richards Bier Bar", "amenity": "bar"}}, {"type": "node", "id": 6597327104, "lat": 53.4634317, "lon": 9.9803015, "tags": {"name": "public", "wheelchair": "no", "amenity": "bar"}}, {"type": "node", "id": 6612673185, "lat": 53.5797869, "lon": 10.0131747, "tags": {"opening_hours": "Mo-Th 16:00-24:00; Fr-Su 11:00-24:00", "website": "https://www.ratsherrn.de/de/bars.html", "amenity": "bar", "cuisine": "barbecue;german;chicken;burger;diner;regional;sausage;sandwich;local", "name": "Ratsherrn Bar Winterhude", "name:de": "Ratsherrn Bar M\u00fchlenkamp", "name:en": "Ratsherrn Bar M\u00fchlenkamp", "phone": "+49 40 278 07 427"}}, {"type": "node", "id": 6653332471, "lat": 53.5484435, "lon": 9.96176, "tags": {"name": "Osborne", "addr:city": "Hamburg", "addr:housenumber": "7b", "addr:postcode": "20359", "addr:street": "Friedrichstra\u00dfe", "amenity": "bar", "brewery": "yes"}}, {"type": "node", "id": 6653939687, "lat": 53.5312136, "lon": 9.8826121, "tags": {"access": "private", "amenity": "bar", "name": "Finkenwerder F\u00e4hrhaus", "opening_hours": "24/7", "outdoor_seating": "no", "payment:cash": "yes", "phone": "+49 176 10335265"}}, {"type": "node", "id": 6813077687, "lat": 53.4635901, "lon": 9.9804281, "tags": {"wheelchair": "no", "amenity": "bar", "min_age": "18", "name": "crus", "opening_hours": "Su-Th 15:00-02:00, Fr,Sa 15:00+"}}, {"type": "node", "id": 6872869929, "lat": 53.4832124, "lon": 10.1623995}, {"type": "node", "id": 6872869930, "lat": 53.4832256, "lon": 10.1623257}, {"type": "node", "id": 6872869931, "lat": 53.4832344, "lon": 10.1624106}, {"type": "node", "id": 6872869932, "lat": 53.4832479, "lon": 10.162337}, {"type": "node", "id": 6952805285, "lat": 53.5484611, "lon": 9.9620381, "tags": {"addr:housenumber": "5", "addr:postcode": "20359", "addr:street": "Friedrichstra\u00dfe", "amenity": "bar", "cuisine": "bavarian", "name": "Bayern St\u00fcberl", "opening_hours": "Tu-Sa 18:00-05:00"}}, {"type": "node", "id": 7058714085, "lat": 53.5555078, "lon": 9.9822283, "tags": {"website": "http://dieyoko.de", "name": "yoko-club", "email": "kontakt@dieyoko.de", "amenity": "bar", "addr:street": "Valentinskamp", "addr:housenumber": "47"}}, {"type": "node", "id": 7093317918, "lat": 53.5579096, "lon": 9.98953, "tags": {"amenity": "bar", "name": "Tipsy Baker"}}, {"type": "node", "id": 7139979129, "lat": 53.5723887, "lon": 9.9946702, "tags": {"addr:city": "Hamburg", "addr:housenumber": "121b", "addr:postcode": "20148", "addr:street": "Mittelweg", "amenity": "bar", "name": "Zwick"}}, {"type": "node", "id": 7235759215, "lat": 53.5494191, "lon": 9.9632777, "tags": {"amenity": "bar", "name": "Heisse Ecke"}}, {"type": "node", "id": 7236010096, "lat": 53.5508557, "lon": 9.9614326, "tags": {"amenity": "bar", "name": "Tante Emma\u2018s KickerKiosk"}}, {"type": "node", "id": 7306564285, "lat": 53.5075202, "lon": 10.001076, "tags": {"amenity": "bar", "name": "Wildwuchs Bar", "opening_hours": "Th-Fr 18:00-22:00", "website": "https://www.wildwuchs-brauwerk.de/"}}, {"type": "node", "id": 7449926950, "lat": 53.5785091, "lon": 9.7043832, "tags": {"amenity": "bar", "name": "I touch", "sport": "billiards", "wheelchair": "no"}}, {"type": "node", "id": 7562168152, "lat": 53.5828879, "lon": 10.014718, "tags": {"amenity": "bar", "name": "Corner", "sportsbar": "yes", "smoking": "yes"}}, {"type": "node", "id": 7627132718, "lat": 53.4527869, "lon": 9.9738955, "tags": {"outdoor_seating": "yes", "amenity": "bar", "name": "corner", "opening_hours:signed": "no"}}, {"type": "node", "id": 7649438797, "lat": 53.4709078, "lon": 9.8237032, "tags": {"amenity": "bar", "name": "Katy's H\u00fctte"}}, {"type": "node", "id": 7736569812, "lat": 53.5750784, "lon": 10.0345125, "tags": {"name": "Rouge Club De Paris", "website": "www.rouge-hamburg.de", "smoking": "isolated", "outdoor_seating": "yes", "phone": "+49 152 04748005", "addr:city": "Hamburg", "addr:country": "DE", "addr:housenumber": "5", "addr:postcode": "22083", "addr:street": "Adolph-Sch\u00f6nfelder-Stra\u00dfe", "air_conditioning": "yes", "amenity": "bar", "description": "Cocktails, Longdrinks, Weine, Burlesque-Shows, Live Musik", "email": "info@rouge-hamburg.de", "internet_access": "wlan", "internet_access:fee": "yes", "min_age": "18", "opening_hours": "24/7", "payment:cash": "yes", "payment:debit_cards": "yes"}}, {"type": "node", "id": 7777713338, "lat": 53.5478906, "lon": 9.9610591, "tags": {"addr:city": "Hamburg", "addr:housenumber": "5", "addr:postcode": "20359", "addr:street": "Gerhardstra\u00dfe", "amenity": "bar", "name": "Night Light"}}, {"type": "node", "id": 7999555840, "lat": 53.5511845, "lon": 9.9595214, "tags": {"addr:city": "Hamburg", "addr:housenumber": "5", "addr:postcode": "20359", "addr:street": "Schmuckstra\u00dfe", "amenity": "bar", "name": "Taverne Bar Donatella"}}, {"type": "node", "id": 8034760382, "lat": 53.5507743, "lon": 9.9911273, "tags": {"amenity": "bar", "opening_hours": "Do-Fr 17:00-21:00", "name": "Swan Bar"}}, {"type": "way", "id": 31053574, "nodes": [345201279, 5210756369, 5210756370, 345201281, 345201282, 2292314154, 2292314155, 345201284, 345201279], "tags": {"addr:city": "Hamburg", "addr:housenumber": "2", "addr:postcode": "20354", "addr:street": "Dammtordamm", "amenity": "bar", "building": "retail", "email": "info@sands-bar.de", "height": "3.5", "internet_access": "no", "name": "Sands Bar", "opening_hours": "Su-Th 15:00-03:00, Fr,Sa 15:00-05:00", "outdoor_seating": "yes", "phone": "+49 40 34994431", "smoking": "outside", "website": "http://www.sands-bar.de/", "wheelchair": "no"}}, {"type": "way", "id": 37565690, "nodes": [440176597, 440176598, 3665915359, 3665915360, 440176599, 440661426, 440661427, 440176600, 440176597], "tags": {"outdoor_seating": "yes", "operator": "Marsbar GmbH", "name": "Marsbar", "building": "yes", "amenity": "bar", "addr:street": "Stra\u00dfenbahnring", "addr:city": "Hamburg", "addr:country": "DE", "addr:housenumber": "2", "addr:postcode": "20251"}}, {"type": "way", "id": 42773223, "nodes": [534837383, 534837392, 534837381, 534837382, 534837384, 534837383], "tags": {"building": "yes", "tourism": "hotel", "addr:city": "Hamburg", "addr:country": "DE", "addr:housenumber": "2", "addr:postcode": "22769", "addr:street": "Missundestra\u00dfe", "amenity": "bar", "name": "Boston Lounge"}}, {"type": "way", "id": 47993514, "nodes": [610373010, 610373012, 2164473638, 2164473686, 610373018, 610373011, 610373010], "tags": {"website": "http://www.remembarlounge.de/", "addr:city": "Hamburg", "addr:country": "DE", "addr:housenumber": "41", "addr:postcode": "22393", "addr:street": "Stadtbahnstra\u00dfe", "amenity": "bar", "building": "yes", "name": "Remembar", "wheelchair": "no"}}, {"type": "way", "id": 53378483, "nodes": [675039323, 1819096937, 675039325, 1819096932, 6872869932, 6872869930, 6872869929, 6872869931, 1819096931, 675039327, 1819096935, 675039329, 675039323], "tags": {"building": "yes", "contact:email": "luanalounge@gmx.de", "contact:facebook": "https://www.facebook.com/LUANALOUNGE.HAMBURG/", "contact:phone": "+49 1636271411", "internet_access": "no", "name": "Luana Lounge", "opening_hours": "Sa 22:00-06:00", "payment:cash": "yes", "addr:city": "Hamburg", "addr:country": "DE", "addr:housenumber": "540", "addr:postcode": "21035", "addr:street": "Felix-Jud-Ring", "amenity": "bar"}}, {"type": "way", "id": 129491170, "nodes": [1446368500, 1428596751, 1428596764, 1428596756, 1446368500], "tags": {"roof:shape": "flat", "roof:levels": "0", "outdoor_seating": "no", "addr:city": "Hamburg", "addr:country": "DE", "addr:housenumber": "2", "addr:postcode": "21073", "addr:street": "Am Soldatenfriedhof", "amenity": "bar", "building": "yes", "building:levels": "1", "opening_hours:covid19": "off"}}, {"type": "way", "id": 136429955, "nodes": [1496488004, 1496488012, 1496488009, 1496488001, 1496488004], "tags": {"url": "bernsteinbar.de", "name": "BernSteinbar", "addr:city": "Hamburg", "addr:country": "DE", "addr:housenumber": "103", "addr:postcode": "22767", "addr:street": "Bernstorffstra\u00dfe", "amenity": "bar", "building": "yes"}}, {"type": "way", "id": 218331550, "nodes": [2275820623, 2275820631, 2275820637, 2275820634, 2275820639, 2275820648, 2275820647, 2275820649, 2275820646, 2275820642, 2275820640, 2275820645, 2275820641, 2275820636, 2275820633, 2275820627, 2275820630, 2275820628, 2275820621, 2275820615, 2275820610, 2275820603, 2275820623], "tags": {"addr:country": "DE", "addr:housenumber": "8", "addr:postcode": "21031", "addr:street": "Lohbr\u00fcgger Landstra\u00dfe", "amenity": "bar", "building": "yes", "email": "service@lolabarhamburg.de", "internet_access": "no", "name": "Lola Bar", "opening_hours": "Mo-Th 16:00-24:00, Fr 16:00-02:00, Sa[1,3] 22:00-05:00, Sa[2] 20:00-04:00, Sa[4,5] 17:00-02:00; PH,Su closed", "opening_hours:kitchen": "Mo-Fr 17:00-22:00, Sa[2] 20:00-22:00, Sa[4,5] 18:00-22:00; Sa[1,3],Su,PH closed", "outdoor_seating": "yes", "payment:cash": "yes", "payment:cryptocurrencies": "no", "payment:electronic_purses": "no", "payment:girocard": "yes", "phone": "+49 40 7249663", "smoking": "outside", "website": "https://www.lolabarhamburg.de/", "wheelchair": "no"}}, {"type": "way", "id": 337051006, "nodes": [3441484460, 3441484461, 3441484462, 3441484465, 3441484463, 3441484459, 3441484460], "tags": {"addr:city": "Hamburg", "addr:country": "DE", "addr:housenumber": "6", "addr:postcode": "21079", "addr:street": "Schweenssand-Hauptdeich", "amenity": "bar", "name": "Inselklause", "opening_hours": "Th-Sa 13:00-22:00; Su 10:00+", "phone": "+49 40 779355", "website": "http://www.inselklause.de"}}, {"type": "way", "id": 378764411, "nodes": [3821603768, 3821603769, 3821603770, 3821603771, 3821603768], "tags": {"amenity": "bar", "building": "yes"}}]}