{"version": 0.6, "generator": "Overpass API 0.7.59 e21c39fe", "osm3s": {"timestamp_osm_base": "2022-11-28T21:04:23Z", "copyright": "The data included in this document is from www.openstreetmap.org. The data is made available under ODbL."}, "elements": [{"type": "node", "id": 254832996, "lat": 53.7468417, "lon": 9.6966049, "tags": {"cuisine": "german", "name": "Die Scheune", "outdoor_seating": "yes", "wheelchair:description": "Stufen im Restaurant, kein WC", "addr:city": "Elmshorn", "addr:housenumber": "2", "addr:postcode": "25337", "addr:street": "Kurt-Wagener-Stra\u00dfe", "amenity": "restaurant", "wheelchair": "no"}}, {"type": "node", "id": 271798416, "lat": 53.7550137, "lon": 9.6578648, "tags": {"amenity": "restaurant", "cuisine": "pizza", "diet:vegetarian": "yes", "name": "Ragazzi", "source": "GPS", "wheelchair": "limited"}}, {"type": "node", "id": 272316134, "lat": 53.7927283, "lon": 9.7733751, "tags": {"amenity": "restaurant", "name": "Zum Letzten Kuddel"}}, {"type": "node", "id": 272594472, "lat": 53.7422802, "lon": 9.6815833, "tags": {"amenity": "restaurant", "name": "Ristorante Del Salento"}}, {"type": "node", "id": 277351046, "lat": 53.7541624, "lon": 9.6584689, "tags": {"amenity": "restaurant", "cuisine": "italian", "email": "info@da-gino-elmshorn.de", "name": "Ristorante Da Gino", "phone": "+49 4121 7009643", "website": "http://www.da-gino-elmshorn.de", "wheelchair": "no"}}, {"type": "node", "id": 278567421, "lat": 53.7539652, "lon": 9.9791167}, {"type": "node", "id": 278880399, "lat": 53.7551236, "lon": 9.6585564, "tags": {"wheelchair": "limited", "diet:vegetarian": "yes", "opening_hours": "Mo-Su 16:30-23:00", "toilets:wheelchair": "no", "amenity": "restaurant", "name": "Ochi's"}}, {"type": "node", "id": 278880407, "lat": 53.7559887, "lon": 9.6578787, "tags": {"addr:housenumber": "6-8", "addr:street": "Schulstra\u00dfe", "amenity": "restaurant", "cuisine": "chinese", "name": "Peking Ente Palace", "phone": "+49 4121 13 22", "source": "GPS", "wheelchair": "limited"}}, {"type": "node", "id": 279232357, "lat": 53.7523264, "lon": 9.6725645, "tags": {"amenity": "restaurant", "cuisine": "greek", "name": "Meteora", "opening_hours": "Mo-Sa 17:00-23:00; Su 12:00-22:00", "phone": "+494121750205", "wheelchair": "yes"}}, {"type": "node", "id": 283315736, "lat": 53.7765211, "lon": 9.6645858}, {"type": "node", "id": 287024718, "lat": 53.7716415, "lon": 9.6639527, "tags": {"addr:city": "Elmshorn", "addr:housenumber": "41", "addr:postcode": "25335", "addr:street": "Langenmoor", "amenity": "restaurant", "entrance": "main", "name": "Im Winkel"}}, {"type": "node", "id": 288524999, "lat": 53.7887738, "lon": 9.7525854, "tags": {"amenity": "restaurant", "cuisine": "german", "name": "Zum Pilz"}}, {"type": "node", "id": 289563570, "lat": 53.7565042, "lon": 9.6468796}, {"type": "node", "id": 299020412, "lat": 53.7839113, "lon": 9.7594631, "tags": {"addr:city": "Barmstedt", "addr:country": "DE", "addr:housenumber": "7", "addr:postcode": "25355", "addr:street": "Rantzau", "amenity": "restaurant", "name": "Zum Bootssteg", "url": "http://www.zum-bootssteg.de"}}, {"type": "node", "id": 306100881, "lat": 53.716857, "lon": 9.9395876}, {"type": "node", "id": 306100882, "lat": 53.7168612, "lon": 9.9398124}, {"type": "node", "id": 307521839, "lat": 53.7165296, "lon": 9.9396054}, {"type": "node", "id": 307521840, "lat": 53.7164962, "lon": 9.9399516}, {"type": "node", "id": 317792268, "lat": 53.7164822, "lon": 10.0000369, "tags": {"addr:city": "Norderstedt", "addr:housenumber": "334", "addr:postcode": "22846", "addr:street": "Ulzburger Stra\u00dfe", "amenity": "restaurant", "changing_table": "yes", "changing_table:location": "female_toilet", "highchair": "yes", "kids_area": "yes", "name": "Schweinske", "opening_hours": "Mo-Th 08:00-23:00;Fr-Sa 08:00-00:00, PH 09:00-23:00", "outdoor_seating": "yes", "phone": "+49405266664", "survey:date": "2019-12-19", "toilets:wheelchair": "no", "website": "https://schweinske.de", "wheelchair": "yes", "wheelchair:description": "Das WC befindet sich im Keller. Der\n nur \u00fcber eine schmale Treppe zu erreichen ist."}}, {"type": "node", "id": 318374689, "lat": 53.7099799, "lon": 10.1319684, "tags": {"amenity": "restaurant", "name": "Zum B\u00e4cker", "opening_hours": "Mo off; PH,Tu-Th,Su 12:00-22:00; Fr-Sa 12:00-23:00"}}, {"type": "node", "id": 366581722, "lat": 53.7773792, "lon": 9.6010199}, {"type": "node", "id": 367029080, "lat": 53.7225036, "lon": 9.9982872, "tags": {"wheelchair": "limited", "name": "China Restaurant Lee Hoo Fook", "cuisine": "chinese", "amenity": "restaurant"}}, {"type": "node", "id": 389462939, "lat": 53.7896359, "lon": 9.7695606, "tags": {"addr:city": "Barmstedt", "addr:country": "DE", "addr:housenumber": "4", "addr:postcode": "25355", "addr:street": "Kuhberg", "amenity": "restaurant", "building": "yes", "cuisine": "german", "name": "Zum Alten Markt", "wheelchair": "limited"}}, {"type": "node", "id": 389462941, "lat": 53.7891085, "lon": 9.7693147, "tags": {"amenity": "restaurant", "cuisine": "kebab", "name": "Berlin D\u00f6ner", "wheelchair": "limited"}}, {"type": "node", "id": 391519581, "lat": 53.7891244, "lon": 9.7731855, "tags": {"website": "http://www.thassos-barmstedt.de/", "addr:city": "Barmstedt", "addr:country": "DE", "addr:housenumber": "1", "addr:postcode": "25355", "addr:street": "Chemnitzstra\u00dfe", "amenity": "restaurant", "building": "yes", "cuisine": "greek", "email": "info@thassos-barmstedt.de", "fax": "+49 4123 683969", "name": "Restaurant Thassos zur Linde", "opening_hours": "Tu-Sa 17:00-23:30; Su 11:30-23:30; PH 11:30-23:30; Mo off", "operator": "Alkiviadis Karanikolas", "phone": "+49 4123 683968", "wheelchair": "no"}}, {"type": "node", "id": 391538765, "lat": 53.726423, "lon": 9.9154333, "tags": {"wheelchair": "yes", "website": "https://casamiaquickborn.eatbu.com", "addr:city": "Quickborn", "addr:country": "DE", "addr:housenumber": "111", "addr:postcode": "25451", "addr:street": "Harksheider Weg", "amenity": "restaurant", "cuisine": "italian", "diet:halal": "no", "diet:kosher": "no", "diet:vegan": "yes", "diet:vegetarian": "yes", "dogs": "permitted", "email": "casamia999@yahoo.de", "name": "Casa Mia Ristorante", "opening_hours": "Mo closed;Tu-Fr 12:00-14:30,17:30-22:00; Sa 17:00-22:00; Su 12:00-14:30,17:30-22:00", "phone": "+49 4106 7972928"}}, {"type": "node", "id": 391539679, "lat": 53.7288543, "lon": 9.8970965, "tags": {"addr:city": "Quickborn", "addr:housenumber": "1", "addr:postcode": "25451", "addr:street": "An der Retloh", "amenity": "restaurant", "contact:phone": "+49 4106 6221877", "cuisine": "italian", "email": "Giuseppe.carra@gmx.de", "name": "La Famiglia", "opening_hours": "Tu-Su 17:00-23:30; Mo off", "operator": "Giuseppe Carra", "phone": "+49 4106 6221877", "website": "https://www.la-famiglia-quickborn.de/", "wheelchair": "limited"}}, {"type": "node", "id": 415862040, "lat": 53.7493335, "lon": 9.6522186}, {"type": "node", "id": 415862041, "lat": 53.7491936, "lon": 9.6524087}, {"type": "node", "id": 415862042, "lat": 53.7492791, "lon": 9.6525885}, {"type": "node", "id": 415862043, "lat": 53.7493843, "lon": 9.6526107}, {"type": "node", "id": 444454098, "lat": 53.7511528, "lon": 9.9193216, "tags": {"website": "https://www.mariatoni-ellerau.de/", "amenity": "restaurant", "cuisine": "italian", "name": "Maria & Toni"}}, {"type": "node", "id": 444462761, "lat": 53.7502732, "lon": 9.9191907, "tags": {"amenity": "restaurant", "cuisine": "regional", "name": "Steakhouse im Erlenhof", "wheelchair": "yes"}}, {"type": "node", "id": 455482288, "lat": 53.7130759, "lon": 10.0004796, "tags": {"amenity": "restaurant", "name": "Flame", "wheelchair": "no"}}, {"type": "node", "id": 463176847, "lat": 53.7336482, "lon": 10.1266617, "tags": {"amenity": "restaurant", "cuisine": "regional", "email": "info@raderschule.de", "name": "Alte Rader Schule", "phone": "+49 40 6071168", "website": "https://raderschule.de/"}}, {"type": "node", "id": 497828595, "lat": 53.734158, "lon": 9.9891018, "tags": {"amenity": "restaurant", "name": "La Veranda", "toilets:wheelchair": "no", "wheelchair": "yes"}}, {"type": "node", "id": 556010474, "lat": 53.7833682, "lon": 9.8034382, "tags": {"addr:city": "Heede", "addr:country": "DE", "addr:housenumber": "20", "addr:postcode": "25355", "addr:street": "Hoffnunger Chaussee", "amenity": "restaurant", "building": "detached", "name": "Waidmannsruh"}}, {"type": "node", "id": 582039653, "lat": 53.7548471, "lon": 9.8816334}, {"type": "node", "id": 582039655, "lat": 53.7548548, "lon": 9.881688}, {"type": "node", "id": 582039657, "lat": 53.7547823, "lon": 9.8817172}, {"type": "node", "id": 582039688, "lat": 53.7548386, "lon": 9.881322}, {"type": "node", "id": 582039711, "lat": 53.7548779, "lon": 9.8816211}, {"type": "node", "id": 601012675, "lat": 53.7133046, "lon": 9.9996637, "tags": {"amenity": "restaurant", "cuisine": "indian", "name": "Tandoor", "outdoor_seating": "yes", "wheelchair": "limited"}}, {"type": "node", "id": 653143286, "lat": 53.7596629, "lon": 9.6884748, "tags": {"addr:city": "K\u00f6lln-Reisiek", "addr:country": "DE", "addr:housenumber": "33", "addr:postcode": "25337", "addr:street": "Heidkamp", "amenity": "restaurant", "name": "Schlemmerstube", "wheelchair": "yes"}}, {"type": "node", "id": 677043927, "lat": 53.7104351, "lon": 10.0989563, "tags": {"amenity": "restaurant", "name": "Eichenhof"}}, {"type": "node", "id": 682267815, "lat": 53.7421139, "lon": 9.9440803}, {"type": "node", "id": 682267816, "lat": 53.7420079, "lon": 9.9442164}, {"type": "node", "id": 682267817, "lat": 53.7417721, "lon": 9.9433335}, {"type": "node", "id": 682267818, "lat": 53.7416702, "lon": 9.9434643}, {"type": "node", "id": 682267819, "lat": 53.741927, "lon": 9.9436784}, {"type": "node", "id": 682267821, "lat": 53.7419622, "lon": 9.9436332}, {"type": "node", "id": 682267822, "lat": 53.7420196, "lon": 9.9437609}, {"type": "node", "id": 682267823, "lat": 53.7419885, "lon": 9.9438008}, {"type": "node", "id": 682267843, "lat": 53.7448166, "lon": 9.944083, "tags": {"addr:city": "Quickborn", "addr:country": "DE", "addr:housenumber": "13a", "addr:postcode": "25451", "addr:street": "Pascalkehre", "amenity": "restaurant", "name": "Zum goldenen Bullen", "opening_hours": "Mo-Fr 07:30-16:30", "operator": "Eurest"}}, {"type": "node", "id": 682267844, "lat": 53.7453108, "lon": 9.9398865}, {"type": "node", "id": 764043958, "lat": 53.7167466, "lon": 9.939938}, {"type": "node", "id": 764043968, "lat": 53.716156, "lon": 9.9370341}, {"type": "node", "id": 764043974, "lat": 53.715956, "lon": 9.9367539}, {"type": "node", "id": 764043980, "lat": 53.7162317, "lon": 9.9370025}, {"type": "node", "id": 764043981, "lat": 53.7164927, "lon": 9.9397691}, {"type": "node", "id": 764043991, "lat": 53.7167453, "lon": 9.9398718}, {"type": "node", "id": 764044003, "lat": 53.716106, "lon": 9.9366914}, {"type": "node", "id": 764044014, "lat": 53.7160405, "lon": 9.9373325}, {"type": "node", "id": 764044031, "lat": 53.7165326, "lon": 9.939767}, {"type": "node", "id": 764044034, "lat": 53.7162658, "lon": 9.9372364}, {"type": "node", "id": 765943462, "lat": 53.7283774, "lon": 9.7719457}, {"type": "node", "id": 778163549, "lat": 53.7730127, "lon": 9.6424296}, {"type": "node", "id": 798665681, "lat": 53.722652, "lon": 9.9977508}, {"type": "node", "id": 866629795, "lat": 53.7309934, "lon": 9.8979218}, {"type": "node", "id": 880883828, "lat": 53.7318005, "lon": 9.8993932, "tags": {"cuisine": "greek", "name": "Taverna Philosophia", "opening_hours": "closed", "amenity": "restaurant", "addr:city": "Quickborn", "addr:country": "DE", "addr:housenumber": "4", "addr:postcode": "25451", "addr:street": "Am Freibad"}}, {"type": "node", "id": 913337046, "lat": 53.7468369, "lon": 9.9341001, "tags": {"opening_hours": "Mo-Su 12:00-15:00,18:00-24:00", "addr:city": "Quickborn", "addr:country": "DE", "addr:housenumber": "8", "addr:postcode": "25451", "addr:street": "Carl-Zeiss-Stra\u00dfe", "amenity": "restaurant", "cuisine": "italian", "name": "Ristorante Da Calogero"}}, {"type": "node", "id": 970280430, "lat": 53.7126689, "lon": 9.992597, "tags": {"addr:city": "Norderstedt", "addr:housenumber": "40", "addr:postcode": "22846", "addr:street": "Waldstra\u00dfe", "amenity": "restaurant", "cuisine": "greek", "name": "Taverna Syrtaki", "opening_hours": "Mo-Sa 17:00-22:00; Su,PH 12:00-22:00; Dec 24 closed; Dec 31 17:00-21:00; Jan 01-03 closed", "website": "https://www.syrtaki-norderstedt.de/", "wheelchair": "no"}}, {"type": "node", "id": 1039139988, "lat": 53.7376546, "lon": 9.6460903, "tags": {"addr:city": "Elmshorn", "addr:housenumber": "55", "addr:postcode": "25336", "addr:street": "K\u00f6hnholz", "amenity": "restaurant", "cuisine": "mongolian;chinese", "level": "0", "name": "Teppan House", "opening_hours": "Mo-Sa 11:30-15:00,17:00-23:00; Su 11:30-23:00", "outdoor_seating": "no", "toilets:wheelchair": "yes", "website": "https://teppan-house.de/", "wheelchair": "yes"}}, {"type": "node", "id": 1039237402, "lat": 53.7521006, "lon": 9.6524995, "tags": {"amenity": "restaurant", "cuisine": "steak", "name": "Elrado-House", "website": "http://www.elrado-house.de/elmshorn/restaurant.html", "wheelchair": "limited"}}, {"type": "node", "id": 1151536269, "lat": 53.7241458, "lon": 9.9365894}, {"type": "node", "id": 1151536270, "lat": 53.7241142, "lon": 9.9359145}, {"type": "node", "id": 1151536276, "lat": 53.7242881, "lon": 9.9359704}, {"type": "node", "id": 1151536278, "lat": 53.7243053, "lon": 9.9355981}, {"type": "node", "id": 1151536293, "lat": 53.7241299, "lon": 9.935575}, {"type": "node", "id": 1151536299, "lat": 53.7241765, "lon": 9.9359227}, {"type": "node", "id": 1151536301, "lat": 53.7243454, "lon": 9.935978}, {"type": "node", "id": 1151536315, "lat": 53.7243162, "lon": 9.9366118}, {"type": "node", "id": 1176726874, "lat": 53.7569504, "lon": 9.647083}, {"type": "node", "id": 1176726910, "lat": 53.7568164, "lon": 9.646653}, {"type": "node", "id": 1176726950, "lat": 53.7566969, "lon": 9.6471216}, {"type": "node", "id": 1176726961, "lat": 53.7568644, "lon": 9.6472493}, {"type": "node", "id": 1176726980, "lat": 53.7567242, "lon": 9.6469491}, {"type": "node", "id": 1176727020, "lat": 53.7568553, "lon": 9.6468046}, {"type": "node", "id": 1176727035, "lat": 53.7566642, "lon": 9.6469927}, {"type": "node", "id": 1176727060, "lat": 53.7569727, "lon": 9.6471707}, {"type": "node", "id": 1176727087, "lat": 53.7567103, "lon": 9.6468944}, {"type": "node", "id": 1176727089, "lat": 53.756586, "lon": 9.6472021}, {"type": "node", "id": 1176727113, "lat": 53.756833, "lon": 9.6467182}, {"type": "node", "id": 1176727115, "lat": 53.7569294, "lon": 9.6470983}, {"type": "node", "id": 1176727126, "lat": 53.7567645, "lon": 9.6468551}, {"type": "node", "id": 1232386901, "lat": 53.785892, "lon": 9.7630649}, {"type": "node", "id": 1232386988, "lat": 53.7859309, "lon": 9.7634173}, {"type": "node", "id": 1232387010, "lat": 53.7858278, "lon": 9.7633511}, {"type": "node", "id": 1232387083, "lat": 53.7859577, "lon": 9.7631071}, {"type": "node", "id": 1232387095, "lat": 53.7859951, "lon": 9.7631311}, {"type": "node", "id": 1232387106, "lat": 53.7859288, "lon": 9.7630885}, {"type": "node", "id": 1277329992, "lat": 53.8109476, "lon": 9.6185946}, {"type": "node", "id": 1285912998, "lat": 53.760447, "lon": 9.6538671}, {"type": "node", "id": 1285913027, "lat": 53.7604656, "lon": 9.654207}, {"type": "node", "id": 1285913063, "lat": 53.760522, "lon": 9.6537899}, {"type": "node", "id": 1285913149, "lat": 53.7606163, "lon": 9.6540518}, {"type": "node", "id": 1286040851, "lat": 53.7344216, "lon": 9.6640213}, {"type": "node", "id": 1286040865, "lat": 53.734507, "lon": 9.6637783}, {"type": "node", "id": 1286040871, "lat": 53.7346089, "lon": 9.6638386}, {"type": "node", "id": 1286040901, "lat": 53.7344188, "lon": 9.663874}, {"type": "node", "id": 1286040922, "lat": 53.7345192, "lon": 9.6640146}, {"type": "node", "id": 1286040930, "lat": 53.7344884, "lon": 9.6638709}, {"type": "node", "id": 1286151183, "lat": 53.7559372, "lon": 9.6484657}, {"type": "node", "id": 1286151246, "lat": 53.7558579, "lon": 9.648526}, {"type": "node", "id": 1286151262, "lat": 53.7557545, "lon": 9.6482436}, {"type": "node", "id": 1286151287, "lat": 53.7558417, "lon": 9.6481659}, {"type": "node", "id": 1286151327, "lat": 53.7558463, "lon": 9.6485348}, {"type": "node", "id": 1295715881, "lat": 53.755105, "lon": 9.6532032}, {"type": "node", "id": 1295715889, "lat": 53.7550586, "lon": 9.6530634}, {"type": "node", "id": 1295715916, "lat": 53.7549117, "lon": 9.653203}, {"type": "node", "id": 1295715941, "lat": 53.7549582, "lon": 9.6533428}, {"type": "node", "id": 1326678131, "lat": 53.7530591, "lon": 9.6515986}, {"type": "node", "id": 1326678141, "lat": 53.7531421, "lon": 9.6513543}, {"type": "node", "id": 1326678146, "lat": 53.7531826, "lon": 9.6514951}, {"type": "node", "id": 1352904527, "lat": 53.7452192, "lon": 9.9396714}, {"type": "node", "id": 1352904533, "lat": 53.7452525, "lon": 9.9398199}, {"type": "node", "id": 1352904534, "lat": 53.7452628, "lon": 9.939562}, {"type": "node", "id": 1352904535, "lat": 53.7452828, "lon": 9.939744}, {"type": "node", "id": 1352904536, "lat": 53.7453013, "lon": 9.9396059}, {"type": "node", "id": 1352904537, "lat": 53.7453189, "lon": 9.9394985}, {"type": "node", "id": 1352904538, "lat": 53.7453363, "lon": 9.9395184}, {"type": "node", "id": 1352904539, "lat": 53.7453575, "lon": 9.9397696}, {"type": "node", "id": 1352904540, "lat": 53.7453689, "lon": 9.9393732}, {"type": "node", "id": 1352904541, "lat": 53.7453734, "lon": 9.9397877}, {"type": "node", "id": 1352904542, "lat": 53.7453997, "lon": 9.9394084}, {"type": "node", "id": 1352904543, "lat": 53.7454026, "lon": 9.9395934}, {"type": "node", "id": 1352904553, "lat": 53.745424, "lon": 9.9393476}, {"type": "node", "id": 1352904555, "lat": 53.7454358, "lon": 9.9396313}, {"type": "node", "id": 1352904557, "lat": 53.7454767, "lon": 9.9394078}, {"type": "node", "id": 1354205166, "lat": 53.7226457, "lon": 9.9975553}, {"type": "node", "id": 1354205175, "lat": 53.7227638, "lon": 9.9975444}, {"type": "node", "id": 1354205176, "lat": 53.7227663, "lon": 9.9976219}, {"type": "node", "id": 1354205181, "lat": 53.7228722, "lon": 9.9976122}, {"type": "node", "id": 1354205182, "lat": 53.722876, "lon": 9.9977302}, {"type": "node", "id": 1377889104, "lat": 53.7537282, "lon": 9.9789772}, {"type": "node", "id": 1377889112, "lat": 53.7538013, "lon": 9.9789055}, {"type": "node", "id": 1377889117, "lat": 53.7538606, "lon": 9.979363}, {"type": "node", "id": 1377889119, "lat": 53.7538968, "lon": 9.9791838}, {"type": "node", "id": 1377889126, "lat": 53.7540021, "lon": 9.9792242}, {"type": "node", "id": 1444330674, "lat": 53.740842, "lon": 9.7117037, "tags": {"amenity": "restaurant", "name": "Kibek-Kantine", "wheelchair": "yes"}}, {"type": "node", "id": 1444857047, "lat": 53.7407063, "lon": 9.6705286}, {"type": "node", "id": 1444857050, "lat": 53.7407628, "lon": 9.6702674}, {"type": "node", "id": 1444857053, "lat": 53.7408332, "lon": 9.670607}, {"type": "node", "id": 1444857059, "lat": 53.7408269, "lon": 9.670307}, {"type": "node", "id": 1447222065, "lat": 53.7453824, "lon": 9.9397679, "tags": {"amenity": "vending_machine", "vending": "cigarettes"}}, {"type": "node", "id": 1457137466, "lat": 53.7162531, "lon": 10.000048, "tags": {"website": "www.soulsushi.de", "addr:city": "Norderstedt", "addr:country": "DE", "addr:housenumber": "332b", "addr:postcode": "22846", "addr:street": "Ulzburger Stra\u00dfe", "amenity": "restaurant", "cuisine": "sushi", "name": "Soul Sushi Norderstedt", "wheelchair": "limited"}}, {"type": "node", "id": 1529540326, "lat": 53.7553914, "lon": 9.6412575, "tags": {"name": "Grando Sukredo", "cuisine": "steak", "website": "http://www.grandosukredo.de/restaurants/elmshorn.html", "addr:housenumber": "5", "addr:postcode": "25335", "addr:street": "Turnstra\u00dfe", "amenity": "restaurant"}}, {"type": "node", "id": 1566301491, "lat": 53.7242276, "lon": 9.9092189}, {"type": "node", "id": 1566301504, "lat": 53.7242447, "lon": 9.9090307}, {"type": "node", "id": 1566301537, "lat": 53.7242739, "lon": 9.9092309}, {"type": "node", "id": 1566301538, "lat": 53.7242746, "lon": 9.9092227}, {"type": "node", "id": 1566301556, "lat": 53.7243427, "lon": 9.9092404}, {"type": "node", "id": 1566301573, "lat": 53.724359, "lon": 9.9090603}, {"type": "node", "id": 1670318891, "lat": 53.752993, "lon": 9.9206731}, {"type": "node", "id": 1707462366, "lat": 53.7632096, "lon": 9.8371565}, {"type": "node", "id": 1707462370, "lat": 53.7632616, "lon": 9.8369179}, {"type": "node", "id": 1707462371, "lat": 53.7632974, "lon": 9.8369648}, {"type": "node", "id": 1707462377, "lat": 53.7633701, "lon": 9.8366809}, {"type": "node", "id": 1707462380, "lat": 53.7634081, "lon": 9.8374163}, {"type": "node", "id": 1707462383, "lat": 53.7634715, "lon": 9.8372776}, {"type": "node", "id": 1707462391, "lat": 53.7637008, "lon": 9.8375779}, {"type": "node", "id": 1707462394, "lat": 53.7638335, "lon": 9.8372879}, {"type": "node", "id": 1748697724, "lat": 53.7099374, "lon": 10.1301567, "tags": {"website": "http://www.diemuehlehamburg.de", "addr:housenumber": "38", "addr:street": "M\u00fchlenredder", "amenity": "restaurant", "cuisine": "regional", "name": "Wohldorfer M\u00fchle"}}, {"type": "node", "id": 1752703636, "lat": 53.730784, "lon": 9.902076, "tags": {"shop": "wine", "opening_hours": "Mo-Fr 12:00-22:00; Sa 12:00-15:00", "name": "Unico", "cuisine": "italian", "amenity": "restaurant"}}, {"type": "node", "id": 1845285444, "lat": 53.7530162, "lon": 9.651457}, {"type": "node", "id": 1845285446, "lat": 53.7531488, "lon": 9.6513788}, {"type": "node", "id": 1887245316, "lat": 53.7547217, "lon": 9.881487}, {"type": "node", "id": 1887245328, "lat": 53.75475, "lon": 9.8816888}, {"type": "node", "id": 1887245331, "lat": 53.7547472, "lon": 9.8813587}, {"type": "node", "id": 1887245333, "lat": 53.7547629, "lon": 9.8814704}, {"type": "node", "id": 1887245335, "lat": 53.7548529, "lon": 9.8814238}, {"type": "node", "id": 1887245336, "lat": 53.7548674, "lon": 9.8815462}, {"type": "node", "id": 1887245338, "lat": 53.7548871, "lon": 9.8814101}, {"type": "node", "id": 1887245340, "lat": 53.7549041, "lon": 9.8815314}, {"type": "node", "id": 1893849853, "lat": 53.7121051, "lon": 9.9999726, "tags": {"addr:city": "Norderstedt", "addr:housenumber": "302", "addr:postcode": "22846", "addr:street": "Ulzburger Stra\u00dfe", "amenity": "restaurant", "cuisine": "sushi", "name": "Sushi Dreams", "toilets:wheelchair": "yes", "wheelchair": "limited", "wheelchair:description": "Der Eingang hat eine Stufe, aber im Laden ist alles sehr breit.\nEs gibt sogar ein extra Behindertengerechtes WC."}}, {"type": "node", "id": 2153818937, "lat": 53.7424064, "lon": 9.6778608, "tags": {"name": "Zorbas", "cuisine": "greek", "amenity": "restaurant"}}, {"type": "node", "id": 2156827793, "lat": 53.7408074, "lon": 9.6703972}, {"type": "node", "id": 2156827806, "lat": 53.7408702, "lon": 9.6704359}, {"type": "node", "id": 2194308075, "lat": 53.7530245, "lon": 9.6514852}, {"type": "node", "id": 2340962990, "lat": 53.7471706, "lon": 9.6552852}, {"type": "node", "id": 2340962996, "lat": 53.7472126, "lon": 9.6554168}, {"type": "node", "id": 2340963007, "lat": 53.7472513, "lon": 9.6552116}, {"type": "node", "id": 2340963013, "lat": 53.7472933, "lon": 9.6553432}, {"type": "node", "id": 2353138661, "lat": 53.7422271, "lon": 9.6441287}, {"type": "node", "id": 2353138662, "lat": 53.7422624, "lon": 9.6442005}, {"type": "node", "id": 2353138664, "lat": 53.7422937, "lon": 9.6439118}, {"type": "node", "id": 2353138666, "lat": 53.7423053, "lon": 9.6439964}, {"type": "node", "id": 2353138667, "lat": 53.7423654, "lon": 9.6438879}, {"type": "node", "id": 2353138668, "lat": 53.7424159, "lon": 9.6440075}, {"type": "node", "id": 2467569197, "lat": 53.8125264, "lon": 9.6238686}, {"type": "node", "id": 2467569198, "lat": 53.8125312, "lon": 9.6236755}, {"type": "node", "id": 2467569225, "lat": 53.8126215, "lon": 9.6238755}, {"type": "node", "id": 2467569226, "lat": 53.8126264, "lon": 9.6236823}, {"type": "node", "id": 2476484258, "lat": 53.8110524, "lon": 9.6187865}, {"type": "node", "id": 2478131314, "lat": 53.7288121, "lon": 9.9093048}, {"type": "node", "id": 2478131318, "lat": 53.7288843, "lon": 9.9090744}, {"type": "node", "id": 2478131321, "lat": 53.7289215, "lon": 9.9094027}, {"type": "node", "id": 2478131329, "lat": 53.7289937, "lon": 9.9091723}, {"type": "node", "id": 2478711554, "lat": 53.7871321, "lon": 9.7757881}, {"type": "node", "id": 2478711556, "lat": 53.7876196, "lon": 9.7761467}, {"type": "node", "id": 2478711557, "lat": 53.787619, "lon": 9.7757856}, {"type": "node", "id": 2481118664, "lat": 53.8119619, "lon": 9.625057}, {"type": "node", "id": 2481118666, "lat": 53.8119625, "lon": 9.6252767}, {"type": "node", "id": 2481118686, "lat": 53.8120447, "lon": 9.6252154}, {"type": "node", "id": 2481118687, "lat": 53.8120455, "lon": 9.6252765}, {"type": "node", "id": 2481118688, "lat": 53.8120461, "lon": 9.6250556}, {"type": "node", "id": 2481118689, "lat": 53.8120463, "lon": 9.6250907}, {"type": "node", "id": 2481118717, "lat": 53.812112, "lon": 9.6250484}, {"type": "node", "id": 2481118718, "lat": 53.8121122, "lon": 9.6250896}, {"type": "node", "id": 2481118727, "lat": 53.8121503, "lon": 9.6251945}, {"type": "node", "id": 2481118728, "lat": 53.8121504, "lon": 9.6252137}, {"type": "node", "id": 2481118738, "lat": 53.8121858, "lon": 9.6250473}, {"type": "node", "id": 2481118739, "lat": 53.8121861, "lon": 9.6250988}, {"type": "node", "id": 2481118740, "lat": 53.8121866, "lon": 9.6251939}, {"type": "node", "id": 2591118720, "lat": 53.7502509, "lon": 9.6718518}, {"type": "node", "id": 2591118722, "lat": 53.7503273, "lon": 9.6719473}, {"type": "node", "id": 2591118723, "lat": 53.7503704, "lon": 9.6718485}, {"type": "node", "id": 2591118725, "lat": 53.7503817, "lon": 9.6715526}, {"type": "node", "id": 2591118729, "lat": 53.7504344, "lon": 9.6717023}, {"type": "node", "id": 2591118733, "lat": 53.7504581, "lon": 9.6716481}, {"type": "node", "id": 2648339829, "lat": 53.7890457, "lon": 9.7713556, "tags": {"addr:city": "Barmstedt", "addr:housenumber": "14", "addr:postcode": "25355", "addr:street": "Am Markt", "amenity": "restaurant", "cuisine": "pizza", "email": "bestellung@pizza-barmstedt.de", "microbrewery": "no", "name": "Bella Italia", "opening_hours": "Mo-Fr 16:00-22:00; Sa-Su 11:00-22:00; Ph 11:00-22:00", "operator": "Abdurrahman Ulug", "phone": "+49 4123 52 54", "website": "http://www.pizza-barmstedt.de", "wheelchair": "yes"}}, {"type": "node", "id": 2648344824, "lat": 53.7917855, "lon": 9.7758294}, {"type": "node", "id": 2648344825, "lat": 53.7918426, "lon": 9.7755959}, {"type": "node", "id": 2648344826, "lat": 53.7920244, "lon": 9.7759966}, {"type": "node", "id": 2648344827, "lat": 53.7920814, "lon": 9.775763}, {"type": "node", "id": 2648350433, "lat": 53.7895168, "lon": 9.7727761, "tags": {"addr:city": "Barmstedt", "addr:housenumber": "3", "addr:postcode": "25355", "addr:street": "Reichenstra\u00dfe", "amenity": "restaurant", "cuisine": "french", "name": "Croques und Salate", "phone": "+49 4123 6300", "wheelchair": "no"}}, {"type": "node", "id": 2648381455, "lat": 53.788841, "lon": 9.776361, "tags": {"addr:city": "Barmstedt", "addr:housenumber": "15", "addr:postcode": "25355", "addr:street": "Reichenstra\u00dfe", "amenity": "restaurant", "cuisine": "german", "name": "Stadtgrill", "phone": "+49 4123 92 17 93"}}, {"type": "node", "id": 2649447202, "lat": 53.7729515, "lon": 9.6420081}, {"type": "node", "id": 2649447205, "lat": 53.7730373, "lon": 9.6419724}, {"type": "node", "id": 2649447206, "lat": 53.7730531, "lon": 9.6420811}, {"type": "node", "id": 2649447209, "lat": 53.7731348, "lon": 9.6420472}, {"type": "node", "id": 2649447210, "lat": 53.7731802, "lon": 9.6423599}, {"type": "node", "id": 2651644961, "lat": 53.7918151, "lon": 9.7757082, "tags": {"entrance": "main", "wheelchair": "yes"}}, {"type": "node", "id": 2795329720, "lat": 53.7313469, "lon": 9.899068, "tags": {"opening_hours": "Mo,We-Sa 11:30-14:30,18:00-22:00; Su,PH 17:00-22:00", "addr:city": "Quickborn", "addr:housenumber": "11", "addr:postcode": "25451", "addr:street": "Bahnhofstra\u00dfe", "amenity": "restaurant", "check_date:opening_hours": "2021-06-12", "name": "Peperonico"}}, {"type": "node", "id": 2833209400, "lat": 53.7898544, "lon": 9.7753461, "tags": {"addr:city": "Barmstedt", "addr:country": "DE", "addr:housenumber": "26", "addr:postcode": "25355", "addr:street": "Reichenstra\u00dfe", "amenity": "restaurant", "building": "yes", "cuisine": "italian", "name": "Pane E Vino", "wheelchair": "yes"}}, {"type": "node", "id": 2874770464, "lat": 53.783228, "lon": 9.791283}, {"type": "node", "id": 2874770465, "lat": 53.7832395, "lon": 9.7914478}, {"type": "node", "id": 2874770466, "lat": 53.7832778, "lon": 9.7913289}, {"type": "node", "id": 2874770467, "lat": 53.7833184, "lon": 9.790948}, {"type": "node", "id": 2874770468, "lat": 53.7833216, "lon": 9.7909651, "tags": {"entrance": "yes"}}, {"type": "node", "id": 2874770469, "lat": 53.7833248, "lon": 9.7909821}, {"type": "node", "id": 2874770470, "lat": 53.7833259, "lon": 9.7912669}, {"type": "node", "id": 2874770472, "lat": 53.7833563, "lon": 9.7911722}, {"type": "node", "id": 2874770473, "lat": 53.7833851, "lon": 9.7907357}, {"type": "node", "id": 2874770474, "lat": 53.7834069, "lon": 9.791057}, {"type": "node", "id": 2874770475, "lat": 53.7834265, "lon": 9.79162}, {"type": "node", "id": 2874770476, "lat": 53.7834816, "lon": 9.7908246}, {"type": "node", "id": 2874770478, "lat": 53.7834911, "lon": 9.7914192}, {"type": "node", "id": 2874770482, "lat": 53.7835271, "lon": 9.7913295}, {"type": "node", "id": 2874770483, "lat": 53.7835672, "lon": 9.7912047}, {"type": "node", "id": 2905551303, "lat": 53.741849, "lon": 9.6416521}, {"type": "node", "id": 2905551309, "lat": 53.7419504, "lon": 9.6418131}, {"type": "node", "id": 2905551311, "lat": 53.7419875, "lon": 9.6414027}, {"type": "node", "id": 2905551312, "lat": 53.7419908, "lon": 9.6414079}, {"type": "node", "id": 2905551316, "lat": 53.7420788, "lon": 9.6415476}, {"type": "node", "id": 2905551319, "lat": 53.7420889, "lon": 9.6415637}, {"type": "node", "id": 2911690187, "lat": 53.7548225, "lon": 9.6603543, "tags": {"addr:city": "Elmshorn", "addr:housenumber": "7", "addr:postcode": "25335", "addr:street": "M\u00fchlenstra\u00dfe", "amenity": "restaurant", "cuisine": "chinese", "delivery": "yes", "name": "China Lee", "takeaway": "yes"}}, {"type": "node", "id": 2911690188, "lat": 53.7549938, "lon": 9.6604554, "tags": {"amenity": "restaurant", "name": "Br\u00fccke SH Cafeteria"}}, {"type": "node", "id": 2927780375, "lat": 53.7564833, "lon": 9.6607435}, {"type": "node", "id": 2927780379, "lat": 53.7565338, "lon": 9.6603142}, {"type": "node", "id": 2927780383, "lat": 53.7565655, "lon": 9.6603227}, {"type": "node", "id": 2927780385, "lat": 53.7565755, "lon": 9.6607785}, {"type": "node", "id": 2927780395, "lat": 53.7566323, "lon": 9.6603498}, {"type": "node", "id": 2927780398, "lat": 53.7566435, "lon": 9.6608043}, {"type": "node", "id": 2927792604, "lat": 53.7567001, "lon": 9.6603772}, {"type": "node", "id": 2931942963, "lat": 53.7345376, "lon": 9.6640513}, {"type": "node", "id": 2931942971, "lat": 53.7345871, "lon": 9.6639336}, {"type": "node", "id": 2931942975, "lat": 53.7346011, "lon": 9.6639639}, {"type": "node", "id": 2944574062, "lat": 53.7576239, "lon": 9.6608434, "tags": {"amenity": "restaurant", "name": "Dalmacia", "wheelchair": "limited"}}, {"type": "node", "id": 2944574758, "lat": 53.7569754, "lon": 9.6600965, "tags": {"amenity": "restaurant", "name": "San Marco", "wheelchair": "no"}}, {"type": "node", "id": 2954932188, "lat": 53.7551218, "lon": 9.6561104, "tags": {"amenity": "restaurant", "level": "0", "name": "BojeMio", "opening_hours": "Mo-Fr 09:00-15:00", "wheelchair": "yes"}}, {"type": "node", "id": 2955673423, "lat": 53.7918335, "lon": 9.775863}, {"type": "node", "id": 2955690794, "lat": 53.7919075, "lon": 9.7759147}, {"type": "node", "id": 2959866971, "lat": 53.7449816, "lon": 9.6998631, "tags": {"amenity": "restaurant", "contact:website": "http://betriebskantine-schneider.de/", "name": "Betriebskantine Schneider", "opening_hours": "Mo-Th 07:00-15:00; Fr 07:00-14:00", "wheelchair": "yes"}}, {"type": "node", "id": 2962875822, "lat": 53.7493366, "lon": 9.6525103}, {"type": "node", "id": 2962875823, "lat": 53.7493738, "lon": 9.6524}, {"type": "node", "id": 2962875824, "lat": 53.7494017, "lon": 9.6523621}, {"type": "node", "id": 2962875826, "lat": 53.7494388, "lon": 9.6525367}, {"type": "node", "id": 3066580600, "lat": 53.7721018, "lon": 9.6870858}, {"type": "node", "id": 3066580602, "lat": 53.7721796, "lon": 9.6873659}, {"type": "node", "id": 3066580606, "lat": 53.7722854, "lon": 9.6869398}, {"type": "node", "id": 3066580607, "lat": 53.7723079, "lon": 9.687021, "tags": {"entrance": "main"}}, {"type": "node", "id": 3066580609, "lat": 53.7723353, "lon": 9.6871193}, {"type": "node", "id": 3066580610, "lat": 53.7723602, "lon": 9.6870995}, {"type": "node", "id": 3066580611, "lat": 53.7723881, "lon": 9.6872}, {"type": "node", "id": 3109332075, "lat": 53.7764197, "lon": 9.6645111}, {"type": "node", "id": 3109332081, "lat": 53.7764894, "lon": 9.6648058}, {"type": "node", "id": 3109332085, "lat": 53.7765325, "lon": 9.6640723}, {"type": "node", "id": 3109332086, "lat": 53.7765756, "lon": 9.6648414}, {"type": "node", "id": 3109332087, "lat": 53.7765814, "lon": 9.6641084}, {"type": "node", "id": 3109332088, "lat": 53.7765898, "lon": 9.6645221}, {"type": "node", "id": 3109332089, "lat": 53.7765986, "lon": 9.6644878}, {"type": "node", "id": 3109332090, "lat": 53.7766198, "lon": 9.6645345}, {"type": "node", "id": 3109332091, "lat": 53.7766214, "lon": 9.664399}, {"type": "node", "id": 3109332092, "lat": 53.7766292, "lon": 9.6645102}, {"type": "node", "id": 3109332093, "lat": 53.7766451, "lon": 9.6638103}, {"type": "node", "id": 3109332094, "lat": 53.7766457, "lon": 9.6643048}, {"type": "node", "id": 3109332095, "lat": 53.7766519, "lon": 9.6644213}, {"type": "node", "id": 3109332096, "lat": 53.7766596, "lon": 9.6645626}, {"type": "node", "id": 3109332097, "lat": 53.7766696, "lon": 9.664323}, {"type": "node", "id": 3109332098, "lat": 53.7766983, "lon": 9.6642153}, {"type": "node", "id": 3109332099, "lat": 53.7767038, "lon": 9.6644138}, {"type": "node", "id": 3109332100, "lat": 53.7767111, "lon": 9.6642231}, {"type": "node", "id": 3109332101, "lat": 53.7767121, "lon": 9.6645476}, {"type": "node", "id": 3109332102, "lat": 53.7767287, "lon": 9.6644727}, {"type": "node", "id": 3109332104, "lat": 53.7767814, "lon": 9.6638937}, {"type": "node", "id": 3110681087, "lat": 53.7816044, "lon": 9.6856992}, {"type": "node", "id": 3110681092, "lat": 53.7816413, "lon": 9.685255}, {"type": "node", "id": 3110681093, "lat": 53.7816697, "lon": 9.6852618}, {"type": "node", "id": 3110681094, "lat": 53.781673, "lon": 9.6852217}, {"type": "node", "id": 3110681100, "lat": 53.7817817, "lon": 9.6857414}, {"type": "node", "id": 3110681106, "lat": 53.7818219, "lon": 9.6852571}, {"type": "node", "id": 3169308613, "lat": 53.7897478, "lon": 9.7729403}, {"type": "node", "id": 3169308617, "lat": 53.7897714, "lon": 9.7730599}, {"type": "node", "id": 3169308619, "lat": 53.7898456, "lon": 9.7728857}, {"type": "node", "id": 3169308620, "lat": 53.7898484, "lon": 9.7728692, "tags": {"entrance": "main"}}, {"type": "node", "id": 3169308621, "lat": 53.7898512, "lon": 9.7728517}, {"type": "node", "id": 3169308623, "lat": 53.7898729, "lon": 9.7730044}, {"type": "node", "id": 3169308625, "lat": 53.7899057, "lon": 9.7732457}, {"type": "node", "id": 3169308629, "lat": 53.7899746, "lon": 9.7727767}, {"type": "node", "id": 3169308632, "lat": 53.7899807, "lon": 9.7729454}, {"type": "node", "id": 3169308634, "lat": 53.7900031, "lon": 9.7729331}, {"type": "node", "id": 3169308635, "lat": 53.7900146, "lon": 9.7731961}, {"type": "node", "id": 3179690934, "lat": 53.7905334, "lon": 9.6346093}, {"type": "node", "id": 3179690935, "lat": 53.7907495, "lon": 9.634518}, {"type": "node", "id": 3179690936, "lat": 53.7907775, "lon": 9.6347081}, {"type": "node", "id": 3179690937, "lat": 53.7907377, "lon": 9.6347249}, {"type": "node", "id": 3179690938, "lat": 53.7907582, "lon": 9.6348636}, {"type": "node", "id": 3179690939, "lat": 53.7907994, "lon": 9.6348462}, {"type": "node", "id": 3179690940, "lat": 53.7908247, "lon": 9.6350179}, {"type": "node", "id": 3179690941, "lat": 53.7906083, "lon": 9.6351093}, {"type": "node", "id": 3179690942, "lat": 53.7905852, "lon": 9.6349526}, {"type": "node", "id": 3179690943, "lat": 53.790618, "lon": 9.6349388}, {"type": "node", "id": 3179690944, "lat": 53.790595, "lon": 9.6347824}, {"type": "node", "id": 3179690945, "lat": 53.790561, "lon": 9.6347967}, {"type": "node", "id": 3179690946, "lat": 53.7907112, "lon": 9.6345342}, {"type": "node", "id": 3253762598, "lat": 53.7586624, "lon": 9.6642859}, {"type": "node", "id": 3253762599, "lat": 53.7587365, "lon": 9.6644183}, {"type": "node", "id": 3253762600, "lat": 53.7587543, "lon": 9.6641389}, {"type": "node", "id": 3253762601, "lat": 53.7588284, "lon": 9.6642713}, {"type": "node", "id": 3424009935, "lat": 53.7872586, "lon": 9.7761486}, {"type": "node", "id": 3439404181, "lat": 53.7604135, "lon": 9.6540621}, {"type": "node", "id": 3439404192, "lat": 53.7604891, "lon": 9.6539842}, {"type": "node", "id": 3594723492, "lat": 53.7529126, "lon": 9.9208026}, {"type": "node", "id": 3594723493, "lat": 53.7529329, "lon": 9.9207818}, {"type": "node", "id": 3594723494, "lat": 53.7529205, "lon": 9.9207472}, {"type": "node", "id": 3594723496, "lat": 53.7529436, "lon": 9.920535}, {"type": "node", "id": 3594723497, "lat": 53.7528508, "lon": 9.9206299}, {"type": "node", "id": 3606013432, "lat": 53.7341101, "lon": 9.9891895, "tags": {"amenity": "restaurant", "cuisine": "burger", "wheelchair": "yes", "toilets:wheelchair": "yes", "name": "Hamburger Original", "opening_hours": "Mo-Th 12:00-14:30, Mo-Fr 17:00-22:00, Sa-Su 16:00-22:00", "takeaway": "no", "website": "http://hamburgeroriginal.com", "addr:city": "Norderstedt", "addr:housenumber": "50", "addr:postcode": "22844", "addr:street": "Quickborner Stra\u00dfe"}}, {"type": "node", "id": 3653726391, "lat": 53.8028209, "lon": 9.7683792}, {"type": "node", "id": 3653726392, "lat": 53.8028318, "lon": 9.7681979}, {"type": "node", "id": 3653726393, "lat": 53.8029176, "lon": 9.7684665}, {"type": "node", "id": 3653726394, "lat": 53.8029218, "lon": 9.7683965}, {"type": "node", "id": 3653726395, "lat": 53.8030261, "lon": 9.7682313}, {"type": "node", "id": 3653726396, "lat": 53.803032, "lon": 9.7681327}, {"type": "node", "id": 3653726397, "lat": 53.8031356, "lon": 9.7685039}, {"type": "node", "id": 3653726398, "lat": 53.8031565, "lon": 9.7681541}, {"type": "node", "id": 3760433197, "lat": 53.7729967, "lon": 9.8757265, "tags": {"addr:city": "Bilsen", "addr:housenumber": "25", "addr:postcode": "25485", "addr:street": "Kieler Stra\u00dfe", "amenity": "restaurant", "email": "iernsting@t-online.de", "fax": "+49 4106 651662", "name": "Zur Bilsener M\u00fchle", "opening_hours:signed": "no", "operator": "Ingo Ernsting", "phone": "+49 4106 68453", "website": "https://bilsener-muehle.de.tl/"}}, {"type": "node", "id": 3761633263, "lat": 53.7520817, "lon": 9.9598647, "tags": {"addr:city": "Quickborn", "addr:housenumber": "447", "addr:postcode": "25451", "addr:street": "Ulzburger Landstra\u00dfe", "amenity": "restaurant", "cuisine": "italian", "email": "info@casa-di-campo.biz", "name": "Casa di Campo", "opening_hours": "Mo off; Tu-Sa 17:00-24:00; Su 12:00-22:00", "phone": "+49 4106 7981776", "toilets:wheelchair": "no", "website": "https://casa-di-campo.biz/", "wheelchair": "yes"}}, {"type": "node", "id": 3897088219, "lat": 53.7900069, "lon": 9.7744102, "tags": {"addr:city": "Barmstedt", "addr:country": "DE", "addr:housenumber": "19", "addr:postcode": "25355", "addr:street": "Reichenstra\u00dfe", "amenity": "restaurant", "name": "Die Pappardelle", "outdoor_seating": "yes", "wheelchair": "no"}}, {"type": "node", "id": 3913056828, "lat": 53.7492355, "lon": 10.0667695, "tags": {"addr:housenumber": "131", "addr:street": "Dorfring", "amenity": "restaurant", "cuisine": "pizza", "name": "Pizza Mercato", "website": "http://www.donbasili.de/"}}, {"type": "node", "id": 3950191362, "lat": 53.7892383, "lon": 9.7692828, "tags": {"amenity": "restaurant", "cuisine": "asian", "name": "Asia House", "wheelchair": "yes"}}, {"type": "node", "id": 4004229146, "lat": 53.7685586, "lon": 9.6844242}, {"type": "node", "id": 4004229154, "lat": 53.7686253, "lon": 9.6842624}, {"type": "node", "id": 4004229164, "lat": 53.7687594, "lon": 9.6846611}, {"type": "node", "id": 4004229171, "lat": 53.7688261, "lon": 9.6844993}, {"type": "node", "id": 4017521396, "lat": 53.7548051, "lon": 9.6601576, "tags": {"addr:city": "Elmshorn", "addr:housenumber": "5", "addr:postcode": "25335", "addr:street": "M\u00fchlenstra\u00dfe", "amenity": "restaurant", "cuisine": "greek", "name": "El Greco", "phone": "+49 4121 103 83 30", "takeaway": "yes", "wheelchair": "no"}}, {"type": "node", "id": 4069709730, "lat": 53.7242037, "lon": 9.936597}, {"type": "node", "id": 4109914013, "lat": 53.7517803, "lon": 9.6729221, "tags": {"addr:street": "Langelohe", "amenity": "restaurant", "cuisine": "greek", "name": "Meteora", "opening_hours": "Mo-Sa 17:00-23:00; Su 12:00-22:00", "phone": "+49 4121 750205"}}, {"type": "node", "id": 4132778935, "lat": 53.7325413, "lon": 9.9974563, "tags": {"amenity": "restaurant", "name": "Binnen un Buten", "wheelchair": "limited"}}, {"type": "node", "id": 4578094384, "lat": 53.7310821, "lon": 9.8977446}, {"type": "node", "id": 4578106457, "lat": 53.7167722, "lon": 9.9398172}, {"type": "node", "id": 4578113889, "lat": 53.7167732, "lon": 9.9398703}, {"type": "node", "id": 4773272874, "lat": 53.7511108, "lon": 10.0655017, "tags": {"addr:housenumber": "15", "addr:street": "Weg am Sportplatz", "amenity": "restaurant", "cuisine": "greek", "level": "1", "name": "Taverna Mykonos", "opening_hours": "Tu-Sa 16:00-22:00; Su,PH 12:00-22:00", "website": "https://www.tavernamykonos.de/"}}, {"type": "node", "id": 4874614427, "lat": 53.7344825, "lon": 9.6640171, "tags": {"addr:city": "Elmshorn", "addr:housenumber": "35", "addr:postcode": "25336", "addr:street": "Bi de M\u00f6hl", "entrance": "yes"}}, {"type": "node", "id": 4874614428, "lat": 53.7344528, "lon": 9.6640192, "tags": {"addr:city": "Elmshorn", "addr:housenumber": "33", "addr:postcode": "25336", "addr:street": "Bi de M\u00f6hl", "entrance": "yes"}}, {"type": "node", "id": 4914127477, "lat": 53.7874341, "lon": 9.7761477, "tags": {"entrance": "main"}}, {"type": "node", "id": 4986436422, "lat": 53.7319713, "lon": 9.996982, "tags": {"addr:city": "Norderstedt", "addr:housenumber": "472", "addr:postcode": "22844", "addr:street": "Ulzburger Stra\u00dfe", "amenity": "restaurant", "contact:facebook": "https://de-de.facebook.com/Mr-Gyros-Norderstedt-560538130708014/?ref=page_internal", "name": "Mr. Gyros", "toilets:wheelchair": "no", "wheelchair": "limited", "wheelchair:description": "Im Gastraum zum hinteren Bereich ist eine Stufe, aber der Tresen und ein paar Tische sind ohne Barriere zu erreichen."}}, {"type": "node", "id": 5113153426, "lat": 53.7774641, "lon": 9.6014854}, {"type": "node", "id": 5113153427, "lat": 53.7773034, "lon": 9.6011138}, {"type": "node", "id": 5113153428, "lat": 53.7775399, "lon": 9.6013915}, {"type": "node", "id": 5645405655, "lat": 53.7283675, "lon": 9.7721935}, {"type": "node", "id": 5645405656, "lat": 53.7284635, "lon": 9.7722803}, {"type": "node", "id": 5645405657, "lat": 53.7283477, "lon": 9.7721913}, {"type": "node", "id": 5645405658, "lat": 53.7283341, "lon": 9.7725318}, {"type": "node", "id": 5645405659, "lat": 53.7284529, "lon": 9.7725453}, {"type": "node", "id": 5645405660, "lat": 53.7285591, "lon": 9.7722912}, {"type": "node", "id": 5645405661, "lat": 53.7285624, "lon": 9.7722081}, {"type": "node", "id": 5645405662, "lat": 53.7285985, "lon": 9.7722122}, {"type": "node", "id": 5645405663, "lat": 53.7286081, "lon": 9.771972}, {"type": "node", "id": 6109762868, "lat": 53.7161359, "lon": 9.9372925, "tags": {"entrance": "main"}}, {"type": "node", "id": 6171616949, "lat": 53.7357094, "lon": 10.0812086, "tags": {"amenity": "restaurant", "contact:phone": "+49 4109 2143462", "cuisine": "german", "name": "Neue Hofk\u00fcche", "opening_hours": "Tu-Su 16:00+; Mo off"}}, {"type": "node", "id": 6504678218, "lat": 53.7344127, "lon": 9.8930377, "tags": {"website": "www.restaurant-ambrosia-quickborn.de", "addr:city": "Quickborn", "addr:housenumber": "117", "addr:postcode": "25451", "addr:street": "Kieler Stra\u00dfe", "amenity": "restaurant", "cuisine": "greek", "name": "Ambrosia", "opening_hours": "Mo-Fr 12:00-15:00,17:30-22:00; Sa 12:00-15:00,17:30-22:00; Su 12:00-22:00", "outdoor_seating": "yes", "phone": "+49 4106 58 11"}}, {"type": "node", "id": 6648125381, "lat": 53.7467218, "lon": 9.9424767, "tags": {"addr:city": "Quickborn", "addr:country": "DE", "addr:housenumber": "57", "addr:postcode": "25451", "addr:street": "Friedrichsgaber Stra\u00dfe", "amenity": "restaurant", "contact:mobile": "+49 172 4314216", "contact:phone": "+49 4106 78292", "contact:website": "http://www.mythos-quickborn.com/", "contact:whatsapp": "+49 172 4314216", "cuisine": "greek", "email": "chris.thomaidis@rocketmail.com", "fax": "+49 4106 78292", "name": "Mythos", "opening_hours": "Tu-Su 17:30-23:00", "operator": "Christos Thomaidis", "outdoor_seating": "yes", "phone": "+49 4106 71369", "takeaway": "yes", "website": "https://www.mythos-quickborn.com/"}}, {"type": "node", "id": 6677793763, "lat": 53.7180453, "lon": 10.1119614, "tags": {"toilets": "yes", "outdoor_seating": "yes", "operator": "Gut Wulksfelde GmbH", "addr:city": "Tangstedt", "addr:housenumber": "15", "addr:postcode": "22889", "addr:street": "Wulksfelder Damm", "amenity": "restaurant", "changing_table": "yes", "contact:email": "info@gutskueche.de", "contact:phone": "+49 40 64419441", "contact:website": "http://www.gutskueche.de", "cuisine": "regional", "name": "Gutsk\u00fcche", "opening_hours": "We-Su 12:00-21:00"}}, {"type": "node", "id": 7178228249, "lat": 53.73375, "lon": 10.0858274, "tags": {"opening_hours": "Mo,We,Th 16:00+; Fr,Sa,Su 11:00+", "amenity": "restaurant"}}, {"type": "node", "id": 7756487574, "lat": 53.7297213, "lon": 9.9967353, "tags": {"addr:city": "Norderstedt", "addr:housenumber": "567", "addr:postcode": "22844", "addr:street": "Ulzburger Stra\u00dfe", "amenity": "restaurant", "cuisine": "greek", "name": "Athena \"Mediterrane K\u00fcche\"", "opening_hours": "Tu-Su 17:00-23:00", "phone": "+49 40 5224716", "website": "https://www.athena-das-restaurant.de"}}, {"type": "node", "id": 7757281961, "lat": 53.7323932, "lon": 9.9964307, "tags": {"website": "www.r-grande.eu", "addr:city": "Norderstedt", "addr:housenumber": "593", "addr:postcode": "22844", "addr:street": "Ulzburger Stra\u00dfe", "amenity": "restaurant", "name": "Rio Grande", "opening_hours": "Mo-Su 11:30-24:00", "opening_hours:covid19": "restricted", "phone": "+49 40 52208808"}}, {"type": "node", "id": 8629398059, "lat": 53.7305304, "lon": 9.8961729, "tags": {"amenity": "restaurant", "cuisine": "greek", "name": "Der Grieche", "opening_hours": "PH,Tu-Su 16:00-21:30"}}, {"type": "node", "id": 8759027006, "lat": 53.7166058, "lon": 9.9998975}, {"type": "node", "id": 8759027007, "lat": 53.7166472, "lon": 10.000196}, {"type": "node", "id": 8759027008, "lat": 53.7165441, "lon": 10.0002368}, {"type": "node", "id": 8759027009, "lat": 53.7165028, "lon": 9.9999383}, {"type": "node", "id": 8826314238, "lat": 53.7284896, "lon": 9.8977318, "tags": {"addr:city": "Quickborn", "addr:housenumber": "61", "addr:postcode": "25451", "addr:street": "Kieler Stra\u00dfe", "amenity": "restaurant", "cuisine": "italian", "email": "info@restaurant-labellavita.de", "fax": "+49 4106 998889", "name": "la Bella Vita", "opening_hours": "Mo-Sa 12:00-15:00,17:30-22:00, Su 12:00-22:00", "outdoor_seating": "yes", "phone": "+49 4106 998888", "website": "https://restaurant-labellavita.de/"}}, {"type": "node", "id": 8920588584, "lat": 53.7310652, "lon": 9.8979396}, {"type": "node", "id": 8920588585, "lat": 53.7310027, "lon": 9.8978134}, {"type": "node", "id": 8920588586, "lat": 53.7309572, "lon": 9.8978022}, {"type": "node", "id": 8920588587, "lat": 53.7309647, "lon": 9.8977156}, {"type": "node", "id": 8940850159, "lat": 53.747545, "lon": 9.6374531, "tags": {"addr:city": "Elmshorn", "addr:housenumber": "24", "addr:postcode": "25336", "addr:street": "Heinrich-Hertz-Stra\u00dfe", "amenity": "restaurant", "name": "Hertzhaft", "phone": "+4917675601038", "website": "https://hertzhaft-elmshorn.de/"}}, {"type": "node", "id": 9002067112, "lat": 53.7499924, "lon": 9.9192567, "tags": {"addr:city": "Ellerau", "addr:housenumber": "2A", "addr:postcode": "25479", "addr:street": "Berliner Damm", "amenity": "restaurant", "cuisine": "steak_house", "email": "le.boeuf10088@gmail.com", "internet_access": "wlan", "name": "Le Boeuf", "opening_hours": "Mo off; Tu-Fr 12:00-15:00,17:00-22:00; Sa-Su 12:00-22:00", "outdoor_seating": "yes", "phone": "+49 4106 798581", "reservation": "yes", "takeaway": "yes", "website": "https://le-boeuf-steakhouse.eatbu.com/", "wheelchair": "yes"}}, {"type": "node", "id": 9002067113, "lat": 53.7496694, "lon": 9.9193425, "tags": {"addr:city": "Quickborn", "addr:country": "DE", "addr:housenumber": "2", "addr:postcode": "25451", "addr:street": "Bahnstra\u00dfe", "amenity": "restaurant", "cuisine": "asian", "delivery": "yes", "email": "taste-of-asia@gmx.de", "name": "Taste of Asia", "opening_hours": "Mo-Fr 11:30-14:30,17:00-22:00; Sa 16:00-22:00; Su 13:30-22:00", "operator": "Kristina Shahi", "outdoor_seating": "yes", "phone": "+49 4106 8079889", "takeaway": "yes", "website": "https://www.lieferprofi.de/shops/tasteofasia/"}}, {"type": "node", "id": 9002067114, "lat": 53.7286621, "lon": 9.8978218, "tags": {"addr:city": "Quickborn", "addr:housenumber": "63", "addr:postcode": "25451", "addr:street": "Kieler Stra\u00dfe", "amenity": "restaurant", "cuisine": "steak_house", "delivery": "yes", "email": "info@steakhouse-quickborn.de", "name": "Steakhouse Quickborn", "opening_hours": "Mo-Th,Su 12:00-22:00; Fr-Sa 12:00-23:00", "outdoor_seating": "yes", "phone": "+49 4106 6268384", "ref:vatin": "DE1314904246", "takeaway": "yes", "website": "https://www.steakhouse-quickborn.de/", "wheelchair": "yes"}}, {"type": "node", "id": 9010598905, "lat": 53.7545884, "lon": 9.658227, "tags": {"addr:city": "Elmshorn", "addr:housenumber": "2", "addr:postcode": "25335", "addr:street": "K\u00f6nigstra\u00dfe", "amenity": "restaurant", "cuisine": "turkish;grill", "name": "K\u00f6z Divan"}}, {"type": "node", "id": 9166535517, "lat": 53.7499322, "lon": 9.9243083, "tags": {"amenity": "restaurant", "name": "Futterkrippe bei Gisela"}}, {"type": "node", "id": 9310150531, "lat": 53.8111984, "lon": 9.6185516}, {"type": "node", "id": 9310150532, "lat": 53.811087, "lon": 9.6183692}, {"type": "way", "id": 28006717, "nodes": [307521840, 764043981, 764044031, 307521839, 306100881, 306100882, 4578106457, 4578113889, 764043991, 764043958, 307521840], "tags": {"outdoor_seating": "yes", "name": "March\u00e9", "level": "0", "kids_area:outdoor": "yes", "amenity": "restaurant", "building": "retail", "highchair": "yes", "kids_area": "yes"}}, {"type": "way", "id": 35458187, "nodes": [415862040, 415862041, 415862042, 2962875822, 415862043, 2962875826, 2962875823, 2962875824, 415862040], "tags": {"addr:city": "Elmshorn", "addr:country": "DE", "addr:housenumber": "16", "addr:postcode": "25336", "addr:street": "Hafenstra\u00dfe", "amenity": "restaurant", "building": "retail", "building:levels": "1", "cuisine": "regional", "diet:vegan": "yes", "diet:vegetarian": "yes", "name": "Mercator", "opening_hours": "\"Nur nach Terminvereinbarung.\"", "roof:levels": "2", "start_date": "1764"}}, {"type": "way", "id": 45673697, "nodes": [582039688, 1887245335, 1887245338, 1887245340, 1887245336, 582039711, 582039653, 582039655, 582039657, 1887245328, 1887245316, 1887245333, 1887245331, 582039688], "tags": {"addr:city": "Bilsen", "addr:country": "DE", "addr:housenumber": "1", "addr:postcode": "25485", "addr:street": "Kieler Stra\u00dfe", "amenity": "restaurant", "building": "yes", "cuisine": "regional", "email": "info@waldfrieden.com", "fax": "+49 4106 69196", "name": "Jagdhaus Waldfrieden", "opening_hours": "We-Su 12:30-14:00,17:30-21:00; Mo-Su 07:00-10:30,14:30-17:00", "operator": "Siegmund Baierle", "outdoor_seating": "yes", "phone": "+49 4106 61020", "ref:vatin": "DE 13 44 11 360", "start_date": "1902", "takeaway": "yes", "website": "https://www.waldfrieden.com/restaurant/"}}, {"type": "way", "id": 54108394, "nodes": [682267818, 682267817, 682267819, 682267821, 682267822, 682267823, 682267815, 682267816, 682267818], "tags": {"addr:city": "Quickborn", "addr:country": "DE", "addr:housenumber": "6", "addr:postcode": "25451", "addr:street": "Auf dem Halenberg", "amenity": "restaurant", "building": "yes", "name": "Hotel Quickborn", "tourism": "hotel", "wheelchair": "limited"}}, {"type": "way", "id": 61040845, "nodes": [764044034, 6109762868, 764044014, 764043974, 764044003, 764043968, 764043980, 764044034], "tags": {"amenity": "restaurant", "building": "commercial", "cuisine": "german", "highchair": "yes", "kids_area": "yes", "kids_area:indoor": "yes", "kids_area:outdoor": "yes", "level": "0", "name": "March\u00e9 Holmmoor West", "opening_hours": "24/7", "operator": "March\u00e9 M\u00f6venpick Deutschland GmbH", "outdoor_seating": "yes", "payment:cash": "yes", "payment:cryptocurrencies": "no", "payment:electronic_purses": "no", "payment:girocard": "yes", "payment:maestro": "yes", "payment:mastercard": "yes", "payment:visa": "yes", "smoking": "outside", "takeaway": "yes", "toilets:wheelchair": "yes", "wheelchair": "yes", "wheelchair:description": "Die Steigung der Rampe zum Restaurant k\u00f6nnte nach Augenschein mehr als 6% betragen"}}, {"type": "way", "id": 99572678, "nodes": [1151536276, 1151536301, 1151536315, 4069709730, 1151536269, 1151536299, 1151536270, 1151536293, 1151536278, 1151536276], "tags": {"website": "www.hotel-restaurant-seegarten.de", "tourism": "hotel", "roof:shape": "flat", "addr:city": "Quickborn", "addr:country": "DE", "addr:housenumber": "258", "addr:postcode": "25451", "addr:street": "Harksheider Weg", "amenity": "restaurant", "building": "hotel", "building:levels": "2", "name": "Hotel-Restaurant Seegarten", "old_name": "Sporthotel Quickborn", "opening_hours": "Mo-Su 07:00-24:00", "phone": "+49 4106 6367 0"}}, {"type": "way", "id": 101927474, "nodes": [1176727089, 289563570, 1176726910, 1176727113, 1176727020, 1176727115, 1176726874, 1176727060, 1176726961, 1176727126, 1176727087, 1176726980, 1176727035, 1176726950, 1176727089], "tags": {"addr:city": "Elmshorn", "addr:country": "DE", "addr:housenumber": "92", "addr:postcode": "25335", "addr:street": "G\u00e4rtnerstra\u00dfe", "amenity": "restaurant", "building": "hotel", "building:levels": "1", "internet_access": "wlan", "name": "Drei Kronen", "opening_hours": "Mo-Su,PH 06:30-23:00", "roof:levels": "1", "tourism": "hotel", "wheelchair": "yes"}}, {"type": "way", "id": 107191764, "nodes": [1232387106, 1232387083, 1232387095, 1232386988, 1232387010, 1232386901, 1232387106], "tags": {"website": "http://www.seegarten-barmstedt.de", "tourism": "hotel", "addr:city": "Barmstedt", "addr:country": "DE", "addr:housenumber": "10", "addr:postcode": "25355", "addr:street": "Seestra\u00dfe", "amenity": "restaurant", "building": "yes", "fax": "+49 4123 68 40 24", "name": "Hotel Restaurant Seegarten", "outdoor_seating": "yes", "phone": "+49 4123 68 400"}}, {"type": "way", "id": 113384441, "nodes": [1285913149, 1285913027, 3439404181, 3439404192, 1285912998, 1285913063, 1285913149], "tags": {"addr:city": "Elmshorn", "addr:country": "DE", "addr:housenumber": "54", "addr:postcode": "25335", "addr:street": "Lornsenstra\u00dfe", "amenity": "restaurant", "building": "retail", "name": "Kantine", "opening_hours": "\"Laut Website derzeit nur geschlossen\u200b Veranstaltungen.\"", "wheelchair": "yes"}}, {"type": "way", "id": 113403504, "nodes": [1286040871, 1286040865, 1286040930, 1286040901, 1286040851, 4874614428, 4874614427, 1286040922, 2931942963, 2931942975, 2931942971, 1286040871], "tags": {"addr:city": "Elmshorn", "addr:country": "DE", "addr:housenumber": "126", "addr:postcode": "25336", "addr:street": "Heidm\u00fchlenweg", "amenity": "restaurant", "building": "house", "name": "Restaurant Adria", "old_name": "Zum M\u00fchlenwirt", "wheelchair": "yes"}}, {"type": "way", "id": 113413357, "nodes": [1286151287, 1286151183, 1286151246, 1286151327, 1286151262, 1286151287], "tags": {"addr:city": "Elmshorn", "addr:country": "DE", "addr:housenumber": "58", "addr:postcode": "25335", "addr:street": "Flamweg", "amenity": "restaurant", "building": "house", "cuisine": "burger;pizza;steak_house;seafood", "delivery": "yes", "name": "Sandhu Restaurant", "opening_hours": "Mo-Su 11:30-23:00", "takeaway": "yes"}}, {"type": "way", "id": 114373271, "nodes": [1295715889, 1295715881, 1295715941, 1295715916, 1295715889], "tags": {"addr:city": "Elmshorn", "addr:country": "DE", "addr:housenumber": "16", "addr:postcode": "25335", "addr:street": "Peterstra\u00dfe", "amenity": "restaurant", "building": "house", "building:levels": "2", "name": "Casablanca", "roof:levels": "2", "roof:shape": "gabled", "toilets:wheelchair": "no", "wheelchair": "limited"}}, {"type": "way", "id": 117856210, "nodes": [1326678141, 1845285444, 2194308075, 1326678131, 1326678146, 1845285446, 1326678141], "tags": {"addr:city": "Elmshorn", "addr:country": "DE", "addr:housenumber": "7", "addr:postcode": "25335", "addr:street": "Marktstra\u00dfe", "amenity": "restaurant", "building": "house", "layer": "1", "name": "Sette Feinbistro", "start_date": "1983", "wheelchair": "limited"}}, {"type": "way", "id": 120727797, "nodes": [682267844, 1352904533, 1352904535, 1352904527, 1352904534, 1352904536, 1352904538, 1352904537, 1352904540, 1352904542, 1352904553, 1352904557, 1352904543, 1352904555, 1447222065, 1352904541, 1352904539, 682267844], "tags": {"addr:city": "Quickborn", "addr:country": "DE", "addr:housenumber": "30", "addr:postcode": "25451", "addr:street": "Max-Weber-Stra\u00dfe", "amenity": "restaurant", "building": "yes", "name": "Max Weber Klause", "opening_hours": "Mo-Fr 11:00-23:00; Sa 12:00-23:00; PH 12:00-23:00", "wheelchair": "limited"}}, {"type": "way", "id": 120872116, "nodes": [1354205175, 1354205176, 1354205181, 1354205182, 798665681, 1354205166, 1354205175], "tags": {"opening_hours": "Tu-Fr 17:00-23:00; Sa 12:00-14:30,17:30-23:30; Su 12:00-22:00; PH 12:00-22:00", "addr:city": "Norderstedt", "addr:country": "DE", "addr:housenumber": "499", "addr:postcode": "22846", "addr:street": "Ulzburger Stra\u00dfe", "amenity": "restaurant", "building": "yes", "check_date": "2019-05-03", "cuisine": "greek", "name": "Irodion", "note": "not sure if smoking area still exists", "phone": "+49 40 5261777", "reservation": "yes", "smoking": "isolated", "website": "http://irodion-norderstedt.rgio.de/", "wheelchair": "limited"}}, {"type": "way", "id": 123627039, "nodes": [278567421, 1377889126, 1377889117, 1377889104, 1377889112, 1377889119, 278567421], "tags": {"addr:city": "Norderstedt", "addr:country": "DE", "addr:housenumber": "51", "addr:postcode": "22844", "addr:street": "Elfenhagen", "amenity": "restaurant", "building": "yes", "cuisine": "steak_house", "email": "info@steakhouse-meeschensee.de", "fax": "+49 40 65791729", "name": "Steakhouse Meeschensee", "opening_hours": "Tu-Su 12:00-22:00", "phone": "+49 40 65791726", "smoking": "isolated", "website": "https://steakhouse-meeschensee.de/", "wheelchair": "limited"}}, {"type": "way", "id": 131237759, "nodes": [1444857047, 1444857053, 2156827806, 2156827793, 1444857059, 1444857050, 1444857047], "tags": {"opening_hours": "Mo-Sa 17:00-24:00, Su 12:00-15:00,17:00-24:00", "addr:housenumber": "29", "addr:street": "Plinkstra\u00dfe", "amenity": "restaurant", "building": "commercial", "building:levels": "1", "name": "San Marino", "phone": "+49 4121 78537", "roof:levels": "1", "website": "http://www.restaurant-sanmarino.de", "wheelchair": "limited"}}, {"type": "way", "id": 143121274, "nodes": [1566301491, 1566301537, 1566301538, 1566301556, 1566301573, 1566301504, 1566301491], "tags": {"amenity": "restaurant", "name": "Hamburger Hof", "opening_hours": "Mo-Fr 17:00+; Sa 12:00-18:00; Su 14:00-18:00", "operator": "Claus Scheller", "phone": "+49 4106 68383", "tourism": "hotel"}}, {"type": "way", "id": 158575000, "nodes": [1707462377, 1707462370, 1707462371, 1707462366, 1707462380, 1707462383, 1707462391, 1707462394, 1707462377], "tags": {"addr:city": "Hemdingen", "addr:country": "DE", "addr:housenumber": "2", "addr:postcode": "25485", "addr:street": "Barmstedter Stra\u00dfe", "amenity": "restaurant", "beds": "50", "building": "yes", "cuisine": "german", "name": "Hemdinger Hof", "opening_hours": "Mo-Sa 17:30-23:00; Su 11:30-14:30,17:30-23:00", "phone": "+49 4123 4684", "rooms": "28", "tourism": "hotel", "website": "https://www.hemdinger-hof.de/"}}, {"type": "way", "id": 225299517, "nodes": [2340963007, 2340963013, 2340962996, 2340962990, 2340963007], "tags": {"addr:city": "Elmshorn", "addr:country": "DE", "addr:housenumber": "6", "addr:postcode": "25336", "addr:street": "Margarethenstra\u00dfe", "amenity": "restaurant", "building": "house", "cuisine": "regional", "name": "Margaretherklause"}}, {"type": "way", "id": 226520349, "nodes": [2353138667, 2353138668, 2353138662, 2353138661, 2353138666, 2353138664, 2353138667], "tags": {"addr:city": "Elmshorn", "addr:country": "DE", "addr:housenumber": "2a", "addr:postcode": "25336", "addr:street": "Rehmkestra\u00dfe", "amenity": "restaurant", "building": "house", "name": "Samos"}}, {"type": "way", "id": 238947043, "nodes": [2467569226, 2467569225, 2467569197, 2467569198, 2467569226], "tags": {"addr:city": "Horst", "addr:country": "DE", "addr:housenumber": "27", "addr:postcode": "25358", "addr:street": "Bahnhofstra\u00dfe", "amenity": "restaurant", "building": "house", "cuisine": "greek", "name": "Xenios"}}, {"type": "way", "id": 240045153, "nodes": [2478131318, 2478131329, 2478131321, 2478131314, 2478131318], "tags": {"addr:city": "Quickborn", "addr:country": "DE", "addr:housenumber": "69", "addr:postcode": "25451", "addr:street": "Harksheider Weg", "amenity": "restaurant", "building": "commercial", "cuisine": "greek", "email": "lukulluspoly@web.de", "name": "Lukullus", "opening_hours": "Tu-Sa 16:30-23:00; Su,PH 12:00-14:30,16:30-23:00", "outdoor_seating": "yes", "phone": "+49 4106 60878", "start_date": "1997", "website": "https://lukullus-quickborn.de/"}}, {"type": "way", "id": 240097010, "nodes": [3424009935, 2478711554, 2478711557, 2478711556, 4914127477, 3424009935], "tags": {"addr:city": "Barmstedt", "addr:housenumber": "1", "addr:postcode": "25355", "addr:street": "Schlickumstra\u00dfe", "amenity": "restaurant", "building": "yes", "capacity": "100", "cuisine": "european", "email": "info@lays-loft.de", "fax": "+49 4123 9222241", "name": "Lay's Loft", "opening_hours": "We-Su 12:00+", "operator": "Angela Lantow Petersen, Fritz Lay", "phone": "+49 4123 9290577;+49 4123 9222240", "website": "https://www.lays-loft.de/"}}, {"type": "way", "id": 240368404, "nodes": [2481118740, 2481118739, 2481118738, 2481118717, 2481118718, 2481118689, 2481118688, 2481118664, 2481118666, 2481118687, 2481118686, 2481118728, 2481118727, 2481118740], "tags": {"phone": "+49 4126 2218", "website": "www.ohrid-restaurant.de", "addr:city": "Horst", "addr:country": "DE", "addr:housenumber": "2", "addr:postcode": "25358", "addr:street": "Ernst-Barlach-Stra\u00dfe", "amenity": "restaurant", "building": "house", "name": "Ohrid", "opening_hours": "Mo-Fr 17:30-23:00; Sa,Su 11:30-14:30,17:30-23:00"}}, {"type": "way", "id": 253134534, "nodes": [2591118725, 2591118733, 2591118729, 2591118723, 2591118722, 2591118720, 2591118725], "tags": {"amenity": "restaurant", "building": "yes", "name": "Santorini"}}, {"type": "way", "id": 259425280, "nodes": [2648344827, 2648344825, 2651644961, 2648344824, 2955673423, 2955690794, 2648344826, 2648344827], "tags": {"addr:city": "Barmstedt", "addr:country": "DE", "addr:housenumber": "9a", "addr:postcode": "25355", "addr:street": "Schulstra\u00dfe", "amenity": "restaurant", "building": "yes", "cuisine": "german", "name": "BMTV Vereinsheim", "outdoor_seating": "yes", "phone": "+49 4123 9295530", "toilets:wheelchair": "no", "wheelchair": "yes"}}, {"type": "way", "id": 259515418, "nodes": [2649447210, 778163549, 2649447202, 2649447205, 2649447206, 2649447209, 2649447210], "tags": {"addr:city": "Elmshorn", "addr:country": "DE", "addr:housenumber": "169", "addr:postcode": "25335", "addr:street": "Papenh\u00f6he", "amenity": "restaurant", "building": "house", "name": "Zum Pfahlkrug", "wheelchair": "no"}}, {"type": "way", "id": 283637838, "nodes": [2874770472, 2874770470, 2874770478, 2874770475, 2874770465, 2874770466, 2874770464, 2874770469, 2874770468, 2874770467, 2874770473, 2874770476, 2874770474, 2874770483, 2874770482, 2874770472], "tags": {"addr:city": "Heede", "addr:country": "DE", "addr:housenumber": "1", "addr:postcode": "25355", "addr:street": "Heeder Damm", "amenity": "restaurant", "building": "yes", "name": "Gastst\u00e4tte Heeder Damm"}}, {"type": "way", "id": 286878878, "nodes": [2905551303, 2905551311, 2905551312, 2905551316, 2905551319, 2905551309, 2905551303], "tags": {"addr:city": "Elmshorn", "addr:housenumber": "21", "addr:postcode": "25336", "addr:street": "Wilhelmstra\u00dfe", "amenity": "restaurant", "building": "yes", "name": "FTSV Sportheim"}}, {"type": "way", "id": 289232608, "nodes": [2927792604, 2927780395, 2927780383, 2927780379, 2927780375, 2927780385, 2927780398, 2927792604], "tags": {"wheelchair": "no", "amenity": "restaurant", "name": "Schweinske Biergarten"}}, {"type": "way", "id": 302400851, "nodes": [3066580600, 3066580602, 3066580611, 3066580610, 3066580609, 3066580607, 3066580606, 3066580600], "tags": {"addr:city": "Elmshorn", "addr:country": "DE", "addr:housenumber": "243", "addr:postcode": "25335", "addr:street": "Kaltenweide", "amenity": "restaurant", "building": "commercial", "name": "Glacehaus", "toilets:wheelchair": "no", "wheelchair": "limited", "wheelchair:description": "WC Kabinen sind erreichbar mit dem Rolli, aber die T\u00fcren zu schmal."}}, {"type": "way", "id": 306116833, "nodes": [3109332091, 3109332095, 3109332099, 3109332102, 3109332101, 3109332096, 3109332092, 3109332089, 3109332088, 3109332090, 3109332086, 3109332081, 283315736, 3109332075, 3109332085, 3109332087, 3109332093, 3109332104, 3109332100, 3109332098, 3109332097, 3109332094, 3109332091], "tags": {"addr:city": "Elmshorn", "addr:country": "DE", "addr:housenumber": "10", "addr:postcode": "25335", "addr:street": "Sibirien", "amenity": "restaurant", "building": "yes", "name": "Sibirien", "website": "http://www.sibirien.de/", "wheelchair": "yes"}}, {"type": "way", "id": 306218388, "nodes": [3110681106, 3110681100, 3110681087, 3110681092, 3110681093, 3110681094, 3110681106], "tags": {"addr:city": "Klein Offenseth-Sparrieshoop", "addr:country": "DE", "addr:housenumber": "17", "addr:postcode": "25365", "addr:street": "Rosenstra\u00dfe", "amenity": "restaurant", "building": "house", "name": "Restaurant Marone"}}, {"type": "way", "id": 311318768, "nodes": [3169308623, 3169308625, 3169308635, 3169308632, 3169308634, 3169308629, 3169308621, 3169308620, 3169308619, 3169308613, 3169308617, 3169308623], "tags": {"addr:city": "Barmstedt", "addr:country": "DE", "addr:housenumber": "1", "addr:postcode": "25355", "addr:street": "Bahnhofstra\u00dfe", "amenity": "restaurant", "building": "yes", "cuisine": "greek", "name": "Taverna zum Griechen"}}, {"type": "way", "id": 312134760, "nodes": [3179690934, 3179690946, 3179690935, 3179690936, 3179690937, 3179690938, 3179690939, 3179690940, 3179690941, 3179690942, 3179690943, 3179690944, 3179690945, 3179690934], "tags": {"addr:city": "Horst", "addr:housenumber": "1", "addr:postcode": "25358", "addr:street": "Horstm\u00fchle", "amenity": "restaurant", "building": "yes", "name": "Landhaus Horstm\u00fchle", "website": "http://www.landhaus-horstmuehle.de"}}, {"type": "way", "id": 318968448, "nodes": [3253762598, 3253762600, 3253762601, 3253762599, 3253762598], "tags": {"addr:city": "Elmshorn", "addr:country": "DE", "addr:housenumber": "8", "addr:postcode": "25335", "addr:street": "Friedensallee", "amenity": "restaurant", "building": "yes", "cuisine": "steak", "name": "Rio Grande", "wheelchair": "limited"}}, {"type": "way", "id": 353655904, "nodes": [3594723492, 3594723493, 3594723494, 1670318891, 3594723496, 3594723497, 3594723492], "tags": {"addr:city": "Ellerau", "addr:housenumber": "2", "addr:postcode": "25479", "addr:street": "H\u00f8jerweg", "amenity": "restaurant", "building": "yes", "name": "Restaurant Beograd", "opening_hours": "10:00-22:00", "phone": "+49 4106 1248497"}}, {"type": "way", "id": 360821528, "nodes": [3653726393, 3653726397, 3653726398, 3653726396, 3653726395, 3653726392, 3653726391, 3653726394, 3653726393], "tags": {"addr:city": "Barmstedt", "addr:country": "DE", "addr:housenumber": "33", "addr:postcode": "25355", "addr:street": "Lutzhorner Landstra\u00dfe", "amenity": "restaurant", "building": "yes", "name": "Zum Landkrog"}}, {"type": "way", "id": 397641298, "nodes": [4004229171, 4004229164, 4004229146, 4004229154, 4004229171], "tags": {"addr:city": "Elmshorn", "addr:housenumber": "236", "addr:postcode": "25335", "addr:street": "Kaltenweide", "amenity": "restaurant", "building": "house", "name": "Gastst\u00e4tte Wilhelmsh\u00f6he"}}, {"type": "way", "id": 525638224, "nodes": [5113153428, 5113153426, 5113153427, 366581722, 5113153428], "tags": {"addr:city": "Kiebitzreihe", "addr:country": "DE", "addr:housenumber": "69", "addr:postcode": "25368", "addr:street": "Schulstra\u00dfe", "amenity": "restaurant", "building": "yes", "name": "Kiebitz Klause"}}, {"type": "way", "id": 591322411, "nodes": [5645405663, 5645405662, 5645405661, 5645405660, 5645405656, 5645405659, 5645405658, 5645405657, 5645405655, 765943462, 5645405663], "tags": {"addr:city": "Ellerhoop", "addr:country": "DE", "addr:housenumber": "23", "addr:postcode": "25373", "addr:street": "Barmstedter Stra\u00dfe", "amenity": "restaurant", "building": "yes", "cuisine": "german", "name": "Gasthof zur Linde", "website": "http://zur-ellerhooper-linde.de"}}, {"type": "way", "id": 946168750, "nodes": [8759027006, 8759027007, 8759027008, 8759027009, 8759027006], "tags": {"building": "yes", "amenity": "restaurant", "cuisine": "german"}}, {"type": "way", "id": 964417969, "nodes": [8920588584, 866629795, 8920588585, 8920588586, 8920588587, 4578094384, 8920588584], "tags": {"addr:city": "Quickborn", "addr:country": "DE", "addr:housenumber": "12", "addr:postcode": "25451", "addr:street": "Bahnhofstra\u00dfe", "amenity": "restaurant", "building": "yes", "cuisine": "spanish;tapas", "name": "Tapas Compostela", "opening_hours": "Th-Tu 16:30-22:00", "phone": "+49 4106 613133", "website": "https://www.tapascompostela.com/", "website:menu": "https://tapascompostela.de/wp-content/uploads/2021/06/carta-nueva-2021.pdf", "wheelchair": "limited"}}, {"type": "way", "id": 1009052288, "nodes": [2476484258, 9310150531, 9310150532, 1277329992, 2476484258], "tags": {"amenity": "restaurant", "building": "yes", "email": "info@lorado-grande.de", "entrance": "yes", "name": "Lorado Grande", "opening_hours": "Mo-Th 11:30-15:00,17:00-22:30; Fr-Sa 11:30-23:00; Su 11:30-22:00", "phone": "+49 4126 3966393", "website": "https://www.lorado-grande.de/", "wheelchair": "limited"}}]}